<?xml version="1.0" encoding="UTF-8"?>
<kml xmlns="http://www.opengis.net/kml/2.2" xmlns:gx="http://www.google.com/kml/ext/2.2" xmlns:kml="http://www.opengis.net/kml/2.2" xmlns:atom="http://www.w3.org/2005/Atom">
<Document>
	<name>ANR Bamboo Plant. over 10.0 ha under ELEMENT Project under Harincherra Beat1-19_28_47.kml</name>
	<StyleMap id="msn_ylw-pushpin">
		<Pair>
			<key>normal</key>
			<styleUrl>#sn_ylw-pushpin</styleUrl>
		</Pair>
		<Pair>
			<key>highlight</key>
			<styleUrl>#sh_ylw-pushpin</styleUrl>
		</Pair>
	</StyleMap>
	<Style id="sh_ylw-pushpin">
		<IconStyle>
			<scale>1.3</scale>
			<Icon>
				<href>http://maps.google.com/mapfiles/kml/pushpin/ylw-pushpin.png</href>
			</Icon>
			<hotSpot x="20" y="2" xunits="pixels" yunits="pixels"/>
		</IconStyle>
		<BalloonStyle>
		</BalloonStyle>
		<PolyStyle>
			<fill>0</fill>
		</PolyStyle>
	</Style>
	<Style id="sn_ylw-pushpin">
		<IconStyle>
			<scale>1.1</scale>
			<Icon>
				<href>http://maps.google.com/mapfiles/kml/pushpin/ylw-pushpin.png</href>
			</Icon>
			<hotSpot x="20" y="2" xunits="pixels" yunits="pixels"/>
		</IconStyle>
		<BalloonStyle>
		</BalloonStyle>
		<PolyStyle>
			<fill>0</fill>
		</PolyStyle>
	</Style>
	<Placemark>
		<name>ANR Bamboo Plant. over 10.0 ha under ELEMENT Project under Harincherra Beat1-19_28_47</name>
		<styleUrl>#msn_ylw-pushpin</styleUrl>
		<Polygon>
			<tessellate>1</tessellate>
			<outerBoundaryIs>
				<LinearRing>
					<coordinates>
						91.91150063785618,23.83204857864346,0 91.9122928042802,23.83149505834025,0 91.91239682931331,23.83119278372511,0 91.91204098706476,23.83101818158078,0 91.91204382499082,23.83087969718117,0 91.91196930214277,23.83077353036774,0 91.91173155727265,23.83062200555138,0 91.91149568547311,23.83054914442737,0 91.91135074567252,23.83038719677541,0 91.91135385600694,23.82976101558013,0 91.91144885300358,23.82958139829242,0 91.91157837935782,23.82952348229386,0 91.91178753708711,23.82922379427963,0 91.91190328560693,23.82905765330496,0 91.91196702300144,23.82901617466815,0 91.91206410264085,23.82896189954879,0 91.91223782778975,23.82884805509794,0 91.91244806525164,23.82881355265949,0 91.91252353902706,23.82876556309685,0 91.91261568033869,23.82864390481204,0 91.91270498231762,23.82845480047845,0 91.91271174284616,23.82830684004428,0 91.91283028991056,23.82830033995953,0 91.91298533431851,23.82826136236306,0 91.91317208545851,23.82821170944509,0 91.91335773857878,23.82820140598186,0 91.91342948011409,23.82813936951041,0 91.91342821466115,23.82793402975651,0 91.9135234371676,23.82791263321221,0 91.91364894604141,23.82791120337913,0 91.91370535353292,23.82788985559468,0 91.91376586869916,23.82783643306611,0 91.91386245681251,23.82757748360464,0 91.9139410614613,23.82759558188449,0 91.91402454647613,23.82764834110115,0 91.91414096863184,23.82773544463871,0 91.9141795779091,23.82779450058429,0 91.91424269756975,23.82775571476923,0 91.91419639450825,23.82802623643336,0 91.9142810640063,23.8281533338783,0 91.91432165398511,23.82836955263935,0 91.91429037067653,23.82845333497064,0 91.91434867648,23.82856672430706,0 91.91432971317184,23.82873731335362,0 91.91425782343244,23.82880384614762,0 91.91417744089864,23.82909209604872,0 91.91415253313455,23.82938040881817,0 91.91422019067248,23.82946563959154,0 91.9142296896092,23.82954467804635,0 91.91436002287878,23.82974628104911,0 91.91436146197083,23.82982543563132,0 91.91423959322573,23.8302966557346,0 91.91426912683929,23.83067475363706,0 91.91394295441717,23.83108528729794,0 91.91385207230921,23.83111636913624,0 91.91304497876206,23.83211769168316,0 91.91275994856494,23.83210503428275,0 91.91261195875884,23.83241690055092,0 91.91227000897403,23.83237147940832,0 91.91205577332953,23.83268275770632,0 91.91105465561944,23.83226713260285,0 91.91150063785618,23.83204857864346,0 
					</coordinates>
				</LinearRing>
			</outerBoundaryIs>
		</Polygon>
		<atom:link rel="app" href="https://www.google.com/earth/about/versions/#earth-pro" title="Google Earth Pro 7.3.7.1155"></atom:link>
	</Placemark>
</Document>
</kml>
