<?xml version="1.0" encoding="UTF-8"?>
<kml xmlns="http://www.opengis.net/kml/2.2" xmlns:gx="http://www.google.com/kml/ext/2.2" xmlns:kml="http://www.opengis.net/kml/2.2" xmlns:atom="http://www.w3.org/2005/Atom">
<Document>
	<name>1778672002252.kml</name>
	<StyleMap id="msn_ylw-pushpin">
		<Pair>
			<key>normal</key>
			<styleUrl>#sn_ylw-pushpin</styleUrl>
		</Pair>
		<Pair>
			<key>highlight</key>
			<styleUrl>#sh_ylw-pushpin</styleUrl>
		</Pair>
	</StyleMap>
	<Style id="sh_ylw-pushpin">
		<IconStyle>
			<scale>1.3</scale>
			<Icon>
				<href>http://maps.google.com/mapfiles/kml/pushpin/ylw-pushpin.png</href>
			</Icon>
			<hotSpot x="20" y="2" xunits="pixels" yunits="pixels"/>
		</IconStyle>
		<BalloonStyle>
		</BalloonStyle>
		<PolyStyle>
			<fill>0</fill>
		</PolyStyle>
	</Style>
	<Style id="sn_ylw-pushpin">
		<IconStyle>
			<scale>1.1</scale>
			<Icon>
				<href>http://maps.google.com/mapfiles/kml/pushpin/ylw-pushpin.png</href>
			</Icon>
			<hotSpot x="20" y="2" xunits="pixels" yunits="pixels"/>
		</IconStyle>
		<BalloonStyle>
		</BalloonStyle>
		<PolyStyle>
			<fill>0</fill>
		</PolyStyle>
	</Style>
	<Placemark>
		<name>1778672002252</name>
		<styleUrl>#msn_ylw-pushpin</styleUrl>
		<Polygon>
			<tessellate>1</tessellate>
			<outerBoundaryIs>
				<LinearRing>
					<coordinates>
						91.86736167790518,23.53130010236549,0 91.86695424536184,23.53114473376577,0 91.86694960242041,23.53102310887733,0 91.86689367228026,23.53083869288893,0 91.86699493258359,23.53072446656113,0 91.86713279563277,23.53071457731047,0 91.86754667926014,23.53051044944365,0 91.86783101661857,23.53067620472189,0 91.86809252926241,23.53068053667982,0 91.86821376429444,23.53063893069647,0 91.86830218227001,23.53025614217332,0 91.86818971349493,23.53002647811407,0 91.86816114530399,23.52990480757215,0 91.86801364996845,23.52963716715541,0 91.86808915965479,23.52943021951958,0 91.86836148981661,23.52932336577916,0 91.86849924843364,23.52920076436809,0 91.86855272263774,23.52920076204397,0 91.86864969107958,23.52928230203583,0 91.86867637264183,23.52940671810975,0 91.86867653679352,23.52941964300073,0 91.86868034324567,23.52943260086685,0 91.86869507229581,23.52944558122671,0 91.86870608822821,23.52945207860883,0 91.86876969502732,23.5295242371082,0 91.8689023776622,23.52955050696371,0 91.86894167021146,23.52971216006269,0 91.86901847734347,23.52977349254857,0 91.86906318010936,23.52985978715466,0 91.86901737912864,23.52993392267122,0 91.86891784071592,23.53003031179172,0 91.86879279523983,23.5301058793753,0 91.86881271210115,23.53015552291151,0 91.86894888881689,23.53023272148251,0 91.86911073905858,23.5302485633834,0 91.86921994906922,23.53030117794851,0 91.86933899636955,23.5303034055779,0 91.86943333198978,23.5303461487656,0 91.86965670740591,23.53041368993988,0 91.86990415512686,23.53056047877087,0 91.86999629246151,23.53072240911688,0 91.87004697787809,23.53081331195806,0 91.8700627091381,23.53093087623423,0 91.87004195938574,23.53103552396515,0 91.86991219570675,23.53112145276103,0 91.86990207752757,23.53125801446799,0 91.87003641946498,23.53142406783947,0 91.87028296937611,23.53160568424918,0 91.87030158163194,23.53171970469872,0 91.87025572766699,23.53179662765001,0 91.87011895467157,23.53188653516951,0 91.86997426879165,23.53191178571967,0 91.86973668585449,23.53191185191031,0 91.86937263360471,23.5318733345083,0 91.86884523915016,23.53172459370727,0 91.86835291141043,23.53173437358152,0 91.86797723723737,23.53175989373586,0 91.86776842140036,23.53171902045294,0 91.86749365561158,23.53140765093158,0 91.86736167790518,23.53130010236549,0 
					</coordinates>
				</LinearRing>
			</outerBoundaryIs>
		</Polygon>
		<atom:link rel="app" href="https://www.google.com/earth/about/versions/#earth-pro" title="Google Earth Pro 7.3.7.1155"></atom:link>
	</Placemark>
</Document>
</kml>
