<?xml version="1.0" encoding="UTF-8"?>
<kml xmlns="http://www.opengis.net/kml/2.2" xmlns:gx="http://www.google.com/kml/ext/2.2" xmlns:kml="http://www.opengis.net/kml/2.2" xmlns:atom="http://www.w3.org/2005/Atom">
<Document>
	<name>1778561565380.kml</name>
	<StyleMap id="msn_ylw-pushpin">
		<Pair>
			<key>normal</key>
			<styleUrl>#sn_ylw-pushpin</styleUrl>
		</Pair>
		<Pair>
			<key>highlight</key>
			<styleUrl>#sh_ylw-pushpin</styleUrl>
		</Pair>
	</StyleMap>
	<Style id="sh_ylw-pushpin">
		<IconStyle>
			<scale>1.3</scale>
			<Icon>
				<href>http://maps.google.com/mapfiles/kml/pushpin/ylw-pushpin.png</href>
			</Icon>
			<hotSpot x="20" y="2" xunits="pixels" yunits="pixels"/>
		</IconStyle>
		<BalloonStyle>
		</BalloonStyle>
		<PolyStyle>
			<fill>0</fill>
		</PolyStyle>
	</Style>
	<Style id="sn_ylw-pushpin">
		<IconStyle>
			<scale>1.1</scale>
			<Icon>
				<href>http://maps.google.com/mapfiles/kml/pushpin/ylw-pushpin.png</href>
			</Icon>
			<hotSpot x="20" y="2" xunits="pixels" yunits="pixels"/>
		</IconStyle>
		<BalloonStyle>
		</BalloonStyle>
		<PolyStyle>
			<fill>0</fill>
		</PolyStyle>
	</Style>
	<Placemark>
		<name>1778561565380</name>
		<styleUrl>#msn_ylw-pushpin</styleUrl>
		<Polygon>
			<tessellate>1</tessellate>
			<outerBoundaryIs>
				<LinearRing>
					<coordinates>
						91.92175430027811,24.00424840519434,0 91.92207436721603,24.00400717914794,0 91.92219730428283,24.00385354545802,0 91.92222120763721,24.00378146163851,0 91.92230623459548,24.0036754364759,0 91.92239062927177,24.00365982619401,0 91.92249131494617,24.00353206679812,0 91.92262129009646,24.0034292739401,0 91.92272852573635,24.00345456630979,0 91.92281630027102,24.00345253341239,0 91.92302855325137,24.00339294449748,0 91.92332067951247,24.00337871117816,0 91.92344089176403,24.00333779534631,0 91.92351819801951,24.00333609116345,0 91.9237101104554,24.00328296092318,0 91.92376929370266,24.0032837156328,0 91.92391092382658,24.00322842001156,0 91.92413272519289,24.00323521740622,0 91.92432007712026,24.00330344567043,0 91.92435558787328,24.00334186762128,0 91.92451705721115,24.00344879688418,0 91.92454479979058,24.00348967345145,0 91.92455666327285,24.00352748489721,0 91.92468410937516,24.00367205129168,0 91.92465009772323,24.00383152699326,0 91.92462644307044,24.00395245903303,0 91.92453249042381,24.00404822776095,0 91.92449789704828,24.00423148957707,0 91.92448640466677,24.00432799577395,0 91.92443616733726,24.00437915991853,0 91.92438678099624,24.00450002675026,0 91.92426432612424,24.00451692704866,0 91.92399623863652,24.00462407899586,0 91.92373629827767,24.00468252873795,0 91.92340243335141,24.00484188093411,0 91.92334253556839,24.00510795280276,0 91.92308985878266,24.00528661569173,0 91.92282495539359,24.00530380381337,0 91.92257451310249,24.00522065716921,0 91.92225472461145,24.00508975242275,0 91.92187843052467,24.00515045719361,0 91.92147606582412,24.00513560058249,0 91.92124979349796,24.00495722038465,0 91.92113779485908,24.00474164690091,0 91.92107283708808,24.0044921956371,0 91.92115666930992,24.00430678707225,0 91.92143389969198,24.00425563037189,0 91.92175430027811,24.00424840519434,0 
					</coordinates>
				</LinearRing>
			</outerBoundaryIs>
		</Polygon>
		<atom:link rel="app" href="https://www.google.com/earth/about/versions/#earth-pro" title="Google Earth Pro 7.3.7.1155"></atom:link>
	</Placemark>
</Document>
</kml>
