<?xml version="1.0" encoding="UTF-8"?>
<kml xmlns="http://www.opengis.net/kml/2.2" xmlns:gx="http://www.google.com/kml/ext/2.2" xmlns:kml="http://www.opengis.net/kml/2.2" xmlns:atom="http://www.w3.org/2005/Atom">
<Document>
	<name>1778063442046.kml</name>
	<StyleMap id="msn_ylw-pushpin">
		<Pair>
			<key>normal</key>
			<styleUrl>#sn_ylw-pushpin</styleUrl>
		</Pair>
		<Pair>
			<key>highlight</key>
			<styleUrl>#sh_ylw-pushpin</styleUrl>
		</Pair>
	</StyleMap>
	<Style id="sh_ylw-pushpin">
		<IconStyle>
			<scale>1.3</scale>
			<Icon>
				<href>http://maps.google.com/mapfiles/kml/pushpin/ylw-pushpin.png</href>
			</Icon>
			<hotSpot x="20" y="2" xunits="pixels" yunits="pixels"/>
		</IconStyle>
		<BalloonStyle>
		</BalloonStyle>
		<PolyStyle>
			<fill>0</fill>
		</PolyStyle>
	</Style>
	<Style id="sn_ylw-pushpin">
		<IconStyle>
			<scale>1.1</scale>
			<Icon>
				<href>http://maps.google.com/mapfiles/kml/pushpin/ylw-pushpin.png</href>
			</Icon>
			<hotSpot x="20" y="2" xunits="pixels" yunits="pixels"/>
		</IconStyle>
		<BalloonStyle>
		</BalloonStyle>
		<PolyStyle>
			<fill>0</fill>
		</PolyStyle>
	</Style>
	<Placemark>
		<name>1778063442046</name>
		<styleUrl>#msn_ylw-pushpin</styleUrl>
		<Polygon>
			<tessellate>1</tessellate>
			<outerBoundaryIs>
				<LinearRing>
					<coordinates>
						91.84134346135392,23.44893646871917,0 91.84122951634384,23.44864105454617,0 91.84089651727592,23.44843214365071,0 91.84097235702536,23.44828227267111,0 91.84102682256048,23.44814369621787,0 91.84096224029926,23.44798456509169,0 91.84066933090517,23.44781859683821,0 91.84075587249075,23.4476261380197,0 91.84108475731516,23.44721057099815,0 91.84116448977635,23.44719228056323,0 91.84128087197298,23.44703611730789,0 91.84133871377422,23.44680926782414,0 91.84150697087927,23.44664669882741,0 91.84169105953363,23.44662970622549,0 91.84192598176541,23.44658332932086,0 91.84204978558026,23.44639009839518,0 91.84227767440187,23.44628920276641,0 91.84243184634876,23.44612965896763,0 91.8427360767573,23.44590011376157,0 91.84293266782969,23.44575014914567,0 91.84315922410286,23.44579673334795,0 91.84332070496031,23.44584721249966,0 91.84344284079587,23.44599373316235,0 91.8434732832894,23.44613755971367,0 91.84352396124712,23.44633798256431,0 91.84384331915531,23.44647790874721,0 91.84390643394647,23.44671090278453,0 91.84397224175774,23.44677676025763,0 91.84418181678744,23.44681211151112,0 91.84418935625401,23.44686515508326,0 91.84422221931727,23.44711376886442,0 91.84430739021518,23.44732486549243,0 91.84450663047666,23.44739293857974,0 91.84456748730408,23.44762813678567,0 91.84453836131306,23.44788245962501,0 91.84437702115522,23.44845880492741,0 91.84437236198637,23.44846412534291,0 91.84436890467681,23.44848515356384,0 91.84436021675768,23.44850610825447,0 91.8443515073765,23.44852711479952,0 91.8443376017821,23.44854813712861,0 91.84433402370223,23.4485692842523,0 91.84433141278562,23.44860607364782,0 91.84433216670108,23.44862595979694,0 91.84432243618912,23.44864563718404,0 91.84430797724843,23.4486801248234,0 91.84430383547766,23.44870996226863,0 91.84429404829213,23.44872968608638,0 91.84428954725051,23.44874962804011,0 91.84429031569908,23.44876974750736,0 91.84429616160205,23.44878966751207,0 91.84430725399962,23.44880968784184,0 91.84430781379498,23.44882945961148,0 91.84428714345343,23.44884375398347,0 91.84427728449677,23.44886822888684,0 91.8442674309749,23.44889275493216,0 91.84424705761838,23.44891711028146,0 91.8442109662265,23.44894601604673,0 91.84419541871642,23.44896494498789,0 91.84417464709368,23.44898853839048,0 91.84414326889711,23.44900701588931,0 91.8438450634991,23.44909185382445,0 91.84376108115634,23.44905623880183,0 91.84354745745122,23.449034265065,0 91.84333558673376,23.44914614736862,0 91.84298146298528,23.44912393393408,0 91.84278156649609,23.44926359964149,0 91.84255288464909,23.44923901664881,0 91.84243041553229,23.44918950195248,0 91.84225010334539,23.44900339224955,0 91.84195723542891,23.44896142155495,0 91.84179877840893,23.44898544391167,0 91.84144476659907,23.44903737287602,0 91.84134346135392,23.44893646871917,0 
					</coordinates>
				</LinearRing>
			</outerBoundaryIs>
		</Polygon>
		<atom:link rel="app" href="https://www.google.com/earth/about/versions/#earth-pro" title="Google Earth Pro 7.3.7.1155"></atom:link>
	</Placemark>
</Document>
</kml>
