<?xml version="1.0" encoding="UTF-8"?>
<kml xmlns="http://www.opengis.net/kml/2.2" xmlns:gx="http://www.google.com/kml/ext/2.2" xmlns:kml="http://www.opengis.net/kml/2.2" xmlns:atom="http://www.w3.org/2005/Atom">
<Document>
	<name>1778223066196.kml</name>
	<StyleMap id="msn_ylw-pushpin">
		<Pair>
			<key>normal</key>
			<styleUrl>#sn_ylw-pushpin</styleUrl>
		</Pair>
		<Pair>
			<key>highlight</key>
			<styleUrl>#sh_ylw-pushpin</styleUrl>
		</Pair>
	</StyleMap>
	<Style id="sh_ylw-pushpin">
		<IconStyle>
			<scale>1.3</scale>
			<Icon>
				<href>http://maps.google.com/mapfiles/kml/pushpin/ylw-pushpin.png</href>
			</Icon>
			<hotSpot x="20" y="2" xunits="pixels" yunits="pixels"/>
		</IconStyle>
		<BalloonStyle>
		</BalloonStyle>
		<PolyStyle>
			<fill>0</fill>
		</PolyStyle>
	</Style>
	<Style id="sn_ylw-pushpin">
		<IconStyle>
			<scale>1.1</scale>
			<Icon>
				<href>http://maps.google.com/mapfiles/kml/pushpin/ylw-pushpin.png</href>
			</Icon>
			<hotSpot x="20" y="2" xunits="pixels" yunits="pixels"/>
		</IconStyle>
		<BalloonStyle>
		</BalloonStyle>
		<PolyStyle>
			<fill>0</fill>
		</PolyStyle>
	</Style>
	<Placemark>
		<name>1778223066196</name>
		<styleUrl>#msn_ylw-pushpin</styleUrl>
		<Polygon>
			<tessellate>1</tessellate>
			<outerBoundaryIs>
				<LinearRing>
					<coordinates>
						91.74742408104022,23.24327988530699,0 91.74744193231743,23.2432695551271,0 91.74746555497418,23.2432649943612,0 91.74748353615881,23.24324912380087,0 91.74750729596472,23.24323902061704,0 91.7475369869526,23.24322374289099,0 91.74756069910308,23.24321374783345,0 91.74759031092984,23.24320401186519,0 91.74760817359046,23.24319373660156,0 91.74763782965687,23.24318398218116,0 91.74766164997482,23.24317389899451,0 91.74768548592964,23.24316380932489,0 91.74771535395924,23.24314840999669,0 91.74773340726277,23.24313249841597,0 91.74775738489066,23.24311683164505,0 91.7477754492856,23.24310091072757,0 91.7477875913185,23.24308474148708,0 91.7478057566798,23.24306326343073,0 91.74782382917913,23.24304733410182,0 91.74783615820637,23.24302006683224,0 91.74784236700089,23.24300366421676,0 91.74785459783276,23.24298195540891,0 91.7478668215619,23.24296025912319,0 91.74787906332007,23.24293853031205,0 91.74787955971527,23.24291076450306,0 91.74787998243649,23.24288314857755,0 91.74787433077091,23.24286096059536,0 91.74786279930554,23.24283314091149,0 91.74785119268444,23.24281086030859,0 91.7478455525974,23.24278874249758,0 91.74783403754192,23.24276102391497,0 91.74782253474025,23.24273333502058,0 91.74781095990133,23.24271115585811,0 91.74779939556036,23.24268899708601,0 91.74778784177312,23.24266685847792,0 91.74777629848295,23.24264474003447,0 91.74777070532454,23.24262275705764,0 91.74775315293164,23.24260602661938,0 91.7477476869072,23.24257324307017,0 91.74774206869898,23.24255136814491,0 91.74773660952442,23.24252932431078,0 91.74772521741662,23.24250721063132,0 91.74771978248259,23.24248519661437,0 91.74771435233957,23.24246320354958,0 91.74772080668859,23.24244137843034,0 91.74770370146679,23.24241374663579,0 91.74769256942567,23.24238620855679,0 91.74768130465918,23.24236417823707,0 91.74767005564682,23.242342174167,0 91.74767087024473,23.24231480594012,0 91.7476835270716,23.24228758992501,0 91.7476903263545,23.24226027356428,0 91.74772222426736,23.24221067999584,0 91.74773553188197,23.24217766197256,0 91.74776146883625,23.24213349379752,0 91.74778107398814,23.24210028130129,0 91.74780018887721,23.24207280879362,0 91.74783332316949,23.24201200279688,0 91.74784759334476,23.2419732887202,0 91.74787452795863,23.24192356005888,0 91.74788221199978,23.24190130327455,0 91.74818810258218,23.24169922181356,0 91.74840062585368,23.2417090484898,0 91.74876037315813,23.24174484500189,0 91.74913244405288,23.24175145167279,0 91.74994045894486,23.24157358253566,0 91.75005495736357,23.24159038326408,0 91.75032039045512,23.24178456639813,0 91.75051180474067,23.24185369481712,0 91.75051257561506,23.24202667816729,0 91.75053511470514,23.24216768056535,0 91.75059063257433,23.24223259187894,0 91.75081363027695,23.24241851280912,0 91.75083493856305,23.24273113523143,0 91.75066464559619,23.24317256916498,0 91.75036157294869,23.24342129588012,0 91.74978978025962,23.24342434638527,0 91.74978376377906,23.24342437104159,0 91.74975367973234,23.24342449460644,0 91.74972970367607,23.24341951291915,0 91.74971181712878,23.24342008310037,0 91.74968187024486,23.24340997432843,0 91.74965790575814,23.24341046184126,0 91.74963390688421,23.24340551720515,0 91.74960994615257,23.24341143764627,0 91.74956801576765,23.2434232501429,0 91.74953815881942,23.24342984291182,0 91.74950818662712,23.24343611070875,0 91.74895869090257,23.24344983439128,0 91.74875667773937,23.24332647541633,0 91.74862159583479,23.24330173804265,0 91.74823978725112,23.24343796033769,0 91.74758596789965,23.24343182853963,0 91.74748055044114,23.24339332504402,0 91.74737567196858,23.24334434448235,0 91.74742408104022,23.24327988530699,0 
					</coordinates>
				</LinearRing>
			</outerBoundaryIs>
		</Polygon>
		<atom:link rel="app" href="https://www.google.com/earth/about/versions/#earth-pro" title="Google Earth Pro 7.3.7.1155"></atom:link>
	</Placemark>
</Document>
</kml>
