<?xml version="1.0" encoding="UTF-8"?>
<kml xmlns="http://www.opengis.net/kml/2.2" xmlns:gx="http://www.google.com/kml/ext/2.2" xmlns:kml="http://www.opengis.net/kml/2.2" xmlns:atom="http://www.w3.org/2005/Atom">
<Document>
	<name>Pre Survey Kml File over 21.50 Ha of ANR Bamboo at SK Tlangsang under Element 2026-27.kml</name>
	<Style id="s_ylw-pushpin_hl">
		<IconStyle>
			<scale>1.3</scale>
			<Icon>
				<href>https://maps.google.com/mapfiles/kml/pushpin/ylw-pushpin.png</href>
			</Icon>
			<hotSpot x="20" y="2" xunits="pixels" yunits="pixels"/>
		</IconStyle>
	</Style>
	<Style id="s_ylw-pushpin">
		<IconStyle>
			<scale>1.1</scale>
			<Icon>
				<href>https://maps.google.com/mapfiles/kml/pushpin/ylw-pushpin.png</href>
			</Icon>
			<hotSpot x="20" y="2" xunits="pixels" yunits="pixels"/>
		</IconStyle>
	</Style>
	<StyleMap id="m_ylw-pushpin">
		<Pair>
			<key>normal</key>
			<styleUrl>#s_ylw-pushpin</styleUrl>
		</Pair>
		<Pair>
			<key>highlight</key>
			<styleUrl>#s_ylw-pushpin_hl</styleUrl>
		</Pair>
	</StyleMap>
	<Placemark id="0182A426883F3976F815">
		<name>Untitled Polygon</name>
		<styleUrl>#m_ylw-pushpin</styleUrl>
		<Polygon>
			<tessellate>1</tessellate>
			<outerBoundaryIs>
				<LinearRing>
					<coordinates>
						92.16507513202215,23.79712052187725,0 92.16513679853713,23.79712016866104,0 92.16522164683944,23.79713161546663,0 92.16534363998483,23.79714274993009,0 92.16622709905073,23.79723528592077,0 92.16650379192026,23.79736603253331,0 92.16685872537229,23.79763358352148,0 92.16710203630377,23.7977384895187,0 92.16741898710573,23.79776432990756,0 92.16787967301799,23.7977254105581,0 92.16829824367534,23.79780012259268,0 92.16875352588514,23.79784857854283,0 92.16908571684684,23.79806716032614,0 92.16965445292223,23.79848211877244,0 92.16978043233894,23.79860680140038,0 92.16987743304348,23.79867221081586,0 92.17007388086729,23.79880489452357,0 92.17019699044323,23.79885176226644,0 92.17028272726887,23.79892650642568,0 92.17034252199019,23.79901309506614,0 92.17040182164439,23.79909746281546,0 92.170491395646,23.79922479534515,0 92.17055173149096,23.79931080927186,0 92.17062754421474,23.79942423969126,0 92.1707781708942,23.79960103916386,0 92.17082993974148,23.79969872015072,0 92.17088938349892,23.7998512365793,0 92.1709140518998,23.79993830603947,0 92.17097840677903,23.80001998318739,0 92.17106022953084,23.80012199613799,0 92.17114936258949,23.80027704777,0 92.17123485153533,23.80051731866013,0 92.17123658326442,23.80063074751392,0 92.17120427522153,23.80070709904442,0 92.17111022152466,23.80073725918153,0 92.17096797187077,23.80071829749343,0 92.17077008371302,23.80070632974397,0 92.17060450595173,23.80073251874584,0 92.17040206057314,23.80083778463691,0 92.17032207586205,23.8009049172176,0 92.17026929098319,23.80096594074065,0 92.17019990072552,23.80100820280459,0 92.17007365006843,23.80107478150925,0 92.16988637859698,23.80110091230678,0 92.1697849215646,23.80111439667306,0 92.16968250700057,23.80112389816085,0 92.1695493588898,23.80111571407224,0 92.16941253975929,23.80102918276514,0 92.16927190883955,23.80083794813789,0 92.16913425044234,23.80064367252834,0 92.16898565094939,23.80049464521105,0 92.16883829990715,23.8003874400531,0 92.16859240037584,23.80028669752327,0 92.16763789925083,23.80035043892703,0 92.16749980977946,23.80038205662273,0 92.16737288889202,23.80047062625781,0 92.16723079380931,23.80054175012536,0 92.16706125598185,23.80057225382269,0 92.16699184556828,23.8005685699628,0 92.16689102547664,23.80060453023373,0 92.16683946236354,23.8005601125624,0 92.16672089398,23.80049371008458,0 92.166665573899,23.80049182981884,0 92.16659646978472,23.80048945088789,0 92.16652735834256,23.80048728030687,0 92.16643307405498,23.80046403001124,0 92.16633724984182,23.80045867346853,0 92.16631241971199,23.80043706189507,0 92.1662063361381,23.80040952186202,0 92.16606716400304,23.80032405684888,0 92.16595507869445,23.80024474182667,0 92.16590626214665,23.8002053815984,0 92.16583272725767,23.80014868654601,0 92.16578323341321,23.80011301648315,0 92.16567908082321,23.80001141791278,0 92.16560718149567,23.79995585759215,0 92.16547876519553,23.79994133814971,0 92.16538919681885,23.79993121107222,0 92.16527133244854,23.79994697021268,0 92.16510611376262,23.79992833086259,0 92.1649655731641,23.7999154528956,0 92.1648142643503,23.79986590809163,0 92.16460492302785,23.79984835103051,0 92.16440399117063,23.79985059184182,0 92.16428349351493,23.79985173565536,0 92.16412209007056,23.79985431227487,0 92.16397722852852,23.79984088269059,0 92.16383999933052,23.79981651641959,0 92.1637252089665,23.79975824763019,0 92.16359802517388,23.79970052842661,0 92.16348914310908,23.79963770430092,0 92.16336336223824,23.79954351176713,0 92.16286815216665,23.79936924330009,0 92.16254382329049,23.79888833226554,0 92.16243535624923,23.7987656150232,0 92.16231781870873,23.79862367376905,0 92.16231112577051,23.79841520044626,0 92.16237232422107,23.79830415007504,0 92.16284553191889,23.79805450196886,0 92.16291575266139,23.79804692049628,0 92.16301035075939,23.79801930246973,0 92.1631235190855,23.79802719267085,0 92.16321493393974,23.79803294260762,0 92.16329388155047,23.798039145288,0 92.16334749756287,23.79804638852333,0 92.16337974203655,23.79805074441908,0 92.16345521097541,23.79806093936448,0 92.16351945469457,23.79806026436631,0 92.16360681543408,23.79805123684381,0 92.16366449788617,23.79802481759829,0 92.16373438225891,23.79798842795566,0 92.16386163644725,23.79792618834353,0 92.16406755587752,23.79779833842084,0 92.16424083823067,23.79769636732926,0 92.16442708679644,23.79759375330548,0 92.16463108792938,23.79746456586843,0 92.16475173135959,23.79743747872688,0 92.16481384396297,23.79740659657275,0 92.16494297834632,23.79729816308656,0 92.16498691512793,23.7972390602026,0 92.16501723388156,23.79719168104898,0 92.16503671021817,23.79713252272832,0 92.16507513202215,23.79712052187725,0 
					</coordinates>
				</LinearRing>
			</outerBoundaryIs>
		</Polygon>
		<atom:link rel="app" href="https://www.google.com/earth/about/versions/#earth-pro" title="Google Earth Pro 7.3.7.1155"></atom:link>
	</Placemark>
</Document>
</kml>
