<?xml version="1.0" encoding="UTF-8"?>
<kml xmlns="http://www.opengis.net/kml/2.2" xmlns:gx="http://www.google.com/kml/ext/2.2" xmlns:kml="http://www.opengis.net/kml/2.2" xmlns:atom="http://www.w3.org/2005/Atom">
<Document>
	<name>1778226480600.kml</name>
	<StyleMap id="msn_ylw-pushpin">
		<Pair>
			<key>normal</key>
			<styleUrl>#sn_ylw-pushpin</styleUrl>
		</Pair>
		<Pair>
			<key>highlight</key>
			<styleUrl>#sh_ylw-pushpin</styleUrl>
		</Pair>
	</StyleMap>
	<Style id="sh_ylw-pushpin">
		<IconStyle>
			<scale>1.3</scale>
			<Icon>
				<href>http://maps.google.com/mapfiles/kml/pushpin/ylw-pushpin.png</href>
			</Icon>
			<hotSpot x="20" y="2" xunits="pixels" yunits="pixels"/>
		</IconStyle>
		<BalloonStyle>
		</BalloonStyle>
		<PolyStyle>
			<fill>0</fill>
		</PolyStyle>
	</Style>
	<Style id="sn_ylw-pushpin">
		<IconStyle>
			<scale>1.1</scale>
			<Icon>
				<href>http://maps.google.com/mapfiles/kml/pushpin/ylw-pushpin.png</href>
			</Icon>
			<hotSpot x="20" y="2" xunits="pixels" yunits="pixels"/>
		</IconStyle>
		<BalloonStyle>
		</BalloonStyle>
		<PolyStyle>
			<fill>0</fill>
		</PolyStyle>
	</Style>
	<Placemark>
		<name>1778226480600</name>
		<styleUrl>#msn_ylw-pushpin</styleUrl>
		<Polygon>
			<tessellate>1</tessellate>
			<outerBoundaryIs>
				<LinearRing>
					<coordinates>
						91.70188510385441,23.37302358872435,0 91.70222685364638,23.37303065827178,0 91.70249227505971,23.3730526657117,0 91.70283641098419,23.3731006874551,0 91.70285606499193,23.37310765343251,0 91.70287190857123,23.37311459285795,0 91.70289471857375,23.37311477222341,0 91.70290578674452,23.37311145579778,0 91.70292473572523,23.37311161019051,0 91.70294821699224,23.37311857602805,0 91.7029672953941,23.37311868601298,0 91.70298254496703,23.37311877382002,0 91.70300539724454,23.37311890554214,0 91.70302442087673,23.37311901505612,0 91.70303962654721,23.37311910252085,0 91.7030626066846,23.37311919249353,0 91.7030784193782,23.37312262435075,0 91.70309423855956,23.37312605725729,0 91.70310585092368,23.37312607513372,0 91.70312208339983,23.37313291092536,0 91.70314195078662,23.37313632500638,0 91.70316150191086,23.37313631936431,0 91.70318496445704,23.3731363122913,0 91.70320451768467,23.37313630651542,0 91.70322407205576,23.37313630056782,0 91.70324402941165,23.37313970914963,0 91.70326435908035,23.37314654653822,0 91.7032800606779,23.37314653560501,0 91.70329576388359,23.37314652460627,0 91.70331226762752,23.3731533662135,0 91.70332852061183,23.37315676604223,0 91.70334114647568,23.37316362187697,0 91.70336176369392,23.37317046852186,0 91.70337877160696,23.37318078780943,0 91.70339581208987,23.37319112696353,0 91.70340867048078,23.3731980136279,0 91.70342596882649,23.37320836811714,0 91.70344330497629,23.37321874501751,0 91.70346030155216,23.3732256621172,0 91.70347694477836,23.37322910505288,0 91.70349068975112,23.37324303272336,0 91.70350406364471,23.37325349665314,0 91.70351338068713,23.3732639888912,0 91.70352758349746,23.37328152063404,0 91.70353773126236,23.37329911013943,0 91.70354009537539,23.37332028995692,0 91.70354167530317,23.37333444555156,0 91.70355931495763,23.37334507990644,0 91.70357660013993,23.37335218280504,0 91.7035943371298,23.37336285769804,0 91.70361211358778,23.37337355657546,0 91.70362620622508,23.37338785092844,0 91.70363991133516,23.37339859896161,0 91.70365407264785,23.37341295889399,0 91.70366767084015,23.37342375006865,0 91.70368621843477,23.37344177213641,0 91.70370366750399,23.37344901694348,0 91.70372153285847,23.37345988660375,0 91.70373525001028,23.373470767496,0 91.7037648067049,23.37375681874223,0 91.70369496964771,23.37383924919506,0 91.70368068297567,23.37407419156463,0 91.70368783086367,23.37418133689125,0 91.70369614814662,23.37418876017997,0 91.70370495657539,23.37420386222983,0 91.70372674957017,23.37423780527293,0 91.70374809344555,23.37426409351204,0 91.70375701066108,23.37427927726304,0 91.70376205752601,23.37429463104698,0 91.70376256753956,23.37430235336577,0 91.70377293718882,23.37439912401818,0 91.70376560763877,23.37458344976385,0 91.7036044877519,23.37472211834405,0 91.70347365919615,23.37492241172782,0 91.70324947046393,23.37501782183921,0 91.70317302964733,23.37503307854952,0 91.70301568874379,23.3750928747555,0 91.70277250412215,23.37509815063147,0 91.70256995080867,23.37509527260145,0 91.70239770499586,23.37510924452605,0 91.70227388057378,23.37515709464635,0 91.70198667918979,23.37527606504434,0 91.70174829774076,23.37531452789404,0 91.70148550942582,23.37539411419317,0 91.70121451993553,23.3754506865916,0 91.70104016307002,23.37536079044752,0 91.70092783858951,23.37519646706156,0 91.70085101133742,23.37511535477605,0 91.7009126868486,23.3748945768764,0 91.70106635455325,23.37473820262926,0 91.70130601831104,23.37455818535868,0 91.70150807187233,23.3743975220832,0 91.70168647212046,23.37429857711905,0 91.70171411905839,23.37419291838235,0 91.701832329751,23.37409326384434,0 91.70181587829971,23.3738506665633,0 91.70190158450197,23.37372719042791,0 91.70192734516033,23.37355581487254,0 91.70189826511496,23.37342731311224,0 91.70194479096094,23.3733263855432,0 91.70194526180339,23.37318718510187,0 91.70188510385441,23.37302358872435,0 
					</coordinates>
				</LinearRing>
			</outerBoundaryIs>
		</Polygon>
		<atom:link rel="app" href="https://www.google.com/earth/about/versions/#earth-pro" title="Google Earth Pro 7.3.7.1155"></atom:link>
	</Placemark>
</Document>
</kml>
