<?xml version="1.0" encoding="UTF-8"?>
<kml xmlns="http://www.opengis.net/kml/2.2" xmlns:gx="http://www.google.com/kml/ext/2.2" xmlns:kml="http://www.opengis.net/kml/2.2" xmlns:atom="http://www.w3.org/2005/Atom">
<Document>
	<name>Pre Survey Kml File over 11.20 Ha of AR Bamboo at Bishamani Para under Element 2026-27.kml</name>
	<Style id="s_ylw-pushpin_hl">
		<IconStyle>
			<scale>1.3</scale>
			<Icon>
				<href>https://maps.google.com/mapfiles/kml/pushpin/ylw-pushpin.png</href>
			</Icon>
			<hotSpot x="20" y="2" xunits="pixels" yunits="pixels"/>
		</IconStyle>
		<PolyStyle>
			<fill>0</fill>
		</PolyStyle>
	</Style>
	<Style id="s_ylw-pushpin">
		<IconStyle>
			<scale>1.1</scale>
			<Icon>
				<href>https://maps.google.com/mapfiles/kml/pushpin/ylw-pushpin.png</href>
			</Icon>
			<hotSpot x="20" y="2" xunits="pixels" yunits="pixels"/>
		</IconStyle>
		<PolyStyle>
			<fill>0</fill>
		</PolyStyle>
	</Style>
	<StyleMap id="m_ylw-pushpin">
		<Pair>
			<key>normal</key>
			<styleUrl>#s_ylw-pushpin</styleUrl>
		</Pair>
		<Pair>
			<key>highlight</key>
			<styleUrl>#s_ylw-pushpin_hl</styleUrl>
		</Pair>
	</StyleMap>
	<Placemark id="0317EA00F13F3ACDF1CB">
		<name>Untitled Polygon</name>
		<styleUrl>#m_ylw-pushpin</styleUrl>
		<Polygon>
			<tessellate>1</tessellate>
			<outerBoundaryIs>
				<LinearRing>
					<coordinates>
						92.21628869910707,23.76967914803955,0 92.2162599971178,23.76971488077586,0 92.21621600036892,23.76976280013963,0 92.21617734768755,23.7697868785366,0 92.21614555429703,23.76979894763118,0 92.21611498139134,23.76982314625374,0 92.21607475689824,23.76983527529329,0 92.21604155701144,23.7698352747055,0 92.21600954488477,23.76984742427531,0 92.21598462426805,23.76984742385138,0 92.21592647618517,23.76984742289122,0 92.21589434159586,23.76985959255841,0 92.21585277269722,23.76985959191146,0 92.21581120381353,23.76985959128532,0 92.21578094681621,23.76989622346392,0 92.21576625685049,23.76992074716446,0 92.21576384378619,23.76999481316342,0 92.21573513183293,23.77005710765174,0 92.21570427220004,23.77009473711745,0 92.21567985986756,23.77010732250531,0 92.21563848270252,23.77011992900479,0 92.21558009756183,23.77013255687619,0 92.21554622195436,23.77013255645501,0 92.21548770894755,23.77014520565065,0 92.21546228068738,23.77014520536222,0 92.21543198955517,23.77020877821302,0 92.21540927835309,23.77026002815039,0 92.21539498187461,23.7703116303405,0 92.21537266880281,23.77037663326927,0 92.21533823834338,23.77037663291697,0 92.21531847911317,23.77032458547791,0 92.21531469573212,23.77024718183997,0 92.21531033056065,23.7701578751919,0 92.21530785941968,23.77010731822586,0 92.2152795372334,23.77004460128039,0 92.21526097874882,23.77000722453686,0 92.21524140516982,23.76994534713993,0 92.21523032247737,23.76988398611948,0 92.21524476243496,23.76983526456143,0 92.2152425618616,23.76978686600307,0 92.2152392882268,23.7697148668036,0 92.21520430597994,23.76966726130857,0 92.21517870998785,23.76964357584967,0 92.21515272939665,23.76960819296936,0 92.21512776916225,23.7695964372087,0 92.21507797095302,23.76957298312628,0 92.21505274779305,23.76954960566785,0 92.21501948241652,23.76952630443628,0 92.21496947135491,23.76947992870945,0 92.21494458731348,23.76945685343697,0 92.21491144464059,23.76942238044345,0 92.21485410468649,23.76937667556071,0 92.21481297347498,23.76931995690152,0 92.21478845269789,23.76928614351288,0 92.21474797849622,23.76924131072769,0 92.21473988925942,23.76923014715435,0 92.21468386865693,23.76918567034934,0 92.21465214577302,23.76918567032027,0 92.21458868742772,23.76916353774916,0 92.21452538621182,23.76915249776082,0 92.21449373874061,23.76915249778435,0 92.21443846842416,23.76914147540838,0 92.21439118490974,23.76913047041026,0 92.21437554857052,23.76911948284143,0 92.21436849450926,23.76906480417857,0 92.21436899477125,23.76903220313715,0 92.21436965813047,23.76898897334111,0 92.21436269306737,23.76893531561957,0 92.21435595680416,23.76887147615732,0 92.21434892466728,23.76882924599258,0 92.21434964024144,23.76878727642381,0 92.21432789318068,23.76871444988407,0 92.21432182013137,23.76863217183149,0 92.21429982885002,23.76859140825535,0 92.21428554090687,23.76855089194214,0 92.21426331238489,23.76853072580645,0 92.21421823582349,23.76852066574568,0 92.21415845245912,23.7685005911482,0 92.21412178556955,23.76847059250408,0 92.21411566320937,23.76843080453559,0 92.2141245360105,23.76839125493855,0 92.21414826958845,23.76835194156383,0 92.21417216603066,23.7683031289586,0 92.21421835882637,23.76824503108195,0 92.21424180264019,23.76819700926525,0 92.21425014747069,23.76815884626833,0 92.21425160072613,23.76810202117138,0 92.21425232257239,23.7680737955479,0 92.21424600258393,23.76803635340889,0 92.21421256687846,23.767934504335,0 92.21419287118577,23.76787053056586,0 92.21417337286195,23.76780719791289,0 92.21417395525532,23.76778921926596,0 92.21416799831745,23.76775341573081,0 92.2141691717592,23.76771781574306,0 92.21416326215183,23.76768241761351,0 92.21416502994158,23.76762969510843,0 92.21415917357436,23.76759479415468,0 92.21416094616268,23.76754280948285,0 92.21416241197007,23.76749982170191,0 92.21417053046754,23.76746564701237,0 92.21417860386262,23.76743166217568,0 92.21420072507289,23.76738944564786,0 92.21422933744148,23.76735588213067,0 92.21427861577777,23.7673141874408,0 92.21432035581495,23.76728930801702,0 92.21441038015965,23.76722346095746,0 92.2144517139924,23.7671826705231,0 92.21446569016699,23.76714215664718,0 92.21447253290376,23.76713408684063,0 92.21450002959109,23.76706991962712,0 92.21452715956244,23.7670222463638,0 92.21457409048087,23.76698281101452,0 92.21463398615337,23.7669358353015,0 92.21468692015792,23.76690472628866,0 92.21473957354959,23.76687378220456,0 92.21479840407186,23.76683533194768,0 92.21484387394939,23.76680475417832,0 92.21490201445236,23.76676675775473,0 92.21491446922423,23.76674407950775,0 92.21491316238347,23.76669898919075,0 92.21490558483092,23.7666616827804,0 92.21488490869891,23.76661723434475,0 92.21485794674436,23.76657313011165,0 92.21482477172815,23.76652936620452,0 92.21479198702903,23.76649315349067,0 92.21475929773577,23.7664500033808,0 92.21473996638261,23.76643569335061,0 92.21471423949922,23.76641429667265,0 92.21468239619135,23.76640718261691,0 92.21465698946447,23.76640718260735,0 92.21463158273787,23.76640718260052,0 92.21459984860226,23.7664214198394,0 92.21457440140152,23.76643569329634,0 92.21452972856748,23.76645717198851,0 92.21451049850099,23.76647153695529,0 92.21449127648833,23.76647873318491,0 92.2144463579978,23.76649315343202,0 92.21440795477048,23.76649315345812,0 92.21438875315623,23.76649315347362,0 92.21435660678085,23.76650037743754,0 92.21434410108945,23.76648593873286,0 92.21434470595146,23.76645717210386,0 92.21434515757304,23.76643569341547,0 92.21436467464599,23.76641429673403,0 92.2143841173251,23.76639298161087,0 92.21440348603358,23.76637174768176,0 92.21442910072,23.76635059427757,0 92.21446100152691,23.76632251440855,0 92.21451160470367,23.76629457588625,0 92.21453681081984,23.76628065943857,0 92.21456822550093,23.76626677785633,0 92.21460580967046,23.76624602080697,0 92.21464950107816,23.76622534169398,0 92.21464928670923,23.76619104854595,0 92.21463044520384,23.76615696864009,0 92.21460553025724,23.76612309999802,0 92.2146116439413,23.76609615576424,0 92.2146425185976,23.76609615576927,0 92.21467327884224,23.76608273367949,0 92.21471636622238,23.76607603497808,0 92.21475929032657,23.76606266253321,0 92.21478391392066,23.76606266254942,0 92.21482070139952,23.76605598860524,0 92.21486376614524,23.76605598864391,0 92.21490067878719,23.76605598868212,0 92.2149191351093,23.76605598870296,0 92.21495604775583,23.7660559887482,0 92.21498090271189,23.76606266275434,0 92.21499937041565,23.7660626627804,0 92.2150365868215,23.76606934485173,0 92.21507354501964,23.76606934491245,0 92.21510434352163,23.76606934496666,0 92.2151351420269,23.76606934502417,0 92.21514095617994,23.76606266301939,0 92.21517752371989,23.76605598911783,0 92.21520136747817,23.76604266604938,0 92.21523128960223,23.76602937555651,0 92.21524887936069,23.76601611785978,0 92.21528479181057,23.76600289271665,0 92.21532673075322,23.76598969998259,0 92.21535682778224,23.76598311565532,0 92.21539349201677,23.76598311575055,0 92.21542352982021,23.76597653948214,0 92.21545353092566,23.76596997144305,0 92.21546858484548,23.76593072998301,0 92.21547195228841,23.76589824718549,0 92.21546925520313,23.76586596079358,0 92.21547862620368,23.76583386944658,0 92.21548193305838,23.76580197115162,0 92.21549285111932,23.76578926556396,0 92.21550917908766,23.76577026424876,0 92.21552488310259,23.7657450352056,0 92.21554762764599,23.76573246604809,0 92.21558164268809,23.76571366846233,0 92.21561020230504,23.76570117397253,0 92.21563337704757,23.76569493809252,0 92.21566246760241,23.76568870947397,0 92.21568624125682,23.76568870954166,0 92.21571595833082,23.76568870962834,0 92.21573973199486,23.76568870969932,0 92.21576350559387,23.76568870977179,0 92.21580510959431,23.76568870990215,0 92.21583482662703,23.76568870999802,0 92.21586012322557,23.76570117473174,0 92.21588470227245,23.76570741837835,0 92.21591766114723,23.76573246719989,0 92.21593881264842,23.76575763585711,0 92.21594889364562,23.76578926703579,0 92.21595903524359,23.7658210886784,0 92.21597359102633,23.76584027396328,0 92.21599856533706,23.7658466844747,0 92.21603828700209,23.76587240447948,0 92.21608335193665,23.76589177644113,0 92.21612251129676,23.76591121903631,0 92.2161355961595,23.76591771554618,0 92.21617079949596,23.76595031760424,0 92.21619911721352,23.76597654258816,0 92.21622757385789,23.76600289638911,0 92.21625003342881,23.76602937954328,0 92.2162838586392,23.76604932771148,0 92.21631888138374,23.76607604020183,0 92.21633954316107,23.76608944589824,0 92.21636533076241,23.76609616137542,0 92.21638385583061,23.76609616149257,0 92.21640855583169,23.76609616165064,0 92.21645795585673,23.76609616197322,0 92.2164826558808,23.76609616213774,0 92.21650854803937,23.76610288594372,0 92.2165332633634,23.76610288611348,0 92.21657651512768,23.76610288641576,0 92.21661117846185,23.76612310738851,0 92.21663229294026,23.76613662979837,0 92.21664982594119,23.76616377540719,0 92.21666381636616,23.76620474823602,0 92.21667659799488,23.76623912761336,0 92.21668715566457,23.76629458469239,0 92.21670011613476,23.7663295301165,0 92.21671948627792,23.76636469693536,0 92.21673760848921,23.76639299129048,0 92.21676575954099,23.76640719268903,0 92.21679751839649,23.76640719298461,0 92.21682721241534,23.76642856281098,0 92.21685702021304,23.76645001451762,0 92.2168776152829,23.76645718343504,0 92.21689527699219,23.76645001489746,0 92.21692865693464,23.76645718394968,0 92.21695386257178,23.7664859510178,0 92.21696637188776,23.76651486575506,0 92.21697251608339,23.76654392946876,0 92.21699136261229,23.76660250820532,0 92.2170007601719,23.76664684189311,0 92.2170102313035,23.76669152259511,0 92.21701977685173,23.76673655429425,0 92.2170392946615,23.76676677273237,0 92.21706712555194,23.76680476985124,0 92.2171083392099,23.76684301817049,0 92.21714472587242,23.76685838871006,0 92.21718955450974,23.76688152079196,0 92.21722617000734,23.76689699340858,0 92.21727131039265,23.76692027953008,0 92.21730150435786,23.76693585537087,0 92.21733843998545,23.76695147288342,0 92.2173725340087,23.76698283256755,0 92.21739341733712,23.76701436031119,0 92.21743167703137,23.76706197055681,0 92.21744418540882,23.76708592013763,0 92.2174673993655,23.76712605226574,0 92.21747720419773,23.76716645685495,0 92.21748905828673,23.76721530612216,0 92.21750100983799,23.7672645569375,0 92.21750418192363,23.76730590941569,0 92.21751022188479,23.76733085768785,0 92.21751547175597,23.76738106459384,0 92.21751668783629,23.76741476798995,0 92.21751791067616,23.76744865881968,0 92.21752530001042,23.76750842379301,0 92.21753562426244,23.76755147239617,0 92.21754602118368,23.76759482394142,0 92.21755649154426,23.7676384816385,0 92.2175670361176,23.7676824487111,0 92.21757765571104,23.76772672852394,0 92.2175904993703,23.76778028178698,0 92.21760128683582,23.76782526141449,0 92.2176143343349,23.7678796644304,0 92.21761588611113,23.76791619479277,0 92.21761241188266,23.76796215542855,0 92.21760891206563,23.76800845031648,0 92.21759809841861,23.76805508293344,0 92.21757550269052,23.76808322585244,0 92.21756744863822,23.76811149292275,0 92.21755420700299,23.7681493762687,0 92.21753870588836,23.76817793520483,0 92.21750838727498,23.76820662033199,0 92.21749271560134,23.76823543320702,0 92.21746956713059,23.76826437414466,0 92.21744631524034,23.76829344418272,0 92.21742507887784,23.76833240679048,0 92.21741229845527,23.76834218361856,0 92.21737384249606,23.76837160181714,0 92.21734603781262,23.76838143687642,0 92.21730186801511,23.76842092644998,0 92.21726293139196,23.76845069948309,0 92.21723687585451,23.76847062294815,0 92.21720320591463,23.76849060641896,0 92.21718452850246,23.76851065062762,0 92.21715823596507,23.76853075535364,0 92.21714331956375,23.76857114891147,0 92.21712831211575,23.76861178858329,0 92.21710365772918,23.7686424308652,0 92.21707889018651,23.76867321385244,0 92.2170616659771,23.76870413862139,0 92.21703668741152,23.76873520586858,0 92.21700390071885,23.76876641650923,0 92.21696325184001,23.76879777161857,0 92.21692422806964,23.76883980542567,0 92.21690047841116,23.76888210094967,0 92.21689812203743,23.76891399579296,0 92.2168993745357,23.76896748659659,0 92.21689881752518,23.76901058132763,0 92.21690611290164,23.76905394742795,0 92.21691899095394,23.76913049862346,0 92.21692220612859,23.76919679188641,0 92.21690578768946,23.76924133933684,0 92.21687576794993,23.7692525200446,0 92.21683952914977,23.76927493560231,0 92.2168031745004,23.76929742295721,0 92.21678271741193,23.76931998283516,0 92.21675417466689,23.76934261500919,0 92.21671922771399,23.76937670017994,0 92.2166921703156,23.76941095061193,0 92.21666498158409,23.76944536731862,0 92.21664575854096,23.76947995170087,0 92.21660691159096,23.76949151646215,0 92.21657285636263,23.76953796683273,0 92.2165337917331,23.7695496260269,0 92.21650280762063,23.76956130460089,0 92.21646516021016,23.7695847192117,0 92.21643252980729,23.76958471851579,0 92.21638653496113,23.76960820979354,0 92.21635530339583,23.76961998404788,0 92.21632545078661,23.76964359136328,0 92.21629409216531,23.76965542368653,0 92.21628589448962,23.76965542352432,0 92.21628869910707,23.76967914803955,0 
					</coordinates>
				</LinearRing>
			</outerBoundaryIs>
		</Polygon>
		<atom:link rel="app" href="https://www.google.com/earth/about/versions/#earth-pro" title="Google Earth Pro 7.3.7.1155"></atom:link>
	</Placemark>
</Document>
</kml>
