<?xml version="1.0" encoding="UTF-8"?>
<kml xmlns="http://www.opengis.net/kml/2.2" xmlns:gx="http://www.google.com/kml/ext/2.2" xmlns:kml="http://www.opengis.net/kml/2.2" xmlns:atom="http://www.w3.org/2005/Atom">
<Document>
	<name>5 HA  ANR BAMBOO OF KONGTHAYA JFMC OF EAST GOBINDABARI VC.kml</name>
	<StyleMap id="m_ylw-pushpin">
		<Pair>
			<key>normal</key>
			<styleUrl>#s_ylw-pushpin</styleUrl>
		</Pair>
		<Pair>
			<key>highlight</key>
			<styleUrl>#s_ylw-pushpin_hl</styleUrl>
		</Pair>
	</StyleMap>
	<Style id="s_ylw-pushpin">
		<IconStyle>
			<scale>1.1</scale>
			<Icon>
				<href>http://maps.google.com/mapfiles/kml/pushpin/ylw-pushpin.png</href>
			</Icon>
			<hotSpot x="20" y="2" xunits="pixels" yunits="pixels"/>
		</IconStyle>
		<LineStyle>
			<color>ffffaa00</color>
			<width>5</width>
		</LineStyle>
		<PolyStyle>
			<fill>0</fill>
		</PolyStyle>
	</Style>
	<Style id="s_ylw-pushpin_hl">
		<IconStyle>
			<scale>1.3</scale>
			<Icon>
				<href>http://maps.google.com/mapfiles/kml/pushpin/ylw-pushpin.png</href>
			</Icon>
			<hotSpot x="20" y="2" xunits="pixels" yunits="pixels"/>
		</IconStyle>
		<LineStyle>
			<color>ffffaa00</color>
			<width>5</width>
		</LineStyle>
		<PolyStyle>
			<fill>0</fill>
		</PolyStyle>
	</Style>
	<Placemark>
		<name>5 HA  ANR BAMBOO OF KONGTHAYA JFMC OF EAST GOBINDABARI VC</name>
		<styleUrl>#m_ylw-pushpin</styleUrl>
		<Polygon>
			<tessellate>1</tessellate>
			<outerBoundaryIs>
				<LinearRing>
					<coordinates>
						92.07047497388899,23.72490456936564,0 92.07055341666515,23.72491190483979,0 92.07070555621351,23.724931160611,0 92.07079723416817,23.72492207483418,0 92.07087561071215,23.7249804636091,0 92.07096781451722,23.72501329611262,0 92.07106079665621,23.72506073189597,0 92.07115466297321,23.7251138718076,0 92.07118331605807,23.72513675459378,0 92.07136122870293,23.72518850120359,0 92.07149839853442,23.72522946616332,0 92.07165015809238,23.72525437978398,0 92.07177143076868,23.72529017741972,0 92.07182587091687,23.72531104662744,0 92.07188750124575,23.72530782965125,0 92.07195123549702,23.72538746680422,0 92.07198423497286,23.72547953057195,0 92.072034264777,23.72555599607911,0 92.0720708193227,23.72567589811288,0 92.07210747874117,23.72579739213814,0 92.07211934354399,23.72589044052074,0 92.07216644183286,23.72601942519436,0 92.07217146048092,23.72605882682926,0 92.07219727483158,23.72617918644215,0 92.07221218909268,23.7262547632292,0 92.07224288561673,23.72632685466137,0 92.0722640467598,23.72636852222176,0 92.07229496525457,23.7264043278264,0 92.07233295718629,23.72646126047056,0 92.0723646002232,23.72650708450369,0 92.0723799070976,23.72655641681081,0 92.07242078686166,23.72665465592848,0 92.07241797642433,23.72674229254578,0 92.07242107805789,23.7267846955454,0 92.07243054027461,23.72683832280901,0 92.07242853574647,23.7268724935842,0 92.07234299982045,23.72690377327877,0 92.07234620926181,23.72698692613663,0 92.07232500240949,23.72708220487458,0 92.07233912453704,23.7271626402337,0 92.0723551100601,23.72726203287472,0 92.07234242026797,23.72734134558608,0 92.07227711016344,23.72737835331851,0 92.07214912687748,23.72735637824337,0 92.0720687658478,23.72732665011008,0 92.07195561216386,23.72723842486633,0 92.07186039811377,23.72717951403404,0 92.07171838069327,23.72715967459946,0 92.07169136160039,23.72726719958717,0 92.07153998509318,23.72727176528802,0 92.07144346698119,23.72710850429143,0 92.07138462270234,23.72701167640881,0 92.07138030928421,23.72691995720741,0 92.07137797046802,23.72687119213753,0 92.07134414721311,23.72683525554142,0 92.07124072933088,23.72678432555281,0 92.07120083935381,23.72670874442532,0 92.07118376969279,23.72666952486997,0 92.07115103827263,23.7266270588386,0 92.07111857678233,23.72659032465934,0 92.07104910933337,23.72652986695405,0 92.07100700214484,23.72651749460338,0 92.07097544535689,23.72650979538485,0 92.0708439819726,23.72651661954698,0 92.07082268876364,23.72648704595821,0 92.07072746415736,23.72646943997499,0 92.07068504953686,23.72646295902611,0 92.07056249647161,23.72649364254051,0 92.07054624852094,23.72652626947868,0 92.07051384397683,23.72656017672362,0 92.07044356701597,23.72659721525523,0 92.07040516827138,23.72664771944806,0 92.07027471945659,23.72666769211718,0 92.0702254998849,23.7266815072397,0 92.07007198139482,23.72671647904621,0 92.06992038283016,23.72670177310778,0 92.06982820805307,23.72670186533026,0 92.06976454935571,23.72667853457714,0 92.0696320010413,23.72664699636918,0 92.06961806494678,23.72661272954566,0 92.06958823773141,23.72657807340477,0 92.06945079042539,23.72649485396019,0 92.0693501661203,23.72636930254195,0 92.06930227976359,23.72625787823457,0 92.06925976897581,23.72615797497982,0 92.06929824578316,23.72607768539726,0 92.06929138166744,23.72599083761526,0 92.0692855810738,23.72594314448154,0 92.06928806326952,23.7258684235511,0 92.06929035886435,23.72584698380994,0 92.06929425915996,23.72576214835999,0 92.06929588360762,23.72569923473787,0 92.06933650990578,23.72560922274017,0 92.06935346855072,23.72559325982133,0 92.0694909941095,23.72548640251163,0 92.06958077669806,23.725493738392,0 92.06970591173148,23.72549938619578,0 92.06993500187785,23.72544815276775,0 92.07001789140769,23.72539749669561,0 92.07018062246168,23.72539053507348,0 92.07032937029309,23.72534190458234,0 92.07051018668496,23.72525346096629,0 92.07050645913496,23.7252029675749,0 92.0706210466669,23.72513396127064,0 92.07061204254569,23.72508626694032,0 92.07054345125516,23.72497042020123,0 92.07047497388899,23.72490456936564,0 
					</coordinates>
				</LinearRing>
			</outerBoundaryIs>
		</Polygon>
		<atom:link rel="app" href="https://www.google.com/earth/about/versions/#earth-pro" title="Google Earth Pro 7.3.7.1155"></atom:link>
	</Placemark>
</Document>
</kml>
