<?xml version="1.0" encoding="UTF-8"?>
<kml xmlns="http://www.opengis.net/kml/2.2" xmlns:gx="http://www.google.com/kml/ext/2.2" xmlns:kml="http://www.opengis.net/kml/2.2" xmlns:atom="http://www.w3.org/2005/Atom">
<Document>
	<name>Akhrabari 0.92 ha.kml</name>
	<StyleMap id="inline">
		<Pair>
			<key>normal</key>
			<styleUrl>#inline0</styleUrl>
		</Pair>
		<Pair>
			<key>highlight</key>
			<styleUrl>#inline1</styleUrl>
		</Pair>
	</StyleMap>
	<Style id="inline0">
		<LineStyle>
			<color>ffffaa00</color>
			<width>3.1</width>
		</LineStyle>
		<PolyStyle>
			<fill>0</fill>
		</PolyStyle>
	</Style>
	<Style id="inline1">
		<LineStyle>
			<color>ffffaa00</color>
			<width>3.1</width>
		</LineStyle>
		<PolyStyle>
			<fill>0</fill>
		</PolyStyle>
	</Style>
	<Placemark>
		<name>Akhrabari 0.92 ha</name>
		<styleUrl>#inline</styleUrl>
		<Polygon>
			<tessellate>1</tessellate>
			<outerBoundaryIs>
				<LinearRing>
					<coordinates>
						91.5685770438153,23.96932024524385,0 91.56873565617022,23.96904643554817,0 91.56900164922449,23.96894667832162,0 91.56927927691193,23.96931529947955,0 91.56944692381128,23.96933750534067,0 91.56958045557253,23.96902995605092,0 91.56973544084859,23.96895364155189,0 91.57006730236981,23.96935009230285,0 91.57001523090644,23.96959584070858,0 91.56987661451895,23.96970122562577,0 91.5697448012787,23.96980199605464,0 91.56955713278508,23.96976966774492,0 91.56937921950409,23.96980997463512,0 91.56928126256996,23.96986880318014,0 91.56913029215826,23.9697932439668,0 91.56901837307328,23.96964957775558,0 91.5685770438153,23.96932024524385,0 
					</coordinates>
				</LinearRing>
			</outerBoundaryIs>
		</Polygon>
		<atom:link rel="app" href="https://www.google.com/earth/about/versions/#earth-pro" title="Google Earth Pro 7.3.7.1155"></atom:link>
	</Placemark>
</Document>
</kml>
