<?xml version="1.0" encoding="UTF-8"?>
<kml xmlns="http://www.opengis.net/kml/2.2" xmlns:gx="http://www.google.com/kml/ext/2.2" xmlns:kml="http://www.opengis.net/kml/2.2" xmlns:atom="http://www.w3.org/2005/Atom">
<Document>
	<name>5 HA ANR PURNAKARI PARA.kml</name>
	<StyleMap id="m_ylw-pushpin">
		<Pair>
			<key>normal</key>
			<styleUrl>#s_ylw-pushpin</styleUrl>
		</Pair>
		<Pair>
			<key>highlight</key>
			<styleUrl>#s_ylw-pushpin_hl</styleUrl>
		</Pair>
	</StyleMap>
	<Style id="s_ylw-pushpin">
		<IconStyle>
			<scale>1.1</scale>
			<Icon>
				<href>http://maps.google.com/mapfiles/kml/pushpin/ylw-pushpin.png</href>
			</Icon>
			<hotSpot x="20" y="2" xunits="pixels" yunits="pixels"/>
		</IconStyle>
		<LineStyle>
			<color>ffffaa00</color>
			<width>5</width>
		</LineStyle>
		<PolyStyle>
			<fill>0</fill>
		</PolyStyle>
	</Style>
	<Style id="s_ylw-pushpin_hl">
		<IconStyle>
			<scale>1.3</scale>
			<Icon>
				<href>http://maps.google.com/mapfiles/kml/pushpin/ylw-pushpin.png</href>
			</Icon>
			<hotSpot x="20" y="2" xunits="pixels" yunits="pixels"/>
		</IconStyle>
		<LineStyle>
			<color>ffffaa00</color>
			<width>5</width>
		</LineStyle>
		<PolyStyle>
			<fill>0</fill>
		</PolyStyle>
	</Style>
	<Placemark>
		<name>5 HA ANR PURNAKARI PARA</name>
		<styleUrl>#m_ylw-pushpin</styleUrl>
		<Polygon>
			<tessellate>1</tessellate>
			<outerBoundaryIs>
				<LinearRing>
					<coordinates>
						92.06242088711804,23.90152214681056,0 92.06242061553399,23.90135325880827,0 92.06242624444718,23.90123028695568,0 92.06255755572039,23.90118452462905,0 92.06264535266203,23.90113284036156,0 92.06270402463306,23.90109415232333,0 92.06275790126922,23.90101689618296,0 92.06283649402536,23.90087614282914,0 92.06291076444866,23.90081245504933,0 92.06296305880086,23.90075547370581,0 92.06306354884147,23.90073614160128,0 92.06308883126547,23.90066687899267,0 92.0631537285706,23.9006292615372,0 92.06326597107508,23.90062285114719,0 92.06335078457464,23.90059782706347,0 92.06347613864932,23.90057916397994,0 92.06362895327172,23.90055435761403,0 92.06374586833989,23.90057916816961,0 92.06384252301473,23.90058539447011,0 92.0639948740521,23.90065327145273,0 92.06411990646309,23.90065293815589,0 92.06418196161319,23.90076406391213,0 92.06424402121245,23.9008568255088,0 92.06432695076823,23.9009433529241,0 92.06434758535288,23.90101167397065,0 92.06438219626912,23.90103634639817,0 92.06441670439516,23.90112351556342,0 92.06445827596359,23.90113574587299,0 92.06453444418145,23.90113526124727,0 92.0646657055989,23.90110944198302,0 92.06470697095379,23.90105326978855,0 92.0647758654778,23.90104676920562,0 92.06488611210331,23.90108345021949,0 92.06494807520627,23.90110174315146,0 92.06502376303244,23.90112613526387,0 92.06509273627221,23.90115080116434,0 92.06511425622914,23.90123811331909,0 92.06513609972718,23.90131988837904,0 92.06510922013747,23.9014076319865,0 92.06510324251855,23.9014835425112,0 92.06509021888866,23.90154713826145,0 92.06505614245974,23.90159818199858,0 92.06501518276114,23.9016621884881,0 92.06497409745647,23.90172639157353,0 92.06495420638112,23.90181065401648,0 92.06490628354327,23.90192697516529,0 92.06487941974292,23.90205118635975,0 92.06484496303783,23.9021428082096,0 92.0648032537417,23.90221565452704,0 92.06476113564356,23.9022743408825,0 92.06474773025197,23.90236886114108,0 92.06474833535513,23.90243741272877,0 92.06473438887321,23.90247807516703,0 92.06468502127076,23.90258571733157,0 92.06464935030434,23.902611596476,0 92.06457079527129,23.9026365971509,0 92.0644351357225,23.90267555782396,0 92.06432809269255,23.90265557145939,0 92.06418528413489,23.90261764335794,0 92.06408487880439,23.90262000539445,0 92.06380402610742,23.90262027743085,0 92.06368845367248,23.90262905107527,0 92.06358670661386,23.90265138342886,0 92.06354210301416,23.90268695371054,0 92.06341036164703,23.90273013645501,0 92.06319075261838,23.90273590494149,0 92.06312455615691,23.90273135261805,0 92.0630671039994,23.90268547118806,0 92.06286559067114,23.9026617257167,0 92.06268675526974,23.90258945446601,0 92.06254187701381,23.90256419206015,0 92.0624974719797,23.90253221904114,0 92.0624338824112,23.90243882124225,0 92.06241677501937,23.90234319909513,0 92.06243262029088,23.90218638215422,0 92.06243364716985,23.90216609442096,0 92.06240338021622,23.90202564882114,0 92.06240988795909,23.90189202419711,0 92.06241528367057,23.90178557102093,0 92.06237084951482,23.90164105684256,0 92.06242088711804,23.90152214681056,0 
					</coordinates>
				</LinearRing>
			</outerBoundaryIs>
		</Polygon>
		<atom:link rel="app" href="https://www.google.com/earth/about/versions/#earth-pro" title="Google Earth Pro 7.3.7.1155"></atom:link>
	</Placemark>
</Document>
</kml>
