<?xml version="1.0" encoding="UTF-8"?>
<kml xmlns="http://www.opengis.net/kml/2.2" xmlns:gx="http://www.google.com/kml/ext/2.2" xmlns:kml="http://www.opengis.net/kml/2.2" xmlns:atom="http://www.w3.org/2005/Atom">
<Document>
	<name>1778142187716.kml</name>
	<StyleMap id="msn_ylw-pushpin">
		<Pair>
			<key>normal</key>
			<styleUrl>#sn_ylw-pushpin</styleUrl>
		</Pair>
		<Pair>
			<key>highlight</key>
			<styleUrl>#sh_ylw-pushpin</styleUrl>
		</Pair>
	</StyleMap>
	<Style id="sh_ylw-pushpin">
		<IconStyle>
			<scale>1.3</scale>
			<Icon>
				<href>http://maps.google.com/mapfiles/kml/pushpin/ylw-pushpin.png</href>
			</Icon>
			<hotSpot x="20" y="2" xunits="pixels" yunits="pixels"/>
		</IconStyle>
		<BalloonStyle>
		</BalloonStyle>
		<PolyStyle>
			<fill>0</fill>
		</PolyStyle>
	</Style>
	<Style id="sn_ylw-pushpin">
		<IconStyle>
			<scale>1.1</scale>
			<Icon>
				<href>http://maps.google.com/mapfiles/kml/pushpin/ylw-pushpin.png</href>
			</Icon>
			<hotSpot x="20" y="2" xunits="pixels" yunits="pixels"/>
		</IconStyle>
		<BalloonStyle>
		</BalloonStyle>
		<PolyStyle>
			<fill>0</fill>
		</PolyStyle>
	</Style>
	<Placemark>
		<name>1778142187716</name>
		<styleUrl>#msn_ylw-pushpin</styleUrl>
		<Polygon>
			<tessellate>1</tessellate>
			<outerBoundaryIs>
				<LinearRing>
					<coordinates>
						91.74238709842186,23.25350713946509,0 91.74272040730115,23.25348775119714,0 91.74295327515783,23.25332723189674,0 91.74327847091099,23.25326263167006,0 91.74361253094668,23.2531550579626,0 91.74397786550591,23.25304403747968,0 91.74410285935326,23.25306504140453,0 91.74431739556414,23.2529478934858,0 91.74460373646642,23.25287683156964,0 91.74491910389386,23.25304033802377,0 91.74503432161762,23.25302880767949,0 91.74499901269481,23.25313423837757,0 91.74534922736683,23.2534041251299,0 91.74552891988213,23.25370344546776,0 91.74516759145192,23.25400766712949,0 91.74473301507471,23.25437488126411,0 91.74453276753368,23.25458557183439,0 91.74405251710458,23.25469847759737,0 91.74378737314059,23.25496558350782,0 91.74357501056227,23.25519770668853,0 91.74351258610587,23.25521141256907,0 91.74346905204911,23.25522792942229,0 91.74341945626627,23.25524446289219,0 91.74338852341519,23.25525759506125,0 91.74336998842597,23.25527209285933,0 91.74332679658986,23.25530019856324,0 91.74329599980874,23.25531907895483,0 91.74327139295545,23.25532711030797,0 91.74325296172152,23.25533004633241,0 91.74322840995637,23.25534901815515,0 91.7432039273139,23.25534977575255,0 91.74317949657079,23.25535056968009,0 91.74315509789824,23.25535201149775,0 91.74313074390896,23.25535345072449,0 91.74310035256845,23.25535952671994,0 91.74307004441425,23.25535988781503,0 91.74305188566623,23.25536238292214,0 91.74302164811013,23.25536339908894,0 91.7429974943467,23.2553653900153,0 91.74297942210276,23.25536261754561,0 91.74294932637677,23.25536368339543,0 91.74292531472778,23.25536000925419,0 91.74290130173779,23.25536213775817,0 91.74286541661139,23.25535665798748,0 91.74283560253986,23.25535190834203,0 91.74272458118743,23.25519467173341,0 91.74273435514452,23.25495192068326,0 91.74265368211961,23.25476873238893,0 91.74268203669446,23.25461651171234,0 91.74253505664373,23.25426873895163,0 91.74241508524619,23.25366850335623,0 91.74238709842186,23.25350713946509,0 
					</coordinates>
				</LinearRing>
			</outerBoundaryIs>
		</Polygon>
		<atom:link rel="app" href="https://www.google.com/earth/about/versions/#earth-pro" title="Google Earth Pro 7.3.7.1155"></atom:link>
	</Placemark>
</Document>
</kml>
