<?xml version="1.0" encoding="UTF-8"?>
<kml xmlns="http://www.opengis.net/kml/2.2" xmlns:gx="http://www.google.com/kml/ext/2.2" xmlns:kml="http://www.opengis.net/kml/2.2" xmlns:atom="http://www.w3.org/2005/Atom">
<Document>
	<name>1778224505891.kml</name>
	<StyleMap id="msn_ylw-pushpin">
		<Pair>
			<key>normal</key>
			<styleUrl>#sn_ylw-pushpin</styleUrl>
		</Pair>
		<Pair>
			<key>highlight</key>
			<styleUrl>#sh_ylw-pushpin</styleUrl>
		</Pair>
	</StyleMap>
	<Style id="sh_ylw-pushpin">
		<IconStyle>
			<scale>1.3</scale>
			<Icon>
				<href>http://maps.google.com/mapfiles/kml/pushpin/ylw-pushpin.png</href>
			</Icon>
			<hotSpot x="20" y="2" xunits="pixels" yunits="pixels"/>
		</IconStyle>
		<BalloonStyle>
		</BalloonStyle>
		<PolyStyle>
			<fill>0</fill>
		</PolyStyle>
	</Style>
	<Style id="sn_ylw-pushpin">
		<IconStyle>
			<scale>1.1</scale>
			<Icon>
				<href>http://maps.google.com/mapfiles/kml/pushpin/ylw-pushpin.png</href>
			</Icon>
			<hotSpot x="20" y="2" xunits="pixels" yunits="pixels"/>
		</IconStyle>
		<BalloonStyle>
		</BalloonStyle>
		<PolyStyle>
			<fill>0</fill>
		</PolyStyle>
	</Style>
	<Placemark>
		<name>1778224505891</name>
		<styleUrl>#msn_ylw-pushpin</styleUrl>
		<Polygon>
			<tessellate>1</tessellate>
			<outerBoundaryIs>
				<LinearRing>
					<coordinates>
						91.79977744276916,23.16162753442149,0 91.79974134037344,23.16149224908993,0 91.799745254546,23.16125513686106,0 91.79973621055747,23.16124818172167,0 91.79972940432478,23.16124354220521,0 91.79972025325556,23.1612388805079,0 91.79971111652802,23.16123421744864,0 91.79970447618294,23.16122730890163,0 91.79969784597377,23.16122041015535,0 91.79968223615572,23.16120873841683,0 91.79966434893446,23.16119705449385,0 91.79965752754637,23.16119465746962,0 91.79965085834021,23.16119000602874,0 91.79963954766937,23.16118528637772,0 91.79963289046248,23.16118065504288,0 91.79962903829892,23.16116929838126,0 91.79962271192102,23.16116019130605,0 91.79961855264102,23.16115338417524,0 91.7996099425977,23.16114426619887,0 91.7995952352843,23.16112390615556,0 91.79958881630898,23.16111711251452,0 91.79957814091063,23.16110581376934,0 91.79956291417452,23.16109446446779,0 91.79955458864201,23.16108326678012,0 91.79954594917638,23.1610764989342,0 91.79945691272513,23.1610044759563,0 91.79944192151909,23.16090075273696,0 91.79936897831018,23.16080012277155,0 91.79944437066726,23.16069142192634,0 91.79954037911325,23.16060701339065,0 91.79962931059215,23.16055770375312,0 91.79963810069975,23.1605557710602,0 91.79964742292243,23.16054790035748,0 91.79965225201695,23.16054199562432,0 91.79965939653101,23.16053413860246,0 91.79967047942809,23.16053025414013,0 91.79967693972239,23.1605302823082,0 91.79968561272135,23.16053030052148,0 91.79969285628546,23.16052241675873,0 91.79970400178694,23.16051851210639,0 91.7997215464469,23.16051465233232,0 91.79974123404338,23.16051080352431,0 91.79975413584492,23.1605108602642,0 91.79977134989471,23.16051093624537,0 91.79977565551121,23.16051095512271,0 91.79989010404051,23.16048376180278,0 91.80004805152488,23.16044306831857,0 91.80018424419383,23.16044505156232,0 91.80027904291902,23.16050559942075,0 91.80034486232394,23.16066806416177,0 91.80048963719132,23.16081536576761,0 91.8004908865708,23.16088320286966,0 91.80054124762053,23.16090992705439,0 91.80059768429426,23.16097215497954,0 91.80066122131637,23.16107567500125,0 91.80074381160016,23.16114615287185,0 91.80081126551185,23.16121153628506,0 91.8009645738988,23.16135058774694,0 91.80101260817767,23.16140456270875,0 91.80113873919765,23.1614896900985,0 91.80113490983443,23.16157797369754,0 91.80109916440178,23.16168461739698,0 91.80103521174921,23.16176947603482,0 91.80102427323551,23.16183840352592,0 91.80085704206984,23.16195502251626,0 91.80071104667614,23.16203215903927,0 91.80056090581655,23.16212809242261,0 91.80043075365143,23.16215477734344,0 91.80023250489154,23.16218682287408,0 91.80012142294302,23.16214008741656,0 91.80000581974821,23.16203340606129,0 91.79986421005651,23.16194293443561,0 91.79978209965911,23.16186623778844,0 91.79977744276916,23.16162753442149,0 
					</coordinates>
				</LinearRing>
			</outerBoundaryIs>
		</Polygon>
		<atom:link rel="app" href="https://www.google.com/earth/about/versions/#earth-pro" title="Google Earth Pro 7.3.7.1155"></atom:link>
	</Placemark>
</Document>
</kml>
