<?xml version="1.0" encoding="UTF-8"?>
<kml xmlns="http://www.opengis.net/kml/2.2" xmlns:gx="http://www.google.com/kml/ext/2.2" xmlns:kml="http://www.opengis.net/kml/2.2" xmlns:atom="http://www.w3.org/2005/Atom">
<Document>
	<name>5.0 ha ANR Bamboo Yakhli JFMC.kml</name>
	<Style id="inline04">
		<LineStyle>
			<color>ff0000ff</color>
			<width>2</width>
		</LineStyle>
		<PolyStyle>
			<fill>0</fill>
		</PolyStyle>
	</Style>
	<Style id="inline18">
		<LineStyle>
			<color>ff0000ff</color>
			<width>2</width>
		</LineStyle>
		<PolyStyle>
			<fill>0</fill>
		</PolyStyle>
	</Style>
	<StyleMap id="inline19">
		<Pair>
			<key>normal</key>
			<styleUrl>#inline04</styleUrl>
		</Pair>
		<Pair>
			<key>highlight</key>
			<styleUrl>#inline18</styleUrl>
		</Pair>
	</StyleMap>
	<Placemark>
		<name>5.0 ha ANR Bamboo Yakhli JFMC</name>
		<styleUrl>#inline19</styleUrl>
		<Polygon>
			<tessellate>1</tessellate>
			<outerBoundaryIs>
				<LinearRing>
					<coordinates>
						91.64104874300843,23.52416406831053,0 91.64110342478766,23.52400287647198,0 91.64099802040843,23.52394727641813,0 91.64082018307708,23.52392564329431,0 91.64065057095806,23.52387404918702,0 91.64039230163489,23.52383499424676,0 91.63979479507857,23.52367241045419,0 91.63980149240236,23.52348195496574,0 91.63979146097934,23.52334484634448,0 91.63979918241559,23.52287854064749,0 91.63994327894889,23.52264751406983,0 91.64034093007105,23.52255620494002,0 91.64065155279799,23.52273134962808,0 91.64082857884213,23.52257098898376,0 91.64100413440377,23.52243623051709,0 91.64123800215502,23.52243242613467,0 91.64139889390167,23.52251869687804,0 91.64148189363596,23.52267044672156,0 91.64145533156605,23.52282844280159,0 91.64158028653949,23.52297131705762,0 91.6417609255578,23.52311930532123,0 91.64221338572206,23.5232495103511,0 91.64289004937369,23.52336673152015,0 91.6427169447027,23.52361723374796,0 91.64263597193528,23.52377358094667,0 91.64281000340728,23.5238236214562,0 91.64300413208673,23.52405064659595,0 91.64306634375986,23.52425224319954,0 91.64295152987238,23.52449844458991,0 91.6427553467101,23.52440391193608,0 91.64266949713301,23.5243727893742,0 91.64263912362263,23.52420411262997,0 91.64261521264974,23.52419104226583,0 91.64250754072357,23.52411884355672,0 91.64239203661593,23.52409163500084,0 91.64230719193553,23.52415377829276,0 91.64235972299736,23.52427231852779,0 91.64242220937959,23.52442068667354,0 91.6423700769415,23.52463962328609,0 91.64224100828073,23.52471019042068,0 91.64213855258721,23.52480609795936,0 91.64191676003908,23.5246981593603,0 91.64183709069137,23.52485697355825,0 91.64166169684049,23.52491801907785,0 91.64149319774556,23.52492157748878,0 91.64139024226286,23.5249057627442,0 91.64128540509839,23.52491411929667,0 91.64118696281143,23.52486819020656,0 91.64106496506673,23.52477528757112,0 91.64105422966104,23.52472013548815,0 91.64104642294821,23.52466259771123,0 91.64104874300843,23.52416406831053,0 
					</coordinates>
				</LinearRing>
			</outerBoundaryIs>
		</Polygon>
		<atom:link rel="app" href="https://www.google.com/earth/about/versions/#earth-pro" title="Google Earth Pro 7.3.7.1155"></atom:link>
	</Placemark>
</Document>
</kml>
