<?xml version="1.0" encoding="UTF-8"?>
<kml xmlns="http://www.opengis.net/kml/2.2" xmlns:gx="http://www.google.com/kml/ext/2.2" xmlns:kml="http://www.opengis.net/kml/2.2" xmlns:atom="http://www.w3.org/2005/Atom">
<Document>
	<name>sundarban1.kml</name>
	<StyleMap id="m_ylw-pushpin">
		<Pair>
			<key>normal</key>
			<styleUrl>#s_ylw-pushpin</styleUrl>
		</Pair>
		<Pair>
			<key>highlight</key>
			<styleUrl>#s_ylw-pushpin_hl</styleUrl>
		</Pair>
	</StyleMap>
	<Style id="s_ylw-pushpin">
		<IconStyle>
			<scale>1.1</scale>
			<Icon>
				<href>http://maps.google.com/mapfiles/kml/pushpin/ylw-pushpin.png</href>
			</Icon>
			<hotSpot x="20" y="2" xunits="pixels" yunits="pixels"/>
		</IconStyle>
		<PolyStyle>
			<fill>0</fill>
		</PolyStyle>
	</Style>
	<Style id="s_ylw-pushpin_hl">
		<IconStyle>
			<scale>1.3</scale>
			<Icon>
				<href>http://maps.google.com/mapfiles/kml/pushpin/ylw-pushpin.png</href>
			</Icon>
			<hotSpot x="20" y="2" xunits="pixels" yunits="pixels"/>
		</IconStyle>
		<PolyStyle>
			<fill>0</fill>
		</PolyStyle>
	</Style>
	<Placemark>
		<name>sundarban1</name>
		<styleUrl>#m_ylw-pushpin</styleUrl>
		<Polygon>
			<tessellate>1</tessellate>
			<outerBoundaryIs>
				<LinearRing>
					<coordinates>
						91.56214229622137,23.14919129971977,0 91.56145320133466,23.14808433477564,0 91.56147333165679,23.14795083275282,0 91.56155565327522,23.14777542631117,0 91.56169385798226,23.14767479836399,0 91.56189206574659,23.14770257380294,0 91.56215700773933,23.14770814410177,0 91.56255562063782,23.14799333392092,0 91.56284657216561,23.14808075978567,0 91.56303019927348,23.14817962660851,0 91.5639114531827,23.1485852629855,0 91.56497257681966,23.14846456354799,0 91.56519407986704,23.14864883989168,0 91.56533818440738,23.14885414065221,0 91.56545497085609,23.14916476099675,0 91.56551133898546,23.14952735257746,0 91.56549285549004,23.1496312325045,0 91.5653439492238,23.14987747121218,0 91.56527113007569,23.15007319266831,0 91.5651191025747,23.15011847698714,0 91.56487075470643,23.15018342832028,0 91.56447877456337,23.15023874613752,0 91.56422413875642,23.15017474685715,0 91.56401196565085,23.14995161127081,0 91.56358929564416,23.14982316963257,0 91.56335838738778,23.14970686816289,0 91.56167826065052,23.14923815522473,0 91.56197477225483,23.14932333472079,0 91.56285406387754,23.1495722224218,0 91.56281282316321,23.14955757218989,0 91.56277524049692,23.14974817211019,0 91.56386549771375,23.15027873650385,0 91.56385208409233,23.15052206813527,0 91.56360162613404,23.15054966392401,0 91.56329617365193,23.15051256138423,0 91.56320608893216,23.15053650377171,0 91.5630002756818,23.15070098654339,0 91.56279579678879,23.15068613917756,0 91.5626756379997,23.15069585604864,0 91.56252367507251,23.15056743775098,0 91.56238350941607,23.15050374778092,0 91.56211272138395,23.15049737025817,0 91.56194843440093,23.15056592364142,0 91.56187457881697,23.15051778928487,0 91.56174903021909,23.1503569391948,0 91.56159376670308,23.15021295548534,0 91.56144038240862,23.15018001903872,0 91.56133222350654,23.15018561768133,0 91.56123746345466,23.1500770656331,0 91.56113705836562,23.15007507771956,0 91.56119345385389,23.15000796181884,0 91.56121758860257,23.14983382388269,0 91.5612595251026,23.14963173236525,0 91.56124725373053,23.14960963219202,0 91.56123152468702,23.14960509830972,0 91.56120728838957,23.14952850203606,0 91.56113747604506,23.14945742640434,0 91.56112358564808,23.14935597438778,0 91.56214229622137,23.14919129971977,0 
					</coordinates>
				</LinearRing>
			</outerBoundaryIs>
		</Polygon>
		<atom:link rel="app" href="https://www.google.com/earth/about/versions/#earth-pro" title="Google Earth Pro 7.3.7.1155"></atom:link>
	</Placemark>
</Document>
</kml>
