<?xml version="1.0" encoding="UTF-8"?>
<kml xmlns="http://www.opengis.net/kml/2.2" xmlns:gx="http://www.google.com/kml/ext/2.2" xmlns:kml="http://www.opengis.net/kml/2.2" xmlns:atom="http://www.w3.org/2005/Atom">
<Document>
	<name>1778220204368.kml</name>
	<StyleMap id="msn_ylw-pushpin">
		<Pair>
			<key>normal</key>
			<styleUrl>#sn_ylw-pushpin</styleUrl>
		</Pair>
		<Pair>
			<key>highlight</key>
			<styleUrl>#sh_ylw-pushpin</styleUrl>
		</Pair>
	</StyleMap>
	<Style id="sh_ylw-pushpin">
		<IconStyle>
			<scale>1.3</scale>
			<Icon>
				<href>http://maps.google.com/mapfiles/kml/pushpin/ylw-pushpin.png</href>
			</Icon>
			<hotSpot x="20" y="2" xunits="pixels" yunits="pixels"/>
		</IconStyle>
		<BalloonStyle>
		</BalloonStyle>
		<PolyStyle>
			<fill>0</fill>
		</PolyStyle>
	</Style>
	<Style id="sn_ylw-pushpin">
		<IconStyle>
			<scale>1.1</scale>
			<Icon>
				<href>http://maps.google.com/mapfiles/kml/pushpin/ylw-pushpin.png</href>
			</Icon>
			<hotSpot x="20" y="2" xunits="pixels" yunits="pixels"/>
		</IconStyle>
		<BalloonStyle>
		</BalloonStyle>
		<PolyStyle>
			<fill>0</fill>
		</PolyStyle>
	</Style>
	<Placemark>
		<name>1778220204368</name>
		<styleUrl>#msn_ylw-pushpin</styleUrl>
		<Polygon>
			<tessellate>1</tessellate>
			<outerBoundaryIs>
				<LinearRing>
					<coordinates>
						91.73025148723997,23.60017407103148,0 91.73008843162197,23.59991876704701,0 91.72994889591406,23.59964561731613,0 91.72998935385226,23.59938419290818,0 91.72997850998821,23.59927342760971,0 91.72996495312059,23.59925032010372,0 91.72995268394234,23.59922142830963,0 91.72994384256664,23.59919842582733,0 91.72992928743682,23.59918158850429,0 91.72992962568581,23.59915844054678,0 91.72993540455147,23.59913316978974,0 91.72994674585809,23.59908636549022,0 91.72995634083746,23.59904676681912,0 91.7299642718216,23.5990140754712,0 91.72997423125916,23.59897406840348,0 91.7299829939389,23.59893691582418,0 91.72998878046948,23.59891238445194,0 91.7300030700992,23.59888803984482,0 91.7300177343881,23.59886281458224,0 91.73003085760014,23.59884385162562,0 91.7300366756471,23.59883745033778,0 91.73005665861402,23.5988067400241,0 91.73008194522663,23.5987705334562,0 91.73010136929314,23.59874076055851,0 91.7301219077151,23.59870832382866,0 91.73014399163139,23.59868729196093,0 91.7301527808028,23.59870415512628,0 91.73016307604057,23.5987148481036,0 91.73018078704412,23.59873064862127,0 91.73019857715478,23.59874652025722,0 91.73022087625171,23.59876185271484,0 91.73023744052459,23.59878424253061,0 91.73026121997572,23.59879356825548,0 91.73027739380727,23.59879807089236,0 91.73028484804081,23.59880344222968,0 91.73030978907313,23.59880708995156,0 91.7303291427544,23.59881743005795,0 91.73035101339002,23.59881516389952,0 91.73037511886308,23.59882418973153,0 91.73040384495494,23.59883218722084,0 91.73042366469851,23.5988417147568,0 91.73044477134709,23.59884458396074,0 91.73046587784999,23.59884745301118,0 91.73047806009706,23.59885184645579,0 91.73050035543595,23.59884803750574,0 91.73051699686043,23.59885166608798,0 91.73053813698016,23.59885438661258,0 91.73055482598626,23.5988578927207,0 91.73058140530381,23.59885346485995,0 91.73059901196578,23.59885079084686,0 91.73061899333034,23.59886043269421,0 91.73063120116144,23.59886492612098,0 91.73065317421654,23.59886157050569,0 91.73066633712858,23.59885956024539,0 91.73068824071656,23.59885621523553,0 91.7307101008131,23.59885287962785,0 91.73073191748796,23.59884954798828,0 91.73074584361581,23.59884109987957,0 91.73077005540846,23.59881854352297,0 91.73078902559524,23.59880288965035,0 91.7308053452733,23.59877735805926,0 91.73081753313494,23.59874858176196,0 91.73082504744139,23.59872211936295,0 91.7308366349055,23.59869561646551,0 91.73084811394314,23.59866936212666,0 91.73085948550771,23.59864335310963,0 91.73087046822948,23.5986188898248,0 91.73087713439662,23.59859564152607,0 91.73088778076293,23.59857238952002,0 91.73090235881118,23.59854913840913,0 91.73091221590391,23.59853186600491,0 91.73093058198697,23.5985087576427,0 91.7309454044123,23.59848048293705,0 91.73095897174008,23.59846344116198,0 91.73097575498024,23.59845233023382,0 91.73099198439937,23.59844653081986,0 91.731016086797,23.59844016705639,0 91.73103242860746,23.59843330033274,0 91.73104800650236,23.59843333689914,0 91.73107524291817,23.59843355488237,0 91.73109469990582,23.59843371030403,0 91.73110986444381,23.5984392034915,0 91.73112934273091,23.59843935974009,0 91.73114455553241,23.59844486383306,0 91.73116405541884,23.598445020238,0 91.73117931668605,23.5984505353927,0 91.73119851491597,23.59845609251374,0 91.73121803306115,23.59845645293327,0 91.73123290001263,23.59846916077804,0 91.73125597587396,23.59847646296108,0 91.73127129716956,23.5984833318304,0 91.73129478007621,23.59848470044546,0 91.73131044737488,23.59848561328837,0 91.73132980240298,23.59849273872207,0 91.73134943566987,23.59849388516592,0 91.73135729328079,23.59849434410474,0 91.73138910332995,23.59848420615516,0 91.73141266721655,23.59848557621358,0 91.7314323207589,23.59848671947515,0 91.73144816771469,23.59848165597521,0 91.73146418194951,23.59846470302577,0 91.73147245243956,23.59843580522969,0 91.73148056070758,23.5984130083375,0 91.73149627485004,23.59839704224098,0 91.73150802897268,23.59838153434633,0 91.73151975461765,23.59836063492821,0 91.73153137677876,23.59834531522772,0 91.73154676917524,23.59833583006338,0 91.73156210716417,23.59832097494491,0 91.73157739452058,23.5983115622922,0 91.73159271506546,23.59831291485175,0 91.73160794264365,23.59830352338718,0 91.73162319408324,23.59829950991951,0 91.73164217218078,23.59829049074216,0 91.73165748016662,23.59829182949505,0 91.73167261259357,23.59828348695746,0 91.73169557290637,23.59828520453086,0 91.73173840562343,23.59818222069978,0 91.73172915210708,23.59796071076329,0 91.7317284753438,23.59792881419867,0 91.73172813140675,23.59791161355782,0 91.73172765206027,23.59788764527963,0 91.73172737932052,23.59787400779631,0 91.73172703965304,23.59785702046789,0 91.73172670129925,23.59784009909243,0 91.73172643151689,23.59782660920244,0 91.73172609549772,23.5978098054781,0 91.73172569397782,23.59778972649576,0 91.73172532460669,23.5977701440945,0 91.73172513350292,23.59775785510976,0 91.73172499049586,23.59774865619547,0 91.73172465763565,23.59772725135907,0 91.73172456277081,23.59772115077836,0 91.73172418435911,23.59769681578273,0 91.73172385460865,23.59767561041343,0 91.73172371369944,23.59766654728042,0 91.73172347927863,23.59765147509962,0 91.73172315232897,23.59763044330279,0 91.73172301250985,23.59762145426602,0 91.73172278007594,23.59760650534111,0 91.73172604239643,23.59759145766004,0 91.73173275085102,23.59757353367146,0 91.73173586717918,23.59755241236224,0 91.73173885422383,23.59752532504759,0 91.73174200190223,23.59750741764247,0 91.73174537814847,23.59750160122645,0 91.73174850721232,23.59748377653421,0 91.7317552340801,23.59747220071218,0 91.73177265704362,23.59747309222544,0 91.73178288644526,23.5974644984309,0 91.73179998293661,23.59745322204202,0 91.73180669633788,23.59744449558724,0 91.73181331335385,23.59743277570241,0 91.7318233458915,23.59742094219116,0 91.73182651206922,23.59741184634996,0 91.73183303360337,23.59739985574404,0 91.73183607691897,23.5973877361509,0 91.73184232151429,23.59736949393974,0 91.73184885963421,23.59736040353397,0 91.73186226124511,23.59735153660937,0 91.73187563682519,23.59734268698426,0 91.73188911961168,23.59733693137886,0 91.73189925727075,23.59733398048702,0 91.73191607215747,23.59732794763405,0 91.73192959539297,23.59732496693891,0 91.73195009720978,23.59732509629105,0 91.73196716112329,23.59732510061515,0 91.73198420773547,23.597325030412,0 91.73200125308915,23.59732496018663,0 91.73201526771228,23.5973311016295,0 91.73202930456848,23.59733725296387,0 91.73204014717781,23.59734654087851,0 91.73205423190137,23.5973527167332,0 91.73206490936907,23.59735889430636,0 91.73207578367222,23.59736808256799,0 91.73209373984513,23.59738030333197,0 91.7321151720604,23.59739249709827,0 91.73212591155526,23.59739860734263,0 91.73214033592784,23.59740782117338,0 91.73215822361976,23.59741699126987,0 91.73216928055517,23.59742631011881,0 91.73218055705387,23.59743862735517,0 91.73218148934035,23.59745103914563,0 91.7321789741064,23.59746355219058,0 91.73218014046039,23.59747916594174,0 91.73218823710238,23.59749470688802,0 91.73219636299993,23.59751030387499,0 91.73220774757881,23.59752272871031,0 91.73221916408407,23.59753518840795,0 91.73223358352944,23.59754126296064,0 91.73224119306308,23.59755028623433,0 91.73224904574766,23.59756241651057,0 91.7322605989999,23.59757748238652,0 91.73226507147692,23.59758995667628,0 91.73227271817471,23.59759898435698,0 91.73228132868786,23.59761806833264,0 91.73228970876625,23.59763402808985,0 91.73229123571538,23.5976506384069,0 91.73229214436346,23.59766060647367,0 91.73229341275984,23.59767652639377,0 91.73229116056726,23.59769260505377,0 91.73228587368108,23.59771527390308,0 91.73228663233722,23.59772493310848,0 91.73228435609047,23.59774118326142,0 91.73228536868304,23.59775413882436,0 91.73228638403104,23.59776713012799,0 91.73229148972979,23.59778416519039,0 91.73230005061379,23.59779827691941,0 91.73230507305006,23.59781256234853,0 91.73231332082077,23.59782315864022,0 91.73231875820494,23.59784117221306,0 91.73232384448747,23.59785561994422,0 91.73232891908717,23.59787002674839,0 91.73233386275339,23.59788402355242,0 91.73234282665246,23.5979016575792,0 91.7323511725173,23.59791235084466,0 91.73236020428664,23.59793010614569,0 91.73237263964634,23.59794450195864,0 91.73238171346514,23.59795976017496,0 91.73239787137328,23.59797160212728,0 91.73241431290749,23.59798415021437,0 91.73243109290262,23.59799753417124,0 91.73244408602167,23.5980105340007,0 91.73245374447023,23.59802705421263,0 91.73246005352743,23.59804713859946,0 91.7324629911929,23.59807084022294,0 91.73247327874616,23.59809163924106,0 91.73248073335752,23.59812018900155,0 91.73248346676833,23.59814092160831,0 91.73248566515761,23.59815759577468,0 91.73249978201424,23.59817584837308,0 91.73250999661909,23.59819370318283,0 91.73252026761307,23.59821165633459,0 91.73253460611944,23.59823022296116,0 91.73254500388902,23.5982483797674,0 91.73255889379944,23.59826284850866,0 91.73257628302265,23.59827358417575,0 91.73258940792623,23.59828044591582,0 91.73260198464266,23.59828310438911,0 91.73263142301676,23.59828932735234,0 91.73265243181953,23.5982935365345,0 91.73269712355376,23.59834732701458,0 91.73273738328319,23.59845116922739,0 91.73275292024967,23.59847111120097,0 91.73276427170384,23.59849046183062,0 91.73277182071298,23.5985130047446,0 91.73278391615695,23.59853689118968,0 91.73279220201215,23.59856404733329,0 91.73279926985573,23.59858266820545,0 91.73279273670899,23.59859764188896,0 91.73277648238926,23.59860577419128,0 91.7327596124413,23.59860952984323,0 91.7327620863019,23.59862706070172,0 91.73275579155361,23.59864570751399,0 91.73274986460329,23.5986682260107,0 91.7327436367548,23.59868728270592,0 91.73272769624842,23.59869660015159,0 91.7327165803915,23.59871082767388,0 91.73270448527931,23.59871679412973,0 91.73269286120616,23.5987269071007,0 91.73267764312993,23.59874128062526,0 91.7326673387341,23.59875820754214,0 91.73266547643004,23.59877603122126,0 91.73265876769027,23.59878891986617,0 91.73264483587329,23.59881057749633,0 91.73262129298173,23.59882260853131,0 91.73260631390517,23.59883584407291,0 91.73258624001321,23.59884045524016,0 91.73257192051146,23.5988561961936,0 91.73255281959126,23.59886721224972,0 91.73253706571586,23.59887286101996,0 91.73252470268162,23.59887311689622,0 91.73250960777098,23.59888410141323,0 91.73248793675452,23.59890738680628,0 91.73247318186529,23.59892025717651,0 91.73245836543532,23.59893318133842,0 91.73244348704553,23.59894615964797,0 91.73242854658301,23.59895919219595,0 91.73241765920289,23.59897189704137,0 91.73241285296334,23.59899824429438,0 91.73241230488527,23.5990250376635,0 91.73240528414571,23.59906659070143,0 91.73240558508384,23.59910069849776,0 91.73240500995749,23.59912844450858,0 91.73239609444923,23.59915790064554,0 91.7323994192121,23.59918436099754,0 91.73239360264232,23.59920615147513,0 91.73239862188633,23.5992465040944,0 91.73240200139952,23.59927367455442,0 91.73234380787936,23.59945620378478,0 91.73225056749862,23.59956766652694,0 91.73221982552202,23.59958012788516,0 91.73216781566484,23.59961254682581,0 91.73213684827863,23.59962667366987,0 91.73208261786455,23.59963958026766,0 91.73206442382423,23.59964355658474,0 91.73204123884874,23.5996419746365,0 91.73202261668996,23.59963952188008,0 91.73199486681604,23.59963929145996,0 91.73196286721578,23.59964709248593,0 91.7319261492968,23.59965604350869,0 91.73190280805446,23.59965470226483,0 91.73188431439098,23.59965865475332,0 91.73186118086613,23.59966405603884,0 91.7318333336918,23.59967043505823,0 91.73181524857743,23.59968962759189,0 91.73178767756716,23.59971110001812,0 91.73175997254,23.59973401205842,0 91.7317322843286,23.59976590661552,0 91.7317086305069,23.5997778450506,0 91.73169455428663,23.59979457007555,0 91.73167574470374,23.59982028602355,0 91.73166151975704,23.59983775659029,0 91.73164746791831,23.59987330158404,0 91.73163795318148,23.59989149335988,0 91.73161877384287,23.5999281641836,0 91.73159928039618,23.59994780166841,0 91.73157970632921,23.59997630143588,0 91.7315599711221,23.60000503653742,0 91.7315500409206,23.60002430686274,0 91.73153500663682,23.60006965429707,0 91.7315198664874,23.60009721722534,0 91.73150955030098,23.60014336147384,0 91.73148916898531,23.60016184437812,0 91.73146878982655,23.60017116259798,0 91.73144823152064,23.6001897833337,0 91.73142772512307,23.60019917193711,0 91.73140680788673,23.60022730315706,0 91.73138573392663,23.60025564480853,0 91.73137525715805,23.6002649075987,0 91.7313444006619,23.60026904638823,0 91.73130744864481,23.60030243906269,0 91.73120675008936,23.60036490584555,0 91.73113505392487,23.60053833575867,0 91.73112777151096,23.60057651564537,0 91.73110906487776,23.60062593067438,0 91.73108445325154,23.60067894623139,0 91.73107138134819,23.60071829447727,0 91.73105745276442,23.60076964154956,0 91.7310438961013,23.60081209587665,0 91.73103575355411,23.60085470279663,0 91.73103348094632,23.60089354472567,0 91.73101019159884,23.60091204415203,0 91.73098798595672,23.60091161463468,0 91.73096578377685,23.60091118476683,0 91.7309373964397,23.60092012635166,0 91.73090883027898,23.60093015618128,0 91.73089126254915,23.60094098877093,0 91.73086321684822,23.60094213167916,0 91.73083042782856,23.60093683438615,0 91.73080318902463,23.60093215884261,0 91.73078772902767,23.60091940831504,0 91.73076059419509,23.60091475940003,0 91.7307452420897,23.60090206907923,0 91.73071375023154,23.60088665660838,0 91.73068880097136,23.60086205610346,0 91.73067277056995,23.60085882808614,0 91.73064869567544,23.60083048956092,0 91.73062877696607,23.60081481163182,0 91.73061029203645,23.60078786514557,0 91.73059344150504,23.60074912608094,0 91.73057304651837,23.60069808156779,0 91.73055231294715,23.60065458015691,0 91.73053532673784,23.60062460107689,0 91.73051848872346,23.60059488394858,0 91.73049616856117,23.60056703946816,0 91.73048102539126,23.60052766466734,0 91.73047151960594,23.60049125550488,0 91.73045268826709,23.60045080359211,0 91.73043582106122,23.6004297743788,0 91.7304218825759,23.60039311402076,0 91.73040243787437,23.60038815531102,0 91.73038879433815,23.60035199560809,0 91.730362150158,23.60033195017307,0 91.7303425137553,23.60032888843178,0 91.73032708556381,23.60030238911326,0 91.73029878287154,23.6002906779386,0 91.7302757354459,23.60027863529396,0 91.73025295627119,23.60026593101917,0 91.73023783382706,23.60024064211247,0 91.73022585145975,23.60020131582389,0 91.73022316434215,23.60016527217093,0 91.73020900001144,23.60013522938629,0 91.7301929402275,23.60011569820511,0 91.73018196793518,23.60009600796932,0 91.73017291590998,23.60006687228847,0 91.73016649888518,23.60004897883227,0 91.73025148723997,23.60017407103148,0 
					</coordinates>
				</LinearRing>
			</outerBoundaryIs>
		</Polygon>
		<atom:link rel="app" href="https://www.google.com/earth/about/versions/#earth-pro" title="Google Earth Pro 7.3.7.1155"></atom:link>
	</Placemark>
</Document>
</kml>
