<?xml version="1.0" encoding="UTF-8"?>
<kml xmlns="http://www.opengis.net/kml/2.2" xmlns:gx="http://www.google.com/kml/ext/2.2" xmlns:kml="http://www.opengis.net/kml/2.2" xmlns:atom="http://www.w3.org/2005/Atom">
<Document>
	<name>1778486473005.kml</name>
	<StyleMap id="msn_ylw-pushpin">
		<Pair>
			<key>normal</key>
			<styleUrl>#sn_ylw-pushpin</styleUrl>
		</Pair>
		<Pair>
			<key>highlight</key>
			<styleUrl>#sh_ylw-pushpin</styleUrl>
		</Pair>
	</StyleMap>
	<Style id="sh_ylw-pushpin">
		<IconStyle>
			<scale>1.3</scale>
			<Icon>
				<href>http://maps.google.com/mapfiles/kml/pushpin/ylw-pushpin.png</href>
			</Icon>
			<hotSpot x="20" y="2" xunits="pixels" yunits="pixels"/>
		</IconStyle>
		<BalloonStyle>
		</BalloonStyle>
		<PolyStyle>
			<fill>0</fill>
		</PolyStyle>
	</Style>
	<Style id="sn_ylw-pushpin">
		<IconStyle>
			<scale>1.1</scale>
			<Icon>
				<href>http://maps.google.com/mapfiles/kml/pushpin/ylw-pushpin.png</href>
			</Icon>
			<hotSpot x="20" y="2" xunits="pixels" yunits="pixels"/>
		</IconStyle>
		<BalloonStyle>
		</BalloonStyle>
		<PolyStyle>
			<fill>0</fill>
		</PolyStyle>
	</Style>
	<Placemark>
		<name>1778486473005</name>
		<styleUrl>#msn_ylw-pushpin</styleUrl>
		<Polygon>
			<tessellate>1</tessellate>
			<outerBoundaryIs>
				<LinearRing>
					<coordinates>
						92.06427937642569,23.99886880546121,0 92.06407329787849,23.99844513734956,0 92.06425032203947,23.99813054240784,0 92.06443103862537,23.99800371542138,0 92.06433060113872,23.99776471398255,0 92.06414322046638,23.9974618455238,0 92.06414187353225,23.99716542373335,0 92.0642269993813,23.99698184298919,0 92.0639857682247,23.99658378461638,0 92.06415693895417,23.99641257420005,0 92.06426008143424,23.9962455727249,0 92.06436445665695,23.99596021290916,0 92.06422014656323,23.99584802711489,0 92.06412689687355,23.99553653842591,0 92.06421537662278,23.99535938720228,0 92.06435446350288,23.99513887845933,0 92.06446855474985,23.99453632335221,0 92.06418834558977,23.99446608797032,0 92.06373871867559,23.99443468283944,0 92.0632865499152,23.99413282555213,0 92.06273100092359,23.9941751087556,0 92.06244393161491,23.99400896279656,0 92.06249276346979,23.99366335607445,0 92.06280965474549,23.9934004403306,0 92.06312144114587,23.99324637793204,0 92.06348846423811,23.99295539162761,0 92.06358753261621,23.99264721438074,0 92.06363385484917,23.99235034494459,0 92.06377990769195,23.99234959596852,0 92.06405322390745,23.99239864971574,0 92.0642734529676,23.99254690440911,0 92.06445492170036,23.99259515922441,0 92.06471411992692,23.9927400715273,0 92.06493350738893,23.99296018863503,0 92.06505343571487,23.99272085102542,0 92.06525581685128,23.99250700227818,0 92.06535855003983,23.99228323736428,0 92.06546863146825,23.99197344254685,0 92.06552582914154,23.99167230067025,0 92.06573642870555,23.99145947748143,0 92.06582619463289,23.99138321790299,0 92.06603620680266,23.99148601865778,0 92.06636905162617,23.99151561423671,0 92.06665619139208,23.99164973776889,0 92.06698264965794,23.99190641805648,0 92.06708919029965,23.99220781655343,0 92.06714916105371,23.99249291822552,0 92.0670433660772,23.9926532465714,0 92.06691673836133,23.99276078350213,0 92.06695028801295,23.99287039440224,0 92.06668795131669,23.99331403047163,0 92.06658169896882,23.99366629503983,0 92.06636803458511,23.99381552918571,0 92.06611689736857,23.99380700628769,0 92.06588568726059,23.99424043135402,0 92.06549259927523,23.99447442165964,0 92.06563772621921,23.99477887146352,0 92.06540925255146,23.99518866026515,0 92.06542367252405,23.99558583573861,0 92.06524216908005,23.99593652317566,0 92.06530647635559,23.99631303042332,0 92.06523283855445,23.99646375616727,0 92.06515299197088,23.99701260392289,0 92.06520200589124,23.99720804850737,0 92.06523667541948,23.99767242880231,0 92.06574281932734,23.9978924714448,0 92.06558482579038,23.99812888833261,0 92.06530231319829,23.99842427826782,0 92.06531927372779,23.99861357296777,0 92.0651099305078,23.99869816926515,0 92.06510130114717,23.99897791953825,0 92.06545298657355,23.99938287966446,0 92.06445826479437,23.99922893365474,0 92.06427937642569,23.99886880546121,0 
					</coordinates>
				</LinearRing>
			</outerBoundaryIs>
		</Polygon>
		<atom:link rel="app" href="https://www.google.com/earth/about/versions/#earth-pro" title="Google Earth Pro 7.3.7.1155"></atom:link>
	</Placemark>
</Document>
</kml>
