<?xml version="1.0" encoding="UTF-8"?>
<kml xmlns="http://www.opengis.net/kml/2.2" xmlns:gx="http://www.google.com/kml/ext/2.2" xmlns:kml="http://www.opengis.net/kml/2.2" xmlns:atom="http://www.w3.org/2005/Atom">
<Document>
	<name>1778561629961.kml</name>
	<StyleMap id="msn_ylw-pushpin">
		<Pair>
			<key>normal</key>
			<styleUrl>#sn_ylw-pushpin</styleUrl>
		</Pair>
		<Pair>
			<key>highlight</key>
			<styleUrl>#sh_ylw-pushpin</styleUrl>
		</Pair>
	</StyleMap>
	<Style id="sh_ylw-pushpin">
		<IconStyle>
			<scale>1.3</scale>
			<Icon>
				<href>http://maps.google.com/mapfiles/kml/pushpin/ylw-pushpin.png</href>
			</Icon>
			<hotSpot x="20" y="2" xunits="pixels" yunits="pixels"/>
		</IconStyle>
		<BalloonStyle>
		</BalloonStyle>
		<LineStyle>
			<color>ffff55ff</color>
			<width>4.3</width>
		</LineStyle>
		<PolyStyle>
			<color>4dffffff</color>
		</PolyStyle>
	</Style>
	<Style id="sn_ylw-pushpin">
		<IconStyle>
			<scale>1.1</scale>
			<Icon>
				<href>http://maps.google.com/mapfiles/kml/pushpin/ylw-pushpin.png</href>
			</Icon>
			<hotSpot x="20" y="2" xunits="pixels" yunits="pixels"/>
		</IconStyle>
		<BalloonStyle>
		</BalloonStyle>
		<LineStyle>
			<color>ffff55ff</color>
			<width>4.3</width>
		</LineStyle>
		<PolyStyle>
			<color>4dffffff</color>
		</PolyStyle>
	</Style>
	<Placemark>
		<name>1778561629961</name>
		<styleUrl>#msn_ylw-pushpin</styleUrl>
		<Polygon>
			<tessellate>1</tessellate>
			<outerBoundaryIs>
				<LinearRing>
					<coordinates>
						91.56500934668972,23.96940479807856,0 91.56499722888476,23.96920526121118,0 91.56493230074221,23.9691246226047,0 91.56487909356348,23.96895057367259,0 91.56488556178911,23.96879016895976,0 91.56494891644768,23.96864486112266,0 91.56516092361005,23.96828784837383,0 91.56519232323996,23.96814074616275,0 91.56523697461587,23.96799745824812,0 91.56534004152728,23.96792613301849,0 91.56537569867507,23.96789264673194,0 91.56545174222013,23.96789151309622,0 91.56554488618539,23.96797247056207,0 91.56598166261122,23.96819189343895,0 91.56609671785887,23.9682603832036,0 91.56615863836879,23.96833536498376,0 91.56631546500543,23.96845568430351,0 91.5663551818311,23.96850594123556,0 91.56615186854197,23.96864952201263,0 91.56597760551128,23.96878307027221,0 91.56582022535702,23.96893816358568,0 91.5656787123427,23.96902430435606,0 91.56556703021616,23.96898703389892,0 91.56551860940368,23.96899808997404,0 91.56531989362433,23.96908187667769,0 91.56529010856727,23.96922288586433,0 91.56511113349339,23.96948298654102,0 91.56500934668972,23.96940479807856,0 
					</coordinates>
				</LinearRing>
			</outerBoundaryIs>
		</Polygon>
		<atom:link rel="app" href="https://www.google.com/earth/about/versions/#earth-pro" title="Google Earth Pro 7.3.7.1155"></atom:link>
	</Placemark>
</Document>
</kml>
