<?xml version="1.0" encoding="UTF-8"?>
<kml xmlns="http://www.opengis.net/kml/2.2" xmlns:gx="http://www.google.com/kml/ext/2.2" xmlns:kml="http://www.opengis.net/kml/2.2" xmlns:atom="http://www.w3.org/2005/Atom">
<Document>
	<name>1778481144851.kml</name>
	<StyleMap id="msn_ylw-pushpin">
		<Pair>
			<key>normal</key>
			<styleUrl>#sn_ylw-pushpin</styleUrl>
		</Pair>
		<Pair>
			<key>highlight</key>
			<styleUrl>#sh_ylw-pushpin</styleUrl>
		</Pair>
	</StyleMap>
	<Style id="sh_ylw-pushpin">
		<IconStyle>
			<scale>1.3</scale>
			<Icon>
				<href>http://maps.google.com/mapfiles/kml/pushpin/ylw-pushpin.png</href>
			</Icon>
			<hotSpot x="20" y="2" xunits="pixels" yunits="pixels"/>
		</IconStyle>
		<BalloonStyle>
		</BalloonStyle>
		<PolyStyle>
			<fill>0</fill>
		</PolyStyle>
	</Style>
	<Style id="sn_ylw-pushpin">
		<IconStyle>
			<scale>1.1</scale>
			<Icon>
				<href>http://maps.google.com/mapfiles/kml/pushpin/ylw-pushpin.png</href>
			</Icon>
			<hotSpot x="20" y="2" xunits="pixels" yunits="pixels"/>
		</IconStyle>
		<BalloonStyle>
		</BalloonStyle>
		<PolyStyle>
			<fill>0</fill>
		</PolyStyle>
	</Style>
	<Placemark>
		<name>1778481144851</name>
		<styleUrl>#msn_ylw-pushpin</styleUrl>
		<Polygon>
			<tessellate>1</tessellate>
			<outerBoundaryIs>
				<LinearRing>
					<coordinates>
						91.72025223949449,23.55960185846541,0 91.7202579817944,23.55961795772038,0 91.7202642012579,23.55963959662046,0 91.72027485923637,23.55966106462824,0 91.72028563892579,23.55968297724822,0 91.72030874345788,23.55969290614446,0 91.72032304234079,23.55970341081505,0 91.72033790145953,23.55971962973883,0 91.72035670108619,23.55972990769499,0 91.72037553650189,23.55974020529099,0 91.72039884965223,23.5597502554569,0 91.72040946055577,23.5597669298987,0 91.72042574063231,23.55979494169789,0 91.72044091252569,23.55981148953423,0 91.7204567467266,23.55983392258442,0 91.72048170456495,23.55985622949811,0 91.72049199136505,23.55986759881094,0 91.72051128007156,23.55987840703471,0 91.72053060838815,23.559889237544,0 91.72055447039719,23.55989979444764,0 91.72057425609411,23.55991543300287,0 91.7205880846445,23.55991914828169,0 91.72060556327884,23.55991614118306,0 91.72062301578495,23.55991313867762,0 91.7206404427782,23.55991014283373,0 91.72065499925711,23.55991981088798,0 91.72065877406925,23.55994972165778,0 91.7206610510415,23.55996776278412,0 91.72065971410434,23.55999269760183,0 91.72065397921878,23.56001858703218,0 91.72064305083882,23.56003933571759,0 91.72062688489758,23.56005480954266,0 91.72061054175228,23.56006994581217,0 91.72058879455463,23.56007913348602,0 91.72056765964784,23.56009439789065,0 91.72055000924519,23.56010189427775,0 91.72053285753533,23.56011500319554,0 91.72051565532156,23.56012815064528,0 91.7204939597344,23.56014586633674,0 91.72048211063542,23.56016932078802,0 91.72047496465601,23.56019305574591,0 91.72046839036841,23.56022304343262,0 91.72047070966492,23.56024724537937,0 91.72046822707942,23.56027130256078,0 91.72046624725165,23.56030128896651,0 91.72046425600772,23.56033144447093,0 91.72046648019479,23.56035565060295,0 91.72045885900279,23.56037881817384,0 91.72045120713021,23.56040207870357,0 91.72043886983614,23.5604262072512,0 91.72043620600276,23.56045076234486,0 91.72042816251168,23.56046930763161,0 91.72043030507724,23.56049401429875,0 91.72042275253342,23.56051892330731,0 91.72041062587402,23.56054922747319,0 91.72039708826483,23.56056197689455,0 91.72037865772622,23.56057488943693,0 91.72035531449838,23.56058796401211,0 91.72032704208829,23.56060122426129,0 91.72031378463755,23.56062026571958,0 91.72029916851044,23.56062087204837,0 91.72027524094767,23.56062814448766,0 91.72026104027724,23.56063502258407,0 91.7202419344579,23.5606421133762,0 91.72021791519205,23.56064944999434,0 91.72019400278407,23.56065776740494,0 91.72017939312063,23.56065894071084,0 91.72015985252705,23.56066015782638,0 91.7201357598062,23.56066785919882,0 91.72011129173418,23.5606693854462,0 91.72008680791185,23.56067091234157,0 91.7200675206378,23.56067832843982,0 91.72005280752683,23.56067924706629,0 91.72003352165241,23.56068708366672,0 91.7200144291777,23.56070065458351,0 91.71999502059482,23.56070808645145,0 91.71997065941707,23.56071590683776,0 91.71995140603507,23.5607293175533,0 91.71992181017227,23.56073158704809,0 91.71989709973408,23.56073316760915,0 91.71986213468931,23.56072367464413,0 91.7198471507852,23.56071897411007,0 91.71982707904644,23.56070882188776,0 91.71980687866048,23.56069277013973,0 91.71978684176534,23.56068231599745,0 91.71977683306031,23.56067709417187,0 91.71975683504554,23.56066666010182,0 91.71973686307651,23.56065623982548,0 91.71971691703237,23.56064583299987,0 91.71969708288933,23.56064099331062,0 91.71966743745961,23.56064145781752,0 91.71963771593366,23.56063612334577,0 91.71961296393437,23.56063106903745,0 91.71959815625468,23.56063171124669,0 91.71956852846517,23.56063299743851,0 91.71954382633156,23.56063406891743,0 91.71951910245265,23.56063378635332,0 91.71949437822383,23.56063226414602,0 91.71946967007142,23.56063074273028,0 91.71944494662634,23.56063679295199,0 91.71942514194652,23.56064304301843,0 91.71938546775411,23.56065556267051,0 91.71935570950021,23.56066107280651,0 91.71933590104246,23.56066457197542,0 91.71932098556371,23.56066991443987,0 91.71930109431284,23.56067546140564,0 91.71928133039242,23.56067393901899,0 91.71926592194578,23.56070065618952,0 91.71925562329916,23.56071941552483,0 91.71924018329725,23.56074440413737,0 91.71921981671562,23.56075957063172,0 91.71919957933594,23.56076774712262,0 91.71917922291729,23.5607809574372,0 91.71915430076928,23.56078313606458,0 91.71912939405989,23.56078531346908,0 91.71910942048459,23.56078858036599,0 91.71908426122219,23.560794153528,0 91.71906938901189,23.56079252286937,0 91.71904916907144,23.56079864216154,0 91.71902397342579,23.56080422252123,0 91.71899947646797,23.56079881152849,0 91.71897514178922,23.56079236573015,0 91.71895087088338,23.5607859371304,0 91.71893149999848,23.56078080673257,0 91.7188967106717,23.5607837983467,0 91.71887234716125,23.56077945374482,0 91.71884249945906,23.56078303004967,0 91.7188226816571,23.56078604231148,0 91.71880838079565,23.56078148838697,0 91.71878935460522,23.56077543019466,0 91.71877037546317,23.56076938663342,0 91.71874023326782,23.56077928396925,0 91.71872029974767,23.56078351361786,0 91.71870036182571,23.56078774462249,0 91.71867191830434,23.56077971392829,0 91.71864827741021,23.56077308534352,0 91.71862941060746,23.56076779629241,0 91.7186105848597,23.56076251817544,0 91.71859179997925,23.56075725160777,0 91.71857195984447,23.56076149525478,0 91.7185522818253,23.56076488158107,0 91.71852441475448,23.5607561274552,0 91.71850372390625,23.56076837764553,0 91.71848025953253,23.56076265849468,0 91.71845566992425,23.56076618989838,0 91.71843226348979,23.56076060575041,0 91.7184077039043,23.56076413366372,0 91.71838914642798,23.56075920042933,0 91.71836976230276,23.56076168132833,0 91.71834687336141,23.56075455886877,0 91.71831715502894,23.56076305591219,0 91.71829756659719,23.56076656115193,0 91.71827683774107,23.56077831676466,0 91.71825262321038,23.56078063697674,0 91.71822531167554,23.56077236624332,0 91.71819383868173,23.56076171771053,0 91.71817787304587,23.56074116303446,0 91.71816546397267,23.56072942650339,0 91.71814364755967,23.56071675436463,0 91.71811244647412,23.56070332084718,0 91.71810426593407,23.56069444602271,0 91.7180866138028,23.56068496939429,0 91.71806983946692,23.56066912290395,0 91.71805396825525,23.56064696904493,0 91.71803817258616,23.56062492187339,0 91.71802159653167,23.56060928799744,0 91.71800594469728,23.56058742317082,0 91.71798576169101,23.56056513910285,0 91.71797139839597,23.56056527671021,0 91.71795224560191,23.56056546021484,0 91.71792830268342,23.56056568962519,0 91.7179101152868,23.5605594698552,0 91.71790442852522,23.560534025304,0 91.71791303807665,23.56050863136876,0 91.71792634165936,23.56048335701476,0 91.71794424662143,23.56045840623515,0 91.71795166942033,23.56043991342347,0 91.71796466166604,23.5604153607972,0 91.7179861035661,23.56039703439475,0 91.71800247876781,23.56037968795562,0 91.71801885348148,23.56036223546284,0 91.71803435997141,23.56035081678582,0 91.71805057895813,23.56033366130341,0 91.71807133852147,23.56031678557701,0 91.71807906780876,23.56029338194869,0 91.71809220208107,23.56026413962717,0 91.71809620493292,23.56023445045839,0 91.71810097803872,23.56019904804817,0 91.71810031437292,23.56016979372112,0 91.71809953507369,23.56014106659499,0 91.71809880363477,23.56011235872565,0 91.71809286495419,23.56008915513209,0 91.71808695347993,23.56006605846278,0 91.7180855839231,23.56004314518363,0 91.71808500627313,23.56001466863368,0 91.71808813948209,23.5599887232905,0 91.71808989512516,23.55997355455508,0 91.71809222952749,23.55995338885368,0 91.71809641485521,23.55991790804898,0 91.71809701757712,23.55991283814938,0 91.71810122243785,23.55987747030068,0 91.71810867239995,23.55985235049976,0 91.71811045555309,23.55983732413047,0 91.71811321828761,23.5598129224139,0 91.71812040958233,23.55978863417861,0 91.71812259427811,23.55976926665356,0 91.71813804384074,23.5597499976001,0 91.7181490272355,23.55973077785757,0 91.71816050372573,23.55970683304661,0 91.71817246325814,23.55967819296026,0 91.71817301214315,23.55967335312887,0 91.71817988371286,23.55964995336435,0 91.71818614161411,23.55963157955788,0 91.7182007211584,23.55961771402482,0 91.71822405599654,23.55960377294681,0 91.71841299733956,23.5594811438757,0 91.71843580381062,23.55946769022287,0 91.71844954156479,23.55945872448214,0 91.71846755697663,23.55944987070177,0 91.71848515315595,23.55944563129086,0 91.71850807699214,23.55942812223074,0 91.71852622588916,23.55941532454884,0 91.71853973062929,23.55940685723422,0 91.71856175893299,23.55939870552528,0 91.7185749005199,23.559394705879,0 91.718592672016,23.55938623452471,0 91.71861042186632,23.55937777371818,0 91.7186281507215,23.55936932292621,0 91.71865012771896,23.55936100500243,0 91.71866781225005,23.55935257412235,0 91.7186898355577,23.5593406882895,0 91.71871165427329,23.55933278483685,0 91.718729226964,23.55932458853542,0 91.71874676242452,23.55931648186928,0 91.71876427447629,23.55930841361549,0 91.71877807735616,23.55929116474805,0 91.71878761618426,23.55927373601334,0 91.71878896797506,23.55925138798189,0 91.7187900530644,23.55923353664094,0 91.71879140463925,23.55921130060507,0 91.71879275092306,23.55918915119516,0 91.71878963090808,23.55917129585166,0 91.71878684753483,23.55914884368112,0 91.71877978448146,23.55913306651121,0 91.71877733913445,23.55911250249645,0 91.71877905342359,23.55909226433565,0 91.71877696174285,23.55906727807353,0 91.71877854486412,23.55904780871928,0 91.7187849971117,23.55901908196404,0 91.71880546387735,23.55902065110601,0 91.7188225905997,23.55901225758852,0 91.71883933384512,23.55900869030371,0 91.71885994311019,23.5590096397536,0 91.71887682533041,23.55900534787605,0 91.71890197127054,23.55900125929326,0 91.71891883299919,23.55899692222825,0 91.718939813666,23.55899271401023,0 91.71896077919679,23.55898850900876,0 91.71898201342144,23.55897948454237,0 91.71900369100297,23.55896431136128,0 91.71902488160329,23.55895495214187,0 91.71904198154219,23.55894501336175,0 91.71905875017208,23.55894022570806,0 91.71908373155871,23.55893561595592,0 91.71910045837497,23.55893083886247,0 91.71912539148663,23.55892623871709,0 91.71914592937074,23.55892693915539,0 91.71915844181298,23.55892257495733,0 91.71917484975643,23.5589233699905,0 91.71920357516819,23.55892486254203,0 91.71921178537335,23.55892531563957,0 91.71923247915436,23.55892148601074,0 91.71924509971204,23.55891225458148,0 91.7192615160638,23.55891315614324,0 91.71928205039279,23.55891428378886,0 91.71929459834595,23.55890532553881,0 91.71931529127843,23.55889750921926,0 91.71933194958297,23.55888459189844,0 91.71935258309647,23.55887680177142,0 91.71936911753129,23.55886818884064,0 91.71938978934128,23.5588545382487,0 91.7194062613123,23.5588456511591,0 91.71942266348572,23.55884168710947,0 91.71943907881993,23.55883308188557,0 91.71944733314531,23.55881489715954,0 91.71945558968861,23.558786777952,0 91.71946784453766,23.55875871898237,0 91.71947596988134,23.55873579494243,0 91.71948808667747,23.55871822116366,0 91.71949612720739,23.55870045507903,0 91.71950011465432,23.55868250293033,0 91.71950006391786,23.5586598507082,0 91.71949202673655,23.55864131159698,0 91.71948801060056,23.55861760532161,0 91.71947608097167,23.55859319212776,0 91.71946422487837,23.55857363043667,0 91.71945239883382,23.55856350325209,0 91.71947216670469,23.55855200168295,0 91.7194997889268,23.55854173080656,0 91.71953912425164,23.55851884642775,0 91.71955868715229,23.55850592724731,0 91.71956650431788,23.55850164725705,0 91.71978972778976,23.55846949566348,0 91.71997622977301,23.55846099495411,0 91.7200879488542,23.55839792242104,0 91.72016646633432,23.5583256154801,0 91.72017034844535,23.55816030194166,0 91.72026216362505,23.55810081545891,0 91.72047758142544,23.55806446528852,0 91.72054665535897,23.55816478124878,0 91.72069903805392,23.55821700261653,0 91.72091061988101,23.55845501652203,0 91.72099993442158,23.55863437089464,0 91.72098547405743,23.5587854377974,0 91.72094142133692,23.55893254597464,0 91.72077445621531,23.55916977288778,0 91.72027621866729,23.5595731471347,0 91.72025223949449,23.55960185846541,0 
					</coordinates>
				</LinearRing>
			</outerBoundaryIs>
		</Polygon>
		<atom:link rel="app" href="https://www.google.com/earth/about/versions/#earth-pro" title="Google Earth Pro 7.3.7.1155"></atom:link>
	</Placemark>
</Document>
</kml>
