<?xml version="1.0" encoding="UTF-8"?>
<kml xmlns="http://www.opengis.net/kml/2.2" xmlns:gx="http://www.google.com/kml/ext/2.2" xmlns:kml="http://www.opengis.net/kml/2.2" xmlns:atom="http://www.w3.org/2005/Atom">
<Document>
	<name>1778222070861.kml</name>
	<StyleMap id="msn_ylw-pushpin">
		<Pair>
			<key>normal</key>
			<styleUrl>#sn_ylw-pushpin</styleUrl>
		</Pair>
		<Pair>
			<key>highlight</key>
			<styleUrl>#sh_ylw-pushpin</styleUrl>
		</Pair>
	</StyleMap>
	<Style id="sh_ylw-pushpin">
		<IconStyle>
			<scale>1.3</scale>
			<Icon>
				<href>http://maps.google.com/mapfiles/kml/pushpin/ylw-pushpin.png</href>
			</Icon>
			<hotSpot x="20" y="2" xunits="pixels" yunits="pixels"/>
		</IconStyle>
		<BalloonStyle>
		</BalloonStyle>
		<PolyStyle>
			<fill>0</fill>
		</PolyStyle>
	</Style>
	<Style id="sn_ylw-pushpin">
		<IconStyle>
			<scale>1.1</scale>
			<Icon>
				<href>http://maps.google.com/mapfiles/kml/pushpin/ylw-pushpin.png</href>
			</Icon>
			<hotSpot x="20" y="2" xunits="pixels" yunits="pixels"/>
		</IconStyle>
		<BalloonStyle>
		</BalloonStyle>
		<PolyStyle>
			<fill>0</fill>
		</PolyStyle>
	</Style>
	<Placemark>
		<name>1778222070861</name>
		<styleUrl>#msn_ylw-pushpin</styleUrl>
		<Polygon>
			<tessellate>1</tessellate>
			<outerBoundaryIs>
				<LinearRing>
					<coordinates>
						91.79912728910114,23.11146195658089,0 91.7990564795796,23.11128810004462,0 91.79909320973988,23.11109956133172,0 91.79913111724126,23.11102724497037,0 91.7991813586905,23.11091641244284,0 91.79923667674447,23.11086078766975,0 91.79934063115907,23.11069971334122,0 91.79937410319462,23.11061887449473,0 91.79950925229825,23.11055910797725,0 91.79961955846206,23.11049587861194,0 91.79985144358935,23.11047100871783,0 91.79998170299181,23.11054890084079,0 91.80023921722015,23.11054671867925,0 91.80032948726344,23.11059925687531,0 91.8004358097154,23.11078240311592,0 91.80058066946356,23.11087844660329,0 91.80058695646423,23.11088920961506,0 91.80059726732293,23.11091141177704,0 91.80059935689,23.11092641739027,0 91.80060423121839,23.110943974153,0 91.80060821774909,23.11095534546788,0 91.80061541571803,23.11097222009676,0 91.8006235009689,23.11099526645386,0 91.80063037809172,23.11100934851986,0 91.80063967680194,23.11102292929274,0 91.80064424850275,23.11103775790865,0 91.80064645662684,23.11105328112641,0 91.8006482334289,23.1110657716788,0 91.8006452050587,23.11107954141941,0 91.80064654209255,23.11108900825372,0 91.80064636119801,23.11110548617332,0 91.80065148339271,23.11112401845348,0 91.80065527181641,23.11113301204146,0 91.80065709355264,23.11114589486631,0 91.80066182864313,23.11116145308556,0 91.8006665920269,23.11117710440531,0 91.80067091412405,23.11118956294865,0 91.8006747835359,23.11119878137195,0 91.80067961960962,23.11121465587939,0 91.80068400308673,23.11122729115793,0 91.80068840744413,23.11123998633878,0 91.80069530885558,23.11125206430462,0 91.8006971295212,23.1112650838306,0 91.80069893516307,23.11127809186719,0 91.80070131329755,23.11129478881979,0 91.80070281172118,23.11130506341502,0 91.80070582671183,23.11132573722516,0 91.80071091443853,23.11134251234993,0 91.8007155198995,23.11135589139809,0 91.8007201481099,23.11136933635857,0 91.80071707891037,23.11138463495552,0 91.80071347301815,23.11139647387713,0 91.80071554576875,23.11141073664554,0 91.80071762979898,23.11142507768295,0 91.80072232717276,23.11143888217035,0 91.80072704841128,23.11145275626106,0 91.80072920182137,23.11146739649495,0 91.80073686515129,23.11148171069943,0 91.80073907326766,23.11149656202482,0 91.80074680499628,23.11151103249155,0 91.80075457794089,23.11152558001892,0 91.80075799792958,23.11154825987913,0 91.80076032041136,23.11163875265216,0 91.80040917610172,23.11184839495218,0 91.80030235641746,23.11198366313344,0 91.80028166692986,23.1121256264984,0 91.80021211604804,23.11220452855673,0 91.80009702045683,23.11221503456899,0 91.79992741594572,23.11199361326942,0 91.79969638366644,23.11188075526984,0 91.79961738672131,23.111739147987,0 91.79947673861334,23.11164695046734,0 91.79946108483338,23.11163147955271,0 91.79944748322758,23.11162498769165,0 91.79942614117103,23.11161027813906,0 91.7994153784101,23.11160464288222,0 91.79939424052259,23.11159006843197,0 91.79938721839778,23.11157503553385,0 91.79938296315534,23.11156063571637,0 91.79938175425301,23.11154355718769,0 91.79936909232674,23.11153096982764,0 91.79935888492689,23.11152225523851,0 91.79934923210511,23.11150757059946,0 91.7993361200392,23.11149966235833,0 91.79932545799171,23.11149531581133,0 91.79931447372469,23.11149424380789,0 91.79930349854361,23.11149317276482,0 91.79928740987992,23.11148830640875,0 91.79927409155205,23.11148371675311,0 91.79926043081782,23.1114823871913,0 91.79924443547553,23.11147754629531,0 91.79923664278556,23.11147350934224,0 91.79922031613253,23.1114719242427,0 91.79920752065789,23.11146414077711,0 91.79919666968385,23.11146309003054,0 91.79918527107708,23.11146763928734,0 91.79912728910114,23.11146195658089,0 
					</coordinates>
				</LinearRing>
			</outerBoundaryIs>
		</Polygon>
		<atom:link rel="app" href="https://www.google.com/earth/about/versions/#earth-pro" title="Google Earth Pro 7.3.7.1155"></atom:link>
	</Placemark>
</Document>
</kml>
