<?xml version="1.0" encoding="UTF-8"?>
<kml xmlns="http://www.opengis.net/kml/2.2" xmlns:gx="http://www.google.com/kml/ext/2.2" xmlns:kml="http://www.opengis.net/kml/2.2" xmlns:atom="http://www.w3.org/2005/Atom">
<Document>
	<name>1778063811220.kml</name>
	<StyleMap id="msn_ylw-pushpin">
		<Pair>
			<key>normal</key>
			<styleUrl>#sn_ylw-pushpin</styleUrl>
		</Pair>
		<Pair>
			<key>highlight</key>
			<styleUrl>#sh_ylw-pushpin</styleUrl>
		</Pair>
	</StyleMap>
	<Style id="sh_ylw-pushpin">
		<IconStyle>
			<scale>1.3</scale>
			<Icon>
				<href>http://maps.google.com/mapfiles/kml/pushpin/ylw-pushpin.png</href>
			</Icon>
			<hotSpot x="20" y="2" xunits="pixels" yunits="pixels"/>
		</IconStyle>
		<BalloonStyle>
		</BalloonStyle>
		<PolyStyle>
			<fill>0</fill>
		</PolyStyle>
	</Style>
	<Style id="sn_ylw-pushpin">
		<IconStyle>
			<scale>1.1</scale>
			<Icon>
				<href>http://maps.google.com/mapfiles/kml/pushpin/ylw-pushpin.png</href>
			</Icon>
			<hotSpot x="20" y="2" xunits="pixels" yunits="pixels"/>
		</IconStyle>
		<BalloonStyle>
		</BalloonStyle>
		<PolyStyle>
			<fill>0</fill>
		</PolyStyle>
	</Style>
	<Placemark>
		<name>1778063811220</name>
		<styleUrl>#msn_ylw-pushpin</styleUrl>
		<Polygon>
			<tessellate>1</tessellate>
			<outerBoundaryIs>
				<LinearRing>
					<coordinates>
						91.69467533358352,23.65918805167969,0 91.69468512285395,23.65907637474971,0 91.69411250220642,23.6586035679369,0 91.69401508788944,23.65833752779872,0 91.69395450939263,23.65799292833475,0 91.69386398296498,23.65765163891228,0 91.69365825211408,23.65741634039702,0 91.69337365512459,23.65721447738795,0 91.6930305630751,23.65714519352363,0 91.69308598858647,23.65700369739932,0 91.69311299768263,23.65677325249843,0 91.69324453642788,23.65655298077574,0 91.6934722121687,23.65634084616083,0 91.69391819271732,23.65605841530809,0 91.69413479902865,23.65599530622537,0 91.69448047648011,23.65604192364085,0 91.69470368058539,23.65615003116916,0 91.69487539995259,23.6560772514559,0 91.69505366195776,23.65606448582182,0 91.69532068005947,23.65608894185101,0 91.69562433975725,23.65607567751757,0 91.69575577648683,23.65583069731244,0 91.69596533174177,23.65589689366985,0 91.69632301980954,23.65625500531202,0 91.69629545221881,23.65646285786049,0 91.69636029577258,23.65659751724957,0 91.69656841214584,23.65671367588083,0 91.69670659528181,23.65694944161912,0 91.69671572415402,23.65740445008137,0 91.69635877220031,23.65780520771106,0 91.69624092182865,23.65823194307756,0 91.69634690965364,23.65851058441771,0 91.69650464796594,23.65897203186264,0 91.69648055227086,23.65933880285518,0 91.69634067342459,23.65969290146258,0 91.69589101328391,23.65976640240224,0 91.69565941099168,23.65967280690644,0 91.69524734336419,23.65971308334456,0 91.69467533358352,23.65918805167969,0 
					</coordinates>
				</LinearRing>
			</outerBoundaryIs>
		</Polygon>
		<atom:link rel="app" href="https://www.google.com/earth/about/versions/#earth-pro" title="Google Earth Pro 7.3.7.1155"></atom:link>
	</Placemark>
</Document>
</kml>
