<?xml version="1.0" encoding="UTF-8"?>
<kml xmlns="http://www.opengis.net/kml/2.2" xmlns:gx="http://www.google.com/kml/ext/2.2" xmlns:kml="http://www.opengis.net/kml/2.2" xmlns:atom="http://www.w3.org/2005/Atom">
<Document>
	<name>AR Bamboo plant. over 5.0 ha at Kachucherra Beat Part - II-18_49_57.kml</name>
	<StyleMap id="msn_ylw-pushpin">
		<Pair>
			<key>normal</key>
			<styleUrl>#sn_ylw-pushpin</styleUrl>
		</Pair>
		<Pair>
			<key>highlight</key>
			<styleUrl>#sh_ylw-pushpin</styleUrl>
		</Pair>
	</StyleMap>
	<Style id="sh_ylw-pushpin">
		<IconStyle>
			<scale>1.3</scale>
			<Icon>
				<href>http://maps.google.com/mapfiles/kml/pushpin/ylw-pushpin.png</href>
			</Icon>
			<hotSpot x="20" y="2" xunits="pixels" yunits="pixels"/>
		</IconStyle>
		<BalloonStyle>
		</BalloonStyle>
		<PolyStyle>
			<fill>0</fill>
		</PolyStyle>
	</Style>
	<Style id="sn_ylw-pushpin">
		<IconStyle>
			<scale>1.1</scale>
			<Icon>
				<href>http://maps.google.com/mapfiles/kml/pushpin/ylw-pushpin.png</href>
			</Icon>
			<hotSpot x="20" y="2" xunits="pixels" yunits="pixels"/>
		</IconStyle>
		<BalloonStyle>
		</BalloonStyle>
		<PolyStyle>
			<fill>0</fill>
		</PolyStyle>
	</Style>
	<Placemark>
		<name>AR Bamboo plant. over 5.0 ha at Kachucherra Beat Part - II-18_49_57</name>
		<styleUrl>#msn_ylw-pushpin</styleUrl>
		<Polygon>
			<tessellate>1</tessellate>
			<outerBoundaryIs>
				<LinearRing>
					<coordinates>
						91.87110386068596,24.0004550962299,0 91.87106619179067,24.00036119245912,0 91.87107800143174,24.00026924899801,0 91.87105958504868,24.00017233716979,0 91.87092967461275,24.0001010110292,0 91.87087220667179,24.00011605370056,0 91.87084559923929,24.0000915868373,0 91.87071351320579,24.00010847714641,0 91.87070798055164,24.00004591685054,0 91.8704636350357,23.99991589120073,0 91.87039807529315,23.99991764227016,0 91.87039821065152,23.99989417394318,0 91.87043078264705,23.99979397764799,0 91.87045585750552,23.99976827673385,0 91.87053611968007,23.99974152593957,0 91.87075488983655,23.99963814690979,0 91.87082095366036,23.99952808330037,0 91.87083050350115,23.99952111322029,0 91.87084178139357,23.99951642944904,0 91.87086241524875,23.99951377694519,0 91.87088490399314,23.99951330592961,0 91.87089738919701,23.99951304443255,0 91.87101339248048,23.9995150026892,0 91.87112732230193,23.99956664908547,0 91.87119659410862,23.99955083605685,0 91.87128136001579,23.99962223973647,0 91.87131966890641,23.99972707401793,0 91.87138702510255,23.99987085515899,0 91.87139091603717,23.99999163945998,0 91.87165152307432,24.00005077470751,0 91.87181649863041,23.99999884213666,0 91.87206220479935,23.99991198725207,0 91.87230393722291,23.99976716238506,0 91.8724972875483,23.99960917152832,0 91.8726177584099,23.99959277805932,0 91.87281592693357,23.99964702421213,0 91.87307180550063,23.99973726580296,0 91.87324901879859,23.99980989188572,0 91.87340912151602,23.99992157869335,0 91.87354504205226,24.00004543802778,0 91.87364352399226,24.00012324721511,0 91.87365033107575,24.00014229107018,0 91.87365838394173,24.00016696750166,0 91.87367544222747,24.0002063419226,0 91.8736783538325,24.00022013692216,0 91.87375001373803,24.00034855716045,0 91.8739084731412,24.00054631603703,0 91.87388672848955,24.00062618092596,0 91.87382748314876,24.0007587506456,0 91.87377288292745,24.00089265993274,0 91.87378709822364,24.00107598773007,0 91.87375019791743,24.00111193537089,0 91.87363426236527,24.00117182159217,0 91.87344553898527,24.00126991872033,0 91.87320910893996,24.00126380675315,0 91.87266683396504,24.00149627275999,0 91.8725621808007,24.00148046301219,0 91.87240076008555,24.00150463249646,0 91.87208950818733,24.00166183337714,0 91.87188814518538,24.00160821978377,0 91.8717258193102,24.00161814051624,0 91.87148069618809,24.001597395246,0 91.87130758842636,24.00151170438178,0 91.87114385114798,24.00151555911797,0 91.87114172781882,24.00150718422532,0 91.87114510439464,24.001483428192,0 91.87113441146687,24.00146600078644,0 91.87111031503258,24.00145092044214,0 91.87107924606566,24.00143672609783,0 91.87100115067283,24.00140753734305,0 91.8709821908366,24.00140238581711,0 91.87096824192953,24.0012705234524,0 91.87098694024631,24.00097474517686,0 91.87110903020297,24.0007027410286,0 91.87114470470924,24.00044087881169,0 91.87110386068596,24.0004550962299,0 
					</coordinates>
				</LinearRing>
			</outerBoundaryIs>
		</Polygon>
		<atom:link rel="app" href="https://www.google.com/earth/about/versions/#earth-pro" title="Google Earth Pro 7.3.7.1155"></atom:link>
	</Placemark>
</Document>
</kml>
