<?xml version="1.0" encoding="UTF-8"?>
<kml xmlns="http://www.opengis.net/kml/2.2" xmlns:gx="http://www.google.com/kml/ext/2.2" xmlns:kml="http://www.opengis.net/kml/2.2" xmlns:atom="http://www.w3.org/2005/Atom">
<Document>
	<name>1778306656709.kml</name>
	<StyleMap id="msn_ylw-pushpin">
		<Pair>
			<key>normal</key>
			<styleUrl>#sn_ylw-pushpin</styleUrl>
		</Pair>
		<Pair>
			<key>highlight</key>
			<styleUrl>#sh_ylw-pushpin</styleUrl>
		</Pair>
	</StyleMap>
	<Style id="sh_ylw-pushpin">
		<IconStyle>
			<scale>1.3</scale>
			<Icon>
				<href>http://maps.google.com/mapfiles/kml/pushpin/ylw-pushpin.png</href>
			</Icon>
			<hotSpot x="20" y="2" xunits="pixels" yunits="pixels"/>
		</IconStyle>
		<BalloonStyle>
		</BalloonStyle>
		<PolyStyle>
			<fill>0</fill>
		</PolyStyle>
	</Style>
	<Style id="sn_ylw-pushpin">
		<IconStyle>
			<scale>1.1</scale>
			<Icon>
				<href>http://maps.google.com/mapfiles/kml/pushpin/ylw-pushpin.png</href>
			</Icon>
			<hotSpot x="20" y="2" xunits="pixels" yunits="pixels"/>
		</IconStyle>
		<BalloonStyle>
		</BalloonStyle>
		<PolyStyle>
			<fill>0</fill>
		</PolyStyle>
	</Style>
	<Placemark>
		<name>1778306656709</name>
		<styleUrl>#msn_ylw-pushpin</styleUrl>
		<Polygon>
			<tessellate>1</tessellate>
			<outerBoundaryIs>
				<LinearRing>
					<coordinates>
						91.63237509087114,23.46254104416427,0 91.63234912851416,23.46243808902563,0 91.63247121573201,23.46230026683091,0 91.63263491203493,23.46226702647919,0 91.63272747061181,23.4622701100332,0 91.63273391324064,23.4622735470941,0 91.63274682060685,23.46228043310606,0 91.63276616536801,23.46228742689522,0 91.63277264901235,23.46229088401699,0 91.63279847977964,23.4622979951989,0 91.6328179356922,23.46230493312182,0 91.63284050026388,23.46230812500836,0 91.63285338657451,23.46230848168052,0 91.63286642857926,23.46231245088749,0 91.6328859574057,23.46231666965138,0 91.63290244332885,23.46232427548903,0 91.6329155673691,23.46232827044512,0 91.6329287128442,23.46233227190546,0 91.63294533765853,23.46234009146559,0 91.63295855577721,23.46234422006994,0 91.63297158244239,23.46234472879323,0 91.63299158837052,23.46235275466107,0 91.63300838905975,23.46236067790753,0 91.63302500147265,23.4623650134732,0 91.63303888586336,23.46237656881831,0 91.63305558481993,23.46238095930876,0 91.63306600606236,23.46238875283184,0 91.63307976324239,23.46239673589672,0 91.63309717481079,23.46240863572316,0 91.63311134047895,23.46242040931586,0 91.63312859230479,23.46242871058529,0 91.63314525979922,23.4624296185913,0 91.63315860386516,23.46243034545139,0 91.63318197765318,23.46243161877593,0 91.63319531479873,23.46243222568186,0 91.63321197696469,23.46243291143697,0 91.63322827815961,23.4624298893966,0 91.63324161566642,23.46243043739671,0 91.63325534816448,23.4624346964147,0 91.63326870752709,23.46243524621777,0 91.63328329214197,23.46244696417116,0 91.63329375366777,23.46245111265909,0 91.63330843466332,23.46246289893121,0 91.63332317805282,23.46247473536061,0 91.63334137642464,23.46248681150471,0 91.63335584843799,23.46249510864033,0 91.63337065599568,23.46250670405792,0 91.63338499574871,23.46251677867547,0 91.63339544621911,23.46252038002148,0 91.63341011197301,23.46253367517822,0 91.6334276871906,23.46254077127562,0 91.63344529771098,23.46254788161951,0 91.63346265666533,23.46255180485647,0 91.63347661874897,23.46255558785768,0 91.63349089475906,23.46256258336003,0 91.63372265226849,23.46265831727102,0 91.6338519093122,23.46263908985948,0 91.63385875854102,23.46263662108169,0 91.63387606722507,23.46263203156536,0 91.63389690268855,23.4626276152694,0 91.63391732617265,23.46261996818974,0 91.63393412931013,23.4626119846511,0 91.6339504921897,23.4626007852265,0 91.63396358780537,23.46259235904797,0 91.63397632176182,23.46258333953872,0 91.63399258801037,23.46257455552671,0 91.63400324278012,23.46257522369165,0 91.63402050512663,23.46257303885289,0 91.6340311723666,23.46257370687691,0 91.63405580113442,23.46257234917036,0 91.63407036280893,23.462573740842,0 91.63409169061337,23.4625725079967,0 91.63410629032882,23.46257390131485,0 91.63412073075547,23.46257502207441,0 91.63413855483049,23.46257604799127,0 91.63414925685758,23.4625766638395,0 91.6341671064195,23.46257769130756,0 91.6341827271829,23.46258542806575,0 91.63420196923497,23.46259339109224,0 91.63421771734838,23.46260123324889,0 91.63423327659484,23.46260628523011,0 91.63425331556044,23.4626152590397,0 91.63427642464038,23.46262111875152,0 91.63429285774596,23.46262975511109,0 91.63430709051869,23.46264513338931,0 91.6343100989812,23.46265938820326,0 91.63430934973989,23.46267329336837,0 91.63431264225824,23.4626880366139,0 91.63432657275551,23.46270049879846,0 91.6343384846806,23.46272010279462,0 91.63435428777439,23.46274025115445,0 91.63436546679387,23.4627562850321,0 91.63438170718065,23.46276183224909,0 91.63439821207919,23.46276771045144,0 91.63441677201762,23.46278151829154,0 91.63443146082318,23.46279482542379,0 91.63444717147176,23.462812087228,0 91.63446200340624,23.46282553086609,0 91.6344658758542,23.46284121473649,0 91.63447088551477,23.46286111717757,0 91.63448304108073,23.46287842685206,0 91.6344912186117,23.46289521961315,0 91.63450860133496,23.46291740766069,0 91.63452291455613,23.46292744389224,0 91.634615925299,23.46300463319824,0 91.63464573005055,23.46302310534084,0 91.63466821547766,23.46304420132169,0 91.63468587508528,23.46304801833149,0 91.63469539173111,23.46303784495919,0 91.63471309945189,23.46304165547163,0 91.63473514282613,23.46304622254866,0 91.63475528578151,23.46304555210156,0 91.63477106355069,23.46304401655634,0 91.63478770433288,23.46305909913829,0 91.63478727969499,23.46307144277695,0 91.63477081928151,23.4630851391166,0 91.63475735073511,23.46309521308515,0 91.63474079801681,23.46310891604477,0 91.63473283002786,23.46312415001503,0 91.63472457153476,23.46313906948915,0 91.63472522615288,23.46315595819145,0 91.63473167883436,23.46317841879916,0 91.63473655677821,23.46319605940201,0 91.63472813153138,23.46321107521678,0 91.63472394695474,23.46322679036336,0 91.63471764441924,23.46325045939707,0 91.63471009732649,23.46326975158514,0 91.63470010206679,23.46328010477238,0 91.63468675360966,23.46329393239657,0 91.63466980108235,23.46329423494106,0 91.63465307432949,23.46329483420156,0 91.63462200050206,23.46328827118674,0 91.63460552231388,23.46328912705314,0 91.63458585724199,23.46329364187392,0 91.63457262715805,23.46329083562559,0 91.6345528765941,23.46329515526065,0 91.63454065285364,23.46329659615274,0 91.63452069787697,23.46330053674519,0 91.63450404412524,23.4633009119238,0 91.63449196502279,23.4633025154954,0 91.63447561768467,23.46330332550941,0 91.63445610816363,23.46330786659536,0 91.63444216895776,23.46331809923334,0 91.63441829357153,23.4633216572833,0 91.63439996366733,23.46333091570632,0 91.63438365704805,23.46333165846372,0 91.63436521176155,23.46334072539014,0 91.63435445241693,23.46334726965509,0 91.63434047433256,23.46335759797494,0 91.63433254871136,23.4633748106337,0 91.63432211369987,23.46338206846726,0 91.63431889591735,23.46340114447982,0 91.63430678999325,23.46341803155804,0 91.63429185677745,23.46342420487615,0 91.63428151602864,23.46343186415728,0 91.63426624201203,23.46343467723875,0 91.63424515876815,23.46343086614657,0 91.63422832882752,23.46342782391369,0 91.63421728717,23.46343139135209,0 91.633746957049,23.46345741705639,0 91.63356520406897,23.4634598690723,0 91.63348531308358,23.46355316763177,0 91.63349038657341,23.46358670982196,0 91.63349065739374,23.46361424535731,0 91.6334909307446,23.46364205123659,0 91.63348725252104,23.46367022908935,0 91.63347828160934,23.46369073578034,0 91.63346923652946,23.46371133085893,0 91.63346496249753,23.46373835352357,0 91.63346065000329,23.46376562003942,0 91.63345538518402,23.46378633003156,0 91.63343934406615,23.46378711375341,0 91.63342068985241,23.46380020130573,0 91.63340115232262,23.46380672213802,0 91.63338080237762,23.46380669353682,0 91.63336452257874,23.46380667054242,0 91.63334959570825,23.46381915986813,0 91.63333377748691,23.46382454499532,0 91.63331307947045,23.46382297213846,0 91.6332971386197,23.46382786402593,0 91.63326857649838,23.46383076195168,0 91.63325251321308,23.46383515084253,0 91.63323285383636,23.46384543754445,0 91.63321371197698,23.46386217263573,0 91.63319811620758,23.46387303379856,0 91.63317720168276,23.46387033819136,0 91.63316548579054,23.46388011660065,0 91.63314903299057,23.46388275811218,0 91.63313288770978,23.46389053757608,0 91.63311224342758,23.46389255445739,0 91.63309579203154,23.46389519559492,0 91.63307516421132,23.46389721077243,0 91.63305898161022,23.46390499712868,0 91.63304253201693,23.4639076404899,0 91.63302633128194,23.46391549267808,0 91.63301869857344,23.46392978227003,0 91.63300252847162,23.46394136850776,0 91.63298584491824,23.46394201025166,0 91.63297361167247,23.46394902305343,0 91.6329529396686,23.46395374031563,0 91.63293629813924,23.46395437389883,0 91.63291949856662,23.46394978507238,0 91.63289911690035,23.46396055750985,0 91.63288240376455,23.46395637373503,0 91.6328618725896,23.46396192725842,0 91.63283704503814,23.46396099297331,0 91.63273470347892,23.46399959926373,0 91.63267306670903,23.4639949952494,0 91.63264446101158,23.46401518877895,0 91.63262397901556,23.46402662448043,0 91.63259526010887,23.46404161134876,0 91.63257883751183,23.46404859476769,0 91.63256645352047,23.46406184280549,0 91.63254995082846,23.4640740530997,0 91.63253348213141,23.4640808466073,0 91.63251706796694,23.46408259079321,0 91.6325047402589,23.46408535716991,0 91.63247988396495,23.46409609753203,0 91.6324507734428,23.4641083571266,0 91.63242998089,23.46411471793961,0 91.63241757685192,23.46411514946003,0 91.63239689741603,23.46411586914876,0 91.63237615457084,23.46411742492614,0 91.63235122845946,23.46411947602545,0 91.63232650148171,23.46411570453864,0 91.63230583721042,23.46411285238888,0 91.63228909401674,23.46411532072073,0 91.63226813478879,23.46411841042202,0 91.63224684496569,23.46412746524955,0 91.63222541492559,23.46413724214955,0 91.63219996315458,23.46414216410867,0 91.63217406117481,23.46415336500522,0 91.63215183487921,23.46417076708146,0 91.63212912718836,23.46419102119302,0 91.63211543218188,23.4642025644181,0 91.6320967438854,23.46422255194038,0 91.63207377911867,23.46424204250086,0 91.63205874023161,23.46427061842481,0 91.63205257256141,23.46429619393565,0 91.63204643457385,23.46432144753605,0 91.63204025691762,23.46434686460208,0 91.63203403912689,23.46437244631481,0 91.63201912712098,23.46439521987449,0 91.6320084289727,23.46441827584895,0 91.63198775792678,23.46445246883097,0 91.63196736065915,23.46448075899056,0 91.63194798378713,23.46449553378985,0 91.63192850894134,23.46451035220316,0 91.63190848903029,23.46453097954226,0 91.63189244819364,23.46455675115461,0 91.63188010425361,23.46458952981835,0 91.6318915244958,23.46466261988625,0 91.63183746393462,23.46474331363363,0 91.6318061591773,23.46477524487617,0 91.63178519207345,23.46479630158977,0 91.63176408992842,23.46481749355086,0 91.63174207067983,23.4648461475851,0 91.63172085365474,23.4648667409069,0 91.63170033077087,23.46488004487101,0 91.63167887492676,23.46490084971989,0 91.63165807498108,23.46491466453146,0 91.6316361174881,23.46493690358585,0 91.63160588446888,23.46494679547618,0 91.63158565827233,23.46495341280323,0 91.63156029460121,23.46496171167597,0 91.63154610973812,23.46495866883514,0 91.63152173130773,23.46495894812567,0 91.63149629369823,23.46496685604776,0 91.63147363908656,23.46498911748528,0 91.6314561426947,23.46500925820331,0 91.63143117400024,23.46504676247621,0 91.63141226220287,23.46507521707278,0 91.63138766577137,23.46510672798784,0 91.63136278302096,23.46513880884193,0 91.63133803939797,23.46516980385242,0 91.63131198905336,23.46517654115884,0 91.63129633223632,23.46518056005034,0 91.63126888967898,23.46519544185353,0 91.63124144030576,23.46520997815196,0 91.63121407832384,23.46522381768322,0 91.63119323253763,23.46522823034378,0 91.63117662371307,23.46520758377842,0 91.63116813420446,23.46516938030619,0 91.63115828936351,23.46513969255748,0 91.63114190754689,23.46511941885063,0 91.63113075098518,23.46509816656726,0 91.63112000119483,23.46507590749205,0 91.63112859101557,23.46502795129926,0 91.63114847807584,23.4650000233457,0 91.63116309944009,23.46497347150794,0 91.63116880533556,23.4649415733959,0 91.6311577866291,23.46492129283642,0 91.63113316361195,23.46489615225512,0 91.63111161932824,23.46488321901772,0 91.63109527818048,23.46486899294181,0 91.63107899008837,23.46485481254568,0 91.63106275425729,23.4648406780781,0 91.63104512070714,23.46483413615361,0 91.63103849892443,23.46481956245114,0 91.63101912678628,23.46479825755228,0 91.63099835393605,23.46478454993464,0 91.63097765560221,23.4647708445123,0 91.63096023687726,23.46476434911773,0 91.63094476286719,23.46474942598843,0 91.63092354466799,23.46474095351892,0 91.63090241414346,23.46473240051682,0 91.63088294488374,23.46471644671384,0 91.63086806267007,23.46470081305803,0 91.63085773651291,23.46468549530559,0 91.63084904806973,23.46466300639073,0 91.63086122078677,23.46462786173904,0 91.63086701637266,23.46460052288034,0 91.63086839772066,23.46457297543897,0 91.63085136561102,23.46454964057386,0 91.63083735047533,23.46453348150656,0 91.63082000877094,23.46453183503695,0 91.63080268055786,23.46453019004015,0 91.63078709290178,23.46452132775636,0 91.63077034462502,23.46451846164159,0 91.63074720098457,23.46450658830182,0 91.63067973299118,23.46436725981533,0 91.63068051806246,23.46433466193554,0 91.63068307525261,23.46431085024159,0 91.63068548690232,23.46427228049182,0 91.6307048526379,23.46424670142662,0 91.63072027055196,23.4642354077346,0 91.63073564827398,23.46422414321573,0 91.63075509436125,23.4641981230438,0 91.63078065164649,23.46418023800793,0 91.63079647473357,23.464183062966,0 91.63081238383465,23.46418575359254,0 91.63082831467274,23.46418844786258,0 91.63084825911967,23.4641918210258,0 91.63086024202498,23.46419384780972,0 91.63088226097796,23.46418961175213,0 91.63089626630298,23.46418403065608,0 91.6309162782315,23.46418740171511,0 91.63093223512926,23.46419028182032,0 91.63095217265537,23.46419397981781,0 91.63096473011544,23.46421122076735,0 91.63098180842749,23.46422828000057,0 91.63099103356582,23.46424364007905,0 91.63101185066554,23.46424583598295,0 91.63102435151038,23.46424715471226,0 91.63103946018521,23.46425597512073,0 91.63104781416165,23.46425685809228,0 91.6310713544889,23.46426659327337,0 91.6310865805133,23.46427547085357,0 91.63110453684803,23.46429195920268,0 91.63111987175913,23.46430090866093,0 91.63114061547732,23.46430724910987,0 91.63116354772518,23.46430450822365,0 91.63118644875352,23.46430177162409,0 91.63120913827035,23.4642995471012,0 91.63122679220403,23.46429915310932,0 91.63124567093453,23.46429204987786,0 91.63125889509965,23.46429175475673,0 91.63128093081683,23.46429126386494,0 91.63130447455974,23.4642830530927,0 91.63132889509609,23.46427197565715,0 91.63135189892769,23.46426818006503,0 91.63137213303189,23.46425302157174,0 91.63138879484688,23.4642320943308,0 91.63140586293683,23.46420968437648,0 91.63142649328475,23.46419254654646,0 91.63144232131998,23.46417678805827,0 91.63146791331771,23.46415379393485,0 91.63148410918934,23.46413633641647,0 91.63150606303972,23.46411046890426,0 91.63152424462577,23.46407954724126,0 91.63152857498535,23.46405253759601,0 91.63153340356206,23.46402391593029,0 91.63153044345586,23.46399050434304,0 91.63151160471045,23.46397480205161,0 91.63149158453552,23.46396619840946,0 91.63146480545953,23.46397193166881,0 91.63144892697261,23.46396644058455,0 91.63143431441476,23.46395413501686,0 91.63143377695941,23.46393408649731,0 91.6314175186274,23.46390875255095,0 91.63141106907447,23.46387634288218,0 91.63140024324468,23.46384525129528,0 91.63139249048113,23.4638205185574,0 91.6313794052495,23.46380262610574,0 91.63136638709736,23.46378482567361,0 91.63135759271341,23.4637668128514,0 91.6313476219625,23.46375511319586,0 91.63133483267708,23.46373739821271,0 91.63132211009122,23.46371977516408,0 91.63131026498247,23.46369726579213,0 91.63129684369771,23.46368198847316,0 91.63128383856302,23.4636658483192,0 91.63127489698707,23.4636497149024,0 91.63126095710382,23.46363912805442,0 91.63125105246104,23.46362850719559,0 91.63124432938885,23.46360180604138,0 91.63123952555101,23.46358589352365,0 91.6312368420914,23.46355944581167,0 91.63122918622565,23.46353851560322,0 91.63122046155442,23.46352027566574,0 91.63121477290076,23.46350698235494,0 91.63120590798248,23.46348933697951,0 91.63120099018595,23.46347171063253,0 91.63119926740367,23.46345851207752,0 91.63119827782712,23.46344095909363,0 91.63119753616827,23.46342294079465,0 91.63120088308477,23.46340450157199,0 91.631201090223,23.46338180999251,0 91.6312122959125,23.46336310750777,0 91.63122321796752,23.46334499541399,0 91.6312372623479,23.46333112849146,0 91.63124807766782,23.46331317135945,0 91.63125933909126,23.46329147656378,0 91.63126598691323,23.46327429554186,0 91.63127260705211,23.46325718611714,0 91.63127466669344,23.46324451483998,0 91.63128192556886,23.46322333007474,0 91.63128847217916,23.4632064309064,0 91.6312988319291,23.46318941798114,0 91.63130939796126,23.46317192469532,0 91.63131599583663,23.46315491180513,0 91.63132256476703,23.46313797244288,0 91.63132520297636,23.46312149951635,0 91.63132848594945,23.46310100140292,0 91.6313278695319,23.46308099214874,0 91.63132660272248,23.46306512979787,0 91.63132596610848,23.46304534283598,0 91.63132397227034,23.46303381315577,0 91.63132394931651,23.463010270245,0 91.63132725495774,23.46299018551155,0 91.63133748885272,23.46297359169563,0 91.63134388633362,23.46295736917057,0 91.63135781949126,23.46294062628836,0 91.63137168782033,23.46292396139396,0 91.63138242072797,23.46290360715046,0 91.63139247068681,23.46288727635374,0 91.63140873436845,23.46287822653358,0 91.6314292999072,23.46286500340915,0 91.63144545119202,23.4628560186741,0 91.63146469297584,23.46285063766083,0 91.63148439837083,23.46284413337683,0 91.63150422097655,23.4628372433175,0 91.63151956175604,23.46283488467114,0 91.6315430939617,23.46282744154039,0 91.63156216687935,23.46282451337916,0 91.63157850134192,23.46281438342646,0 91.63159747483471,23.46281147922964,0 91.63161314429834,23.462805312896,0 91.63162928406619,23.46279532020932,0 91.6316448855905,23.46278911969027,0 91.63166056388852,23.46278262122666,0 91.63167947115907,23.46277932887092,0 91.63169505015385,23.46277286460593,0 91.63171058020521,23.46276642054609,0 91.63172981028586,23.46275933922426,0 91.63175225579027,23.46275541524976,0 91.63177090642971,23.46275215489051,0 91.63178950820934,23.46274890296244,0 91.63180435467683,23.46274630740275,0 91.6318187318094,23.46274755840393,0 91.63183306935755,23.46274888586573,0 91.63184739347764,23.46275021215368,0 91.63185762776325,23.4627559407212,0 91.63187561062098,23.46275664661061,0 91.63188990166873,23.462757967822,0 91.63190746830607,23.46276244943786,0 91.63192173794954,23.46276375496848,0 91.63193563383741,23.46276885120214,0 91.63194953082917,23.46277394786668,0 91.63196342907993,23.4627790448997,0 91.63198063497751,23.46278731854683,0 91.63199083552831,23.46279329165859,0 91.63200789412829,23.46280225887873,0 91.63201776104401,23.46281221554926,0 91.63202764691658,23.46282219139258,0 91.63204116172273,23.46283169217148,0 91.63205108757847,23.46284170417708,0 91.63206854408435,23.46284689560086,0 91.63208238135148,23.4628526664222,0 91.63209680173729,23.46285063110868,0 91.63211034870751,23.4628603616115,0 91.63212087197306,23.46286275651305,0 91.63213831943372,23.462868057721,0 91.63214910500793,23.46286652167913,0 91.63216668245271,23.46286855313049,0 91.6321811014322,23.46286356901645,0 91.63220277715649,23.46285426226423,0 91.63221711502214,23.4628493621675,0 91.63223121510536,23.46284833594112,0 91.6322454960378,23.46284352626155,0 91.63225956498349,23.46284251490603,0 91.63227344337089,23.46284529545519,0 91.63228732489793,23.46284807688832,0 91.63230488572904,23.46284681054114,0 91.63232242934596,23.46284554562309,0 91.6323365643759,23.46284105795092,0 91.6323507917151,23.46283303548607,0 91.63236511995618,23.46282124890321,0 91.63237580225666,23.46281337831346,0 91.63239004797234,23.46280165803007,0 91.63240413165779,23.4627937275288,0 91.63241818220308,23.46278581537941,0 91.63242885387743,23.46277425162243,0 91.63243960580478,23.46275875541024,0 91.63244010031597,23.46274001110982,0 91.63244049403367,23.46272508552976,0 91.63244098390473,23.4627065153472,0 91.63244147122656,23.4626880408872,0 91.63243504807198,23.46267365943852,0 91.63242503617855,23.46266684948199,0 91.63237509087114,23.46254104416427,0 
					</coordinates>
				</LinearRing>
			</outerBoundaryIs>
		</Polygon>
		<atom:link rel="app" href="https://www.google.com/earth/about/versions/#earth-pro" title="Google Earth Pro 7.3.7.1155"></atom:link>
	</Placemark>
</Document>
</kml>
