<?xml version="1.0" encoding="UTF-8"?>
<kml xmlns="http://www.opengis.net/kml/2.2" xmlns:gx="http://www.google.com/kml/ext/2.2" xmlns:kml="http://www.opengis.net/kml/2.2" xmlns:atom="http://www.w3.org/2005/Atom">
<Document>
	<name>1778482962491.kml</name>
	<StyleMap id="msn_ylw-pushpin">
		<Pair>
			<key>normal</key>
			<styleUrl>#sn_ylw-pushpin</styleUrl>
		</Pair>
		<Pair>
			<key>highlight</key>
			<styleUrl>#sh_ylw-pushpin</styleUrl>
		</Pair>
	</StyleMap>
	<Style id="sh_ylw-pushpin">
		<IconStyle>
			<scale>1.3</scale>
			<Icon>
				<href>http://maps.google.com/mapfiles/kml/pushpin/ylw-pushpin.png</href>
			</Icon>
			<hotSpot x="20" y="2" xunits="pixels" yunits="pixels"/>
		</IconStyle>
		<BalloonStyle>
		</BalloonStyle>
		<LineStyle>
			<color>ffff55ff</color>
			<width>4.3</width>
		</LineStyle>
		<PolyStyle>
			<color>4dffffff</color>
		</PolyStyle>
	</Style>
	<Style id="sn_ylw-pushpin">
		<IconStyle>
			<scale>1.1</scale>
			<Icon>
				<href>http://maps.google.com/mapfiles/kml/pushpin/ylw-pushpin.png</href>
			</Icon>
			<hotSpot x="20" y="2" xunits="pixels" yunits="pixels"/>
		</IconStyle>
		<BalloonStyle>
		</BalloonStyle>
		<LineStyle>
			<color>ffff55ff</color>
			<width>4.3</width>
		</LineStyle>
		<PolyStyle>
			<color>4dffffff</color>
		</PolyStyle>
	</Style>
	<Placemark>
		<name>1778482962491</name>
		<styleUrl>#msn_ylw-pushpin</styleUrl>
		<Polygon>
			<tessellate>1</tessellate>
			<outerBoundaryIs>
				<LinearRing>
					<coordinates>
						91.61370713312235,23.77263836529982,0 91.61366865608343,23.77244783243825,0 91.61323676895253,23.77187401080283,0 91.61348230151083,23.7715616540103,0 91.61329763076392,23.77135053426782,0 91.61330884137205,23.77069668369452,0 91.61330682839527,23.77048821896924,0 91.61357137502179,23.77027742682488,0 91.61350474918351,23.77003297426053,0 91.613839936063,23.76998517635818,0 91.61406830369161,23.76986071178622,0 91.61426091118535,23.76982693286838,0 91.61484675557207,23.76947795359123,0 91.61550939397071,23.76918737860669,0 91.61549799503096,23.76900154320174,0 91.61563544752487,23.76890447916281,0 91.61567788510456,23.76867533605457,0 91.61660405465969,23.76861732992399,0 91.61669505367961,23.7685446836167,0 91.6170066587147,23.76836103098259,0 91.61733145529934,23.7683468329901,0 91.617324870441,23.76860158601995,0 91.61741940914762,23.76878655305199,0 91.61742912004834,23.76900810106784,0 91.61751816760446,23.76912658427751,0 91.61771791382938,23.76940653652941,0 91.61782210513441,23.76955995787985,0 91.617922889821,23.76970988124675,0 91.61806683414571,23.76990615685197,0 91.61808746288003,23.77006412121764,0 91.61796799602433,23.77027300810384,0 91.6179623423628,23.77029001111193,0 91.61796343466425,23.77031276295225,0 91.61789304956422,23.77051676260325,0 91.61780276516782,23.77065321965999,0 91.6176365485838,23.77086020415436,0 91.61756545925786,23.77092441160762,0 91.61755918912313,23.7709244060305,0 91.61754166296213,23.77094204720504,0 91.61751115274497,23.77095380870325,0 91.61749358823421,23.7709714790971,0 91.61743861961699,23.77099498548113,0 91.61739039223538,23.77101881277895,0 91.61736630995273,23.77103077575603,0 91.61714666432472,23.77122203367098,0 91.61697924597027,23.77139631065812,0 91.61672268798509,23.77162059053044,0 91.6164689537256,23.77182348268989,0 91.61624298109196,23.77198458868597,0 91.61589481744384,23.77229046602528,0 91.61565199150405,23.77249708528488,0 91.61521454087358,23.77270498288255,0 91.6149977867076,23.77280164980406,0 91.61476726971298,23.77288589888902,0 91.61453573092356,23.77294678722206,0 91.61436885150847,23.77304028620191,0 91.61423074070861,23.77301252407362,0 91.61370713312235,23.77263836529982,0 
					</coordinates>
				</LinearRing>
			</outerBoundaryIs>
		</Polygon>
		<atom:link rel="app" href="https://www.google.com/earth/about/versions/#earth-pro" title="Google Earth Pro 7.3.7.1155"></atom:link>
	</Placemark>
</Document>
</kml>
