<?xml version="1.0" encoding="UTF-8"?>
<kml xmlns="http://www.opengis.net/kml/2.2" xmlns:gx="http://www.google.com/kml/ext/2.2" xmlns:kml="http://www.opengis.net/kml/2.2" xmlns:atom="http://www.w3.org/2005/Atom">
<Document>
	<name>1778220628748.kml</name>
	<StyleMap id="msn_ylw-pushpin">
		<Pair>
			<key>normal</key>
			<styleUrl>#sn_ylw-pushpin</styleUrl>
		</Pair>
		<Pair>
			<key>highlight</key>
			<styleUrl>#sh_ylw-pushpin</styleUrl>
		</Pair>
	</StyleMap>
	<Style id="sh_ylw-pushpin">
		<IconStyle>
			<scale>1.3</scale>
			<Icon>
				<href>http://maps.google.com/mapfiles/kml/pushpin/ylw-pushpin.png</href>
			</Icon>
			<hotSpot x="20" y="2" xunits="pixels" yunits="pixels"/>
		</IconStyle>
		<BalloonStyle>
		</BalloonStyle>
		<PolyStyle>
			<fill>0</fill>
		</PolyStyle>
	</Style>
	<Style id="sn_ylw-pushpin">
		<IconStyle>
			<scale>1.1</scale>
			<Icon>
				<href>http://maps.google.com/mapfiles/kml/pushpin/ylw-pushpin.png</href>
			</Icon>
			<hotSpot x="20" y="2" xunits="pixels" yunits="pixels"/>
		</IconStyle>
		<BalloonStyle>
		</BalloonStyle>
		<PolyStyle>
			<fill>0</fill>
		</PolyStyle>
	</Style>
	<Placemark>
		<name>1778220628748</name>
		<styleUrl>#msn_ylw-pushpin</styleUrl>
		<Polygon>
			<tessellate>1</tessellate>
			<outerBoundaryIs>
				<LinearRing>
					<coordinates>
						91.6968289658904,23.60971973548692,0 91.69683195457115,23.60970019178831,0 91.69682060113465,23.60967991643041,0 91.69681982798518,23.6096538432493,0 91.69681431275718,23.60962765805054,0 91.69680862328077,23.6096022098484,0 91.69681322612229,23.60957158459289,0 91.69681791737759,23.60954083627771,0 91.69682263837031,23.6095101309194,0 91.69682732681422,23.60947963646802,0 91.6968404197103,23.60945575362151,0 91.69684521228145,23.60942510579257,0 91.69685360978717,23.60940110512058,0 91.69687117985458,23.60937776198024,0 91.69687937864462,23.60935423745286,0 91.69688752019749,23.60933087696,0 91.69689561888346,23.60930763948506,0 91.69691278363899,23.60928509454397,0 91.69692986546178,23.60926265181738,0 91.69694233634631,23.60924001989578,0 91.69695842011136,23.60922358896687,0 91.69697444729302,23.60920721604128,0 91.6969907126456,23.60919005997943,0 91.69700692611177,23.60917293787915,0 91.69702759950589,23.60915607580383,0 91.69703180300567,23.60912685941971,0 91.69703514056127,23.609103650487,0 91.69703869603831,23.60907988961182,0 91.69703786956477,23.60905578670155,0 91.69703704858593,23.60903183921988,0 91.6970362328325,23.60900804521524,0 91.69704088163488,23.60897836543489,0 91.69704546346483,23.6089490078636,0 91.69706230916468,23.60892611592298,0 91.69707386984425,23.60890543860553,0 91.69708983890348,23.6088847733442,0 91.69710065180074,23.60886936089301,0 91.69710378260363,23.60884407706525,0 91.69710695916217,23.60881875801083,0 91.69711115901156,23.60878742442182,0 91.6971139408375,23.60876667034142,0 91.69711627438821,23.60874722006598,0 91.69710511073332,23.60872902859571,0 91.69710230684188,23.60871513414033,0 91.6970906536699,23.60870174554461,0 91.69709339667656,23.60867835203748,0 91.69709612600188,23.60865507541798,0 91.69709392248723,23.60863671117082,0 91.69709247621182,23.60861328398982,0 91.69709103722144,23.60858997865897,0 91.69710126826986,23.60857616479878,0 91.69710750227928,23.60855841619937,0 91.69710053963583,23.60854167492723,0 91.69708828336438,23.60853394957617,0 91.69708136220311,23.60851727658477,0 91.69709589511901,23.60850341209092,0 91.69711429996082,23.60849357851064,0 91.69713229972243,23.6084878383192,0 91.69715075284805,23.60847769289514,0 91.69717262916501,23.60847587528608,0 91.69719010892189,23.60847442297157,0 91.69721628726414,23.60847226396223,0 91.69722906591528,23.60847200925148,0 91.69725076100593,23.60846728876248,0 91.69726779015294,23.60846693154953,0 91.69728952063348,23.60846199764655,0 91.69731083337572,23.60846139505828,0 91.6973321364344,23.60846079281258,0 91.697349172012,23.60846031101094,0 91.69736620148502,23.60845982953044,0 91.69738429263684,23.60844639828189,0 91.69740202583495,23.60843402682777,0 91.69741547091928,23.60842183822813,0 91.69741660651745,23.60840547122442,0 91.6974218178469,23.60838953426991,0 91.69742727953812,23.60836962768127,0 91.6974329844694,23.60834579207543,0 91.69743892555191,23.60831807582061,0 91.6974438124914,23.60830633605721,0 91.69744481674377,23.60829056246877,0 91.69745375450105,23.60827916648937,0 91.69746267717051,23.60826778979029,0 91.69747591404219,23.60825271471055,0 91.69748884158834,23.60824173653018,0 91.69750186463354,23.60822728907111,0 91.69757766614285,23.60817293065271,0 91.69762275171013,23.60815286725638,0 91.69763478833207,23.60815441538601,0 91.69764767554088,23.60814001174872,0 91.69766835944479,23.60813375143564,0 91.69767684707516,23.60812657519208,0 91.69769345431894,23.6081200139868,0 91.69770988847074,23.60811734247426,0 91.69772258414524,23.60810659597166,0 91.69773926293968,23.60809650404692,0 91.69775541652618,23.60809836648762,0 91.69776423943043,23.60808301182119,0 91.69776489583512,23.60806719860145,0 91.69776566341791,23.60804776775108,0 91.69777047022562,23.60802872981014,0 91.69777107428955,23.6080132895313,0 91.69777570817649,23.607998211006,0 91.69778033002517,23.60798317182705,0 91.69778896344522,23.60796848386466,0 91.69780148972279,23.60795778333239,0 91.69781415579322,23.60794315311458,0 91.69782665521805,23.60793240066858,0 91.69783524538462,23.60791756614598,0 91.69783979643927,23.60790250955516,0 91.6978443496773,23.60788740354085,0 91.69785289650531,23.60787259780543,0 91.69786556213622,23.60785419058492,0 91.69787020827957,23.60783525017711,0 91.69787858133824,23.60782423225375,0 91.69788306730153,23.60780920768579,0 91.69789176238697,23.60778686397288,0 91.69789609571436,23.60777572891741,0 91.69790450441717,23.60776108890743,0 91.69790880439415,23.60775007061736,0 91.69792102031666,23.60773957851235,0 91.6979370832054,23.60773307191048,0 91.69795691608189,23.6077343442783,0 91.69797280114012,23.60773536338332,0 91.69799275977464,23.60773287092603,0 91.69800875065114,23.60773009693452,0 91.69802865900662,23.60773139529595,0 91.69804449093559,23.60773996257284,0 91.69806446506162,23.60774124399063,0 91.69807650339732,23.60773829753869,0 91.6980926472321,23.60772451190785,0 91.69810876991261,23.60771051963721,0 91.69811685091145,23.60769966531367,0 91.69813286420452,23.60769344956748,0 91.69814490052711,23.60768300052225,0 91.69815292974876,23.60767219473474,0 91.69816890710383,23.60766599475161,0 91.69818887189437,23.60765608784747,0 91.69820083848754,23.60764927117694,0 91.69821677135936,23.60763889961301,0 91.69823272438873,23.60763628939203,0 91.69824865115672,23.60762974897102,0 91.69826467101495,23.60763455173594,0 91.69828067644549,23.60763548234981,0 91.69829680685366,23.60764418607405,0 91.69831298557327,23.6076529158799,0 91.6983292128059,23.60766167184681,0 91.69834540995377,23.60766653543368,0 91.69836172665865,23.60767533386428,0 91.69837798972449,23.60768014918829,0 91.6983942839878,23.60768497109623,0 91.69841466699508,23.60769001837888,0 91.69843540665978,23.60770649047879,0 91.69844783612935,23.60771475715311,0 91.69846435922001,23.607723139038,0 91.69848091923916,23.60773151770024,0 91.69849761310026,23.60774352531686,0 91.6985142128424,23.60775167604841,0 91.69853100070989,23.60776374546636,0 91.69855193595639,23.60777594728112,0 91.6985645622707,23.60778407111463,0 91.69857756195256,23.60780007800766,0 91.69858631557706,23.60781209920433,0 91.69859523260506,23.60782789635979,0 91.6986082586624,23.60784358445669,0 91.69861722221459,23.60785937976878,0 91.69863013303552,23.60787118058725,0 91.69864307631789,23.6078830110829,0 91.69865626164383,23.60789888665375,0 91.69865731575096,23.60791903529476,0 91.698666442494,23.60793511000136,0 91.69867145468454,23.60795129795113,0 91.69867626351815,23.60796346236225,0 91.69868546800321,23.60797969337695,0 91.69869076693159,23.60800015013076,0 91.69869980083261,23.60801238579419,0 91.69870510167434,23.6080327761064,0 91.69870577059757,23.60804504575784,0 91.69871110054031,23.60806556788106,0 91.6987169654567,23.60809468104582,0 91.69871816966754,23.60811565862953,0 91.69871913700644,23.60813250934321,0 91.69872010783753,23.60814942154869,0 91.69872108221975,23.60816639548633,0 91.69872230517836,23.60818770028256,0 91.69872756222092,23.60820481684366,0 91.69874542947515,23.60821770299066,0 91.69876359209877,23.60823485508331,0 91.69877290506685,23.60824751462972,0 91.69878275798196,23.60826874818156,0 91.69877928233412,23.6082818240729,0 91.69877606105511,23.60829927064602,0 91.6987728279959,23.60831678181752,0 91.69877010817045,23.60834310171726,0 91.69876658720693,23.60835638536912,0 91.69876789870079,23.60837837500645,0 91.69878626234161,23.60839547455518,0 91.69879951763363,23.60839947549613,0 91.69881768001783,23.60841220245631,0 91.69882778019368,23.60843408495917,0 91.69883356947801,23.60845618516727,0 91.69884780246848,23.60847361463624,0 91.69884899444752,23.60849154197357,0 91.69885018833415,23.60850952485066,0 91.69884290326864,23.60853230706196,0 91.69883529314643,23.6085506641411,0 91.69881913215907,23.60857391455595,0 91.69881116261045,23.60858786423044,0 91.69879915951937,23.60860718494886,0 91.69878679239157,23.6086217984454,0 91.69877907689269,23.60864086638407,0 91.69877104143607,23.60865526672661,0 91.69875907490602,23.60867929308328,0 91.69874644754579,23.6086936408216,0 91.69872451303414,23.60870323632314,0 91.69869824655882,23.60871743193318,0 91.69868494422784,23.60872203821478,0 91.69865333716997,23.60872168035694,0 91.69863979362729,23.60872152703737,0 91.69861743127808,23.60872603382234,0 91.69858580294017,23.6087255087491,0 91.69856763546824,23.60872444491084,0 91.69854509479843,23.60872769566914,0 91.69852722709703,23.60873573405923,0 91.69850919564087,23.60873907615976,0 91.69849116433434,23.608742418194,0 91.69847313313684,23.60874576004864,0 91.6984552249846,23.60875381030398,0 91.69843707130521,23.60875244396775,0 91.69841439770801,23.60875067245711,0 91.69839615691137,23.60874419524767,0 91.69836898227642,23.60874136610484,0 91.69835541443003,23.60873995353896,0 91.69833734428045,23.60873807215984,0 91.69832398833178,23.60875059089767,0 91.69831066521809,23.60876780878147,0 91.69829278567691,23.60878461722074,0 91.69827938803728,23.60880186459201,0 91.69826135563707,23.60880905787526,0 91.69824786711712,23.60882144468292,0 91.69817108185134,23.60886702119208,0 91.69810307446853,23.60891350575078,0 91.69808043653018,23.60891963164203,0 91.69805783014029,23.6089252059564,0 91.69803522251468,23.60893115096102,0 91.69802161514241,23.60893833127309,0 91.69800800770699,23.60894544971094,0 91.69799431863176,23.6089572301854,0 91.69798044700103,23.60897836978845,0 91.69796212987825,23.60899424811686,0 91.6979436567605,23.6090118541937,0 91.69792500868765,23.60903447813352,0 91.69791559365754,23.60904831324236,0 91.6979013649853,23.60907158455877,0 91.69789177780325,23.60909021186791,0 91.69789110957154,23.60911134038268,0 91.69787696882237,23.60912569154894,0 91.69785823609875,23.60913966664014,0 91.69784402136537,23.60915408676287,0 91.6978208411827,23.60916247391319,0 91.69780633091101,23.60918237938749,0 91.69778716970399,23.60919871719466,0 91.69777743106977,23.60920973478132,0 91.69776277863194,23.60922631172176,0 91.69774750175378,23.60925436041421,0 91.69773707485551,23.60927692584294,0 91.69772650460385,23.60930031389726,0 91.69771173506936,23.6093128025754,0 91.69769219354345,23.60932559029623,0 91.69767697578943,23.60934406543682,0 91.69765766018207,23.60935103021502,0 91.69763789790187,23.6093641643701,0 91.69761320050718,23.60937826616081,0 91.69758797107127,23.60939855918993,0 91.6975630579494,23.60941279584455,0 91.69754395958938,23.60941347960561,0 91.6975244003135,23.60942018067833,0 91.69749519644226,23.60942743531545,0 91.69747125655786,23.60942829520362,0 91.6974467566026,23.60943539480675,0 91.69741685949461,23.60944882837617,0 91.69739716673223,23.60945525080242,0 91.69737692628243,23.60946758624997,0 91.69735672009659,23.60947954395074,0 91.69732686212589,23.60949160180638,0 91.69730597140773,23.6095095765366,0 91.69729520890709,23.60952157600768,0 91.69729150977857,23.60955859298093,0 91.69727859725879,23.60959017795748,0 91.69727053079913,23.60962166906954,0 91.69725232911345,23.60965834366904,0 91.69725110489904,23.60967068058596,0 91.69723933398548,23.60968980539297,0 91.69723621418682,23.60972091951847,0 91.69723244291816,23.60975852773302,0 91.69722052123564,23.60977801984625,0 91.69719851385968,23.60980179492567,0 91.69717238185103,23.60981825205095,0 91.697157138978,23.60982335181426,0 91.69713211158728,23.60982786078025,0 91.69709242110925,23.60983147885345,0 91.69707184532217,23.60983778196822,0 91.69703217806806,23.60983754172255,0 91.69699802586459,23.60983545281945,0 91.69697365294395,23.60983396190268,0 91.69685232082611,23.60985555428679,0 91.6968289658904,23.60971973548692,0 
					</coordinates>
				</LinearRing>
			</outerBoundaryIs>
		</Polygon>
		<atom:link rel="app" href="https://www.google.com/earth/about/versions/#earth-pro" title="Google Earth Pro 7.3.7.1155"></atom:link>
	</Placemark>
</Document>
</kml>
