<?xml version="1.0" encoding="UTF-8"?>
<kml xmlns="http://www.opengis.net/kml/2.2" xmlns:gx="http://www.google.com/kml/ext/2.2" xmlns:kml="http://www.opengis.net/kml/2.2" xmlns:atom="http://www.w3.org/2005/Atom">
<Document>
	<name>1778238959388.kml</name>
	<StyleMap id="msn_ylw-pushpin">
		<Pair>
			<key>normal</key>
			<styleUrl>#sn_ylw-pushpin</styleUrl>
		</Pair>
		<Pair>
			<key>highlight</key>
			<styleUrl>#sh_ylw-pushpin</styleUrl>
		</Pair>
	</StyleMap>
	<Style id="sh_ylw-pushpin">
		<IconStyle>
			<scale>1.3</scale>
			<Icon>
				<href>http://maps.google.com/mapfiles/kml/pushpin/ylw-pushpin.png</href>
			</Icon>
			<hotSpot x="20" y="2" xunits="pixels" yunits="pixels"/>
		</IconStyle>
		<BalloonStyle>
		</BalloonStyle>
		<PolyStyle>
			<fill>0</fill>
		</PolyStyle>
	</Style>
	<Style id="sn_ylw-pushpin">
		<IconStyle>
			<scale>1.1</scale>
			<Icon>
				<href>http://maps.google.com/mapfiles/kml/pushpin/ylw-pushpin.png</href>
			</Icon>
			<hotSpot x="20" y="2" xunits="pixels" yunits="pixels"/>
		</IconStyle>
		<BalloonStyle>
		</BalloonStyle>
		<PolyStyle>
			<fill>0</fill>
		</PolyStyle>
	</Style>
	<Placemark>
		<name>1778238959388</name>
		<styleUrl>#msn_ylw-pushpin</styleUrl>
		<Polygon>
			<tessellate>1</tessellate>
			<outerBoundaryIs>
				<LinearRing>
					<coordinates>
						91.55763623955677,23.65869973391223,0 91.55763604531654,23.65845398447068,0 91.55763522969841,23.65821462018195,0 91.55748150147421,23.65800905988332,0 91.55728295297989,23.65788019754071,0 91.55712392848224,23.65766910835224,0 91.55705140685986,23.65737984045936,0 91.55712776944124,23.65711544643387,0 91.55723920949681,23.65699729675066,0 91.55737318488521,23.65691499386731,0 91.55763244781289,23.65690692370926,0 91.55782165739809,23.65684934448016,0 91.55799410279661,23.65671661379193,0 91.55866668357712,23.65678969704464,0 91.55872316661932,23.65691687105,0 91.55895222626972,23.65711697239619,0 91.5592164266923,23.65725112846143,0 91.55953149526555,23.65734145424169,0 91.55979776169532,23.65721257231259,0 91.5598093517448,23.65699999968146,0 91.55997180490917,23.65679748585298,0 91.56019998087545,23.65673543885877,0 91.56046883328402,23.65672494765158,0 91.56057737085884,23.65670939222697,0 91.56073202412203,23.65648860977254,0 91.56104847446515,23.65651953787935,0 91.56116182546978,23.65664750532734,0 91.56128561075016,23.6566219009001,0 91.56137906153687,23.65651512833491,0 91.56166048658046,23.65644668187669,0 91.56176410951174,23.65648710100191,0 91.5619476532802,23.65653262919179,0 91.56221948948851,23.65644996139381,0 91.56241343307906,23.65642636476282,0 91.56258932498126,23.65652433652109,0 91.56263028496591,23.65670180176356,0 91.56291501386308,23.65682625619739,0 91.56317615318532,23.65681487882641,0 91.56329001896002,23.65690358502798,0 91.56326699421642,23.65720329538613,0 91.56327909727327,23.65725007990414,0 91.5632912687263,23.65729712814982,0 91.56329664507403,23.65733395895828,0 91.56331464532276,23.65734948744246,0 91.56333833817597,23.65736000733353,0 91.56337419915079,23.65737589756387,0 91.56339088506256,23.65740290386587,0 91.56342028906124,23.65741349057343,0 91.5634485147926,23.65741863901182,0 91.56348460535757,23.65743464014677,0 91.56351819554575,23.65748399428584,0 91.56352465577883,23.6575116682703,0 91.56353127666779,23.65753439877933,0 91.56353602034828,23.6575688634548,0 91.56354495628759,23.65759787119911,0 91.56354994531698,23.65766851508389,0 91.56355292439579,23.65769807957941,0 91.56357299316556,23.65775112838762,0 91.56367625622147,23.65783960485186,0 91.56374430269568,23.65792881927574,0 91.56377784197568,23.65797085150681,0 91.56382184281397,23.65803675713144,0 91.56386879531358,23.65812022076557,0 91.56388365959766,23.65815950070331,0 91.56394420865064,23.65821400743287,0 91.56396196639015,23.65823014871106,0 91.56415209392598,23.65826707657143,0 91.56419407792926,23.65840501531988,0 91.56424534331883,23.65852770898123,0 91.56428051352562,23.65864053852281,0 91.564303311261,23.65874226564398,0 91.56439291702381,23.65893643552707,0 91.56440656721627,23.65913470796574,0 91.5642680586359,23.65922659941108,0 91.56433795586298,23.65933946018613,0 91.56445081215962,23.65951020161753,0 91.56440146027336,23.65965630302133,0 91.56432966732194,23.65977685177618,0 91.56417243975896,23.65991388413673,0 91.56420567601896,23.66006628984119,0 91.56420630479319,23.66019715967781,0 91.56409045745586,23.66028069008566,0 91.5635632443478,23.66036844284988,0 91.56343177205085,23.66051696772986,0 91.56328992439754,23.66066699031499,0 91.56301715485866,23.66072290215553,0 91.56293782659927,23.66082313562937,0 91.56267693761801,23.66089251128619,0 91.56257505490885,23.66098970488747,0 91.5624639342013,23.66101234009293,0 91.56206344030186,23.66100225359243,0 91.56189407377805,23.66111350514472,0 91.56179498618975,23.66102147437919,0 91.56150156313399,23.66105831500528,0 91.56109321322134,23.6610850762358,0 91.56083380327873,23.66132812764182,0 91.56085616936767,23.66160204806976,0 91.56077617802676,23.6618427145014,0 91.56063124948059,23.66226014050693,0 91.56062476336439,23.66243421652478,0 91.5605501489699,23.66234374564004,0 91.56045160324494,23.66232225527652,0 91.56030596379365,23.66230888200807,0 91.5602416972508,23.6622019063533,0 91.56014833376902,23.66198981178405,0 91.56004896450176,23.66194015373848,0 91.55983575616609,23.66185854748352,0 91.55977433762573,23.66163365730261,0 91.55968265257965,23.66151711039566,0 91.55944480580965,23.66120444324043,0 91.55943855798775,23.66110023411695,0 91.55942782657903,23.66101023120248,0 91.55940482072077,23.66098393521021,0 91.55936426421229,23.66095787648555,0 91.55932305284733,23.66095341568619,0 91.55929963555398,23.66093275017684,0 91.55924680298108,23.66089156894361,0 91.55921157963603,23.66086057317723,0 91.55918821834105,23.66083453887725,0 91.55917667869031,23.66080828389831,0 91.55914776377591,23.6607558188029,0 91.5591070639026,23.66071400646402,0 91.5590897509405,23.66068249669388,0 91.55905491768215,23.66064061047059,0 91.55903749936624,23.66061966549132,0 91.55902015572435,23.66060391726522,0 91.55899751494054,23.66058260476271,0 91.55898055931699,23.66056661799627,0 91.55895782505333,23.66055063942577,0 91.55892352978778,23.66053467084743,0 91.55889474779974,23.66052935480581,0 91.55883778854763,23.66051838664556,0 91.55877099326592,23.66050128717209,0 91.55872118783431,23.66048447217431,0 91.55868820980145,23.66046796868931,0 91.55864966377739,23.66044619760443,0 91.55862761684755,23.66043528592158,0 91.55857854040428,23.66040274179151,0 91.55852368893787,23.66038074729564,0 91.55849096585851,23.66036960205011,0 91.55846463169718,23.66033742938491,0 91.55843325105273,23.66029469107186,0 91.55842368051489,23.6602576616833,0 91.55841947974211,23.6602363659787,0 91.55840563115392,23.66019376677243,0 91.55840176855619,23.66016727143887,0 91.5584027257743,23.66015144093981,0 91.55836203056394,23.66010341502908,0 91.55833594478793,23.66008723695253,0 91.5583213634127,23.66006591343248,0 91.55829581053987,23.66004967910356,0 91.55825970893137,23.6600332876946,0 91.55822479172497,23.66000127549659,0 91.55818963036498,23.65997458258371,0 91.5581643219449,23.65995854876019,0 91.5581229847219,23.65994237110002,0 91.55808514066186,23.65986437347879,0 91.5580703418739,23.65984361768696,0 91.55803447693845,23.65982266038715,0 91.55801581614365,23.65977630225788,0 91.55798646179382,23.65971986373137,0 91.55797668798282,23.65969432442528,0 91.55795156427311,23.65964332113753,0 91.55793238112948,23.65958732796129,0 91.55791739274662,23.65954671991277,0 91.55789651442019,23.65950617887421,0 91.55783843580323,23.65941510184977,0 91.5577343003104,23.65899347288965,0 91.55763623955677,23.65869973391223,0 
					</coordinates>
				</LinearRing>
			</outerBoundaryIs>
		</Polygon>
		<atom:link rel="app" href="https://www.google.com/earth/about/versions/#earth-pro" title="Google Earth Pro 7.3.7.1155"></atom:link>
	</Placemark>
</Document>
</kml>
