<?xml version="1.0" encoding="UTF-8"?>
<kml xmlns="http://www.opengis.net/kml/2.2" xmlns:gx="http://www.google.com/kml/ext/2.2" xmlns:kml="http://www.opengis.net/kml/2.2" xmlns:atom="http://www.w3.org/2005/Atom">
<Document>
	<name>1778486946252.kml</name>
	<StyleMap id="msn_ylw-pushpin">
		<Pair>
			<key>normal</key>
			<styleUrl>#sn_ylw-pushpin</styleUrl>
		</Pair>
		<Pair>
			<key>highlight</key>
			<styleUrl>#sh_ylw-pushpin</styleUrl>
		</Pair>
	</StyleMap>
	<Style id="sh_ylw-pushpin">
		<IconStyle>
			<scale>1.3</scale>
			<Icon>
				<href>http://maps.google.com/mapfiles/kml/pushpin/ylw-pushpin.png</href>
			</Icon>
			<hotSpot x="20" y="2" xunits="pixels" yunits="pixels"/>
		</IconStyle>
		<BalloonStyle>
		</BalloonStyle>
		<PolyStyle>
			<fill>0</fill>
		</PolyStyle>
	</Style>
	<Style id="sn_ylw-pushpin">
		<IconStyle>
			<scale>1.1</scale>
			<Icon>
				<href>http://maps.google.com/mapfiles/kml/pushpin/ylw-pushpin.png</href>
			</Icon>
			<hotSpot x="20" y="2" xunits="pixels" yunits="pixels"/>
		</IconStyle>
		<BalloonStyle>
		</BalloonStyle>
		<PolyStyle>
			<fill>0</fill>
		</PolyStyle>
	</Style>
	<Placemark>
		<name>1778486946252</name>
		<styleUrl>#msn_ylw-pushpin</styleUrl>
		<Polygon>
			<tessellate>1</tessellate>
			<outerBoundaryIs>
				<LinearRing>
					<coordinates>
						91.58448204320349,23.5416663595533,0 91.58459847864583,23.5416836002757,0 91.58469310840741,23.54167381241914,0 91.58481557916599,23.54172257595174,0 91.58489349574251,23.54175560489042,0 91.58500107313077,23.54183105990096,0 91.58516754465685,23.54186602123978,0 91.58525061115694,23.54194126495762,0 91.5853084697292,23.54199839055873,0 91.58538062477909,23.54203218681378,0 91.58541795151535,23.54206046307501,0 91.58547674010299,23.54198989365169,0 91.58563647418927,23.5419625994696,0 91.58576320797985,23.54189864404277,0 91.58580426828732,23.54182235195244,0 91.58586802441251,23.54176931583323,0 91.58597396568086,23.54173554413159,0 91.5860949175858,23.54174698530985,0 91.58613373559776,23.54168584120282,0 91.58620296077873,23.54163936403131,0 91.58627285828484,23.54160911830156,0 91.58633277276319,23.54154118130321,0 91.58638883880464,23.54148005635111,0 91.5865000289851,23.541475382868,0 91.5866083902543,23.54148450997237,0 91.58669085546411,23.54154192765427,0 91.58695127981257,23.54155439528149,0 91.5870006990182,23.54160797147454,0 91.58699630000442,23.54167386995575,0 91.58698435023061,23.54171039969666,0 91.58705467477184,23.54173106114004,0 91.58707528751839,23.54180076913275,0 91.58696382127175,23.54198053722488,0 91.58698651588762,23.54207105523293,0 91.58712028114897,23.54214027798941,0 91.58713556985315,23.5421895158919,0 91.587108407217,23.54221492227406,0 91.58713040712647,23.54227975214642,0 91.5872005528291,23.54239041509328,0 91.58717882372503,23.54252098056226,0 91.58710136411887,23.54262451203848,0 91.58702424590841,23.542660594348,0 91.58693450063919,23.5426812363385,0 91.58689398061186,23.54282654589734,0 91.58688120517755,23.54289591817295,0 91.58676670152187,23.54297439704265,0 91.58674936130868,23.54302692048561,0 91.58669634406401,23.54309852336547,0 91.58659496214452,23.54315132727145,0 91.58646621252043,23.54316866469001,0 91.58638290024471,23.54320724213915,0 91.58635146687968,23.54329370512897,0 91.58634228665558,23.54332731330827,0 91.58625560925616,23.54335739518815,0 91.58611595603182,23.54337504799264,0 91.58605980254336,23.5434030988653,0 91.58600495697043,23.5434495638355,0 91.58577304950353,23.54347524833268,0 91.58561585338164,23.54344946230596,0 91.58553954451162,23.54337567029348,0 91.5854369666467,23.54336173514965,0 91.58538679717428,23.54330275193961,0 91.58518053921753,23.54324689624403,0 91.5849932720876,23.5432013440294,0 91.58471770117831,23.54315039181838,0 91.58454280399262,23.5430635245029,0 91.58442706466099,23.54300716538035,0 91.58427239943883,23.54295208777513,0 91.58414153375382,23.54282662223834,0 91.58396849377053,23.54278635142111,0 91.5838645337393,23.54262519553594,0 91.58389055598558,23.54247784240779,0 91.58385225828265,23.54237555787151,0 91.58389628158569,23.54225197116491,0 91.58390698618673,23.54214022754008,0 91.5839813430771,23.54203756091999,0 91.58402539240497,23.54191129403567,0 91.58402810617625,23.5418521309295,0 91.58404246173762,23.54179465894111,0 91.58412849435578,23.54173908520109,0 91.58421132137639,23.54171166050742,0 91.58427468775625,23.5417390559336,0 91.58439479339432,23.54169820156736,0 91.58448204320349,23.5416663595533,0 
					</coordinates>
				</LinearRing>
			</outerBoundaryIs>
		</Polygon>
		<atom:link rel="app" href="https://www.google.com/earth/about/versions/#earth-pro" title="Google Earth Pro 7.3.7.1155"></atom:link>
	</Placemark>
</Document>
</kml>
