<?xml version="1.0" encoding="UTF-8"?>
<kml xmlns="http://www.opengis.net/kml/2.2" xmlns:gx="http://www.google.com/kml/ext/2.2" xmlns:kml="http://www.opengis.net/kml/2.2" xmlns:atom="http://www.w3.org/2005/Atom">
<Document>
	<name>Pre-Survey Map of AR Bamboo plantation over 10.0ha at Abhicharan JFMC of  Khengrai Beat under Mandwi Range during the financial .kml</name>
	<StyleMap id="msn_ylw-pushpin">
		<Pair>
			<key>normal</key>
			<styleUrl>#sn_ylw-pushpin</styleUrl>
		</Pair>
		<Pair>
			<key>highlight</key>
			<styleUrl>#sh_ylw-pushpin</styleUrl>
		</Pair>
	</StyleMap>
	<Style id="sh_ylw-pushpin">
		<IconStyle>
			<scale>1.3</scale>
			<Icon>
				<href>http://maps.google.com/mapfiles/kml/pushpin/ylw-pushpin.png</href>
			</Icon>
			<hotSpot x="20" y="2" xunits="pixels" yunits="pixels"/>
		</IconStyle>
		<BalloonStyle>
		</BalloonStyle>
		<LineStyle>
			<width>2.5</width>
		</LineStyle>
		<PolyStyle>
			<fill>0</fill>
		</PolyStyle>
	</Style>
	<Style id="sn_ylw-pushpin">
		<IconStyle>
			<scale>1.1</scale>
			<Icon>
				<href>http://maps.google.com/mapfiles/kml/pushpin/ylw-pushpin.png</href>
			</Icon>
			<hotSpot x="20" y="2" xunits="pixels" yunits="pixels"/>
		</IconStyle>
		<BalloonStyle>
		</BalloonStyle>
		<LineStyle>
			<width>2.5</width>
		</LineStyle>
		<PolyStyle>
			<fill>0</fill>
		</PolyStyle>
	</Style>
	<Placemark>
		<name>Pre-Survey Map of AR Bamboo plantation over 10.0ha at Abhicharan JFMC of  Khengrai Beat under Mandwi Range during the financial Year 2026-27. a-11_4_54</name>
		<visibility>0</visibility>
		<styleUrl>#msn_ylw-pushpin</styleUrl>
		<Polygon>
			<tessellate>1</tessellate>
			<outerBoundaryIs>
				<LinearRing>
					<coordinates>
						91.51365911456141,23.91014189298802,0 91.51382850059613,23.90993684640036,0 91.51395342020558,23.90975108945191,0 91.5141829502241,23.90971478011294,0 91.51432532585287,23.90975535050205,0 91.5143793689045,23.9096095464802,0 91.51434005845908,23.9095415853562,0 91.51430167789859,23.90933919813632,0 91.51429453602358,23.90912602649737,0 91.51410016705233,23.90904186011657,0 91.51413167140915,23.90897733772687,0 91.51427876574505,23.90861655247936,0 91.51442198890415,23.90851578789134,0 91.5145427912649,23.90837142883019,0 91.5144698060772,23.90830160393491,0 91.51447574378038,23.90820957981107,0 91.51437720709256,23.90813592237678,0 91.51424652725214,23.90813853777672,0 91.51414940513818,23.90811548628337,0 91.51368952062559,23.90804029414997,0 91.51364664445467,23.90798064589866,0 91.51357366957636,23.90802650088154,0 91.51345371446531,23.9079699009298,0 91.51338263044669,23.9077423344255,0 91.51345871138072,23.9076044382469,0 91.51354640514401,23.90755943839497,0 91.51364796048567,23.90749520674793,0 91.51373986107792,23.90750814994174,0 91.51380299998722,23.90741413459559,0 91.51380187253486,23.9073679029424,0 91.51380238115591,23.90736023695858,0 91.51380339711308,23.90734492287857,0 91.51380441161467,23.90732963263498,0 91.51380542459722,23.90731436626448,0 91.51380668835084,23.90729531665832,0 91.51381047100887,23.90719192826047,0 91.51403324459828,23.90722425678944,0 91.51414270504215,23.90699563801707,0 91.51417965164688,23.90684255409225,0 91.51457081061702,23.90663241456348,0 91.51459104112365,23.90662893338624,0 91.5146113867864,23.90662194099321,0 91.51463571746456,23.90661497940734,0 91.51465188709392,23.90661151372957,0 91.51466816621428,23.90660453480485,0 91.51468843968519,23.90659757474986,0 91.51470870531476,23.90659060651469,0 91.5147208418162,23.90658711973789,0 91.51473308039135,23.90658011693856,0 91.514753135064,23.90658013022593,0 91.514777222359,23.90658011115466,0 91.51479729400067,23.90658009551076,0 91.51481736458614,23.90658007974631,0 91.51484947534188,23.90658005448419,0 91.51487355663851,23.90658003560987,0 91.51489362311619,23.90658001959505,0 91.51490972193803,23.90657652391504,0 91.51492584918805,23.90657290619027,0 91.51494602648603,23.90656574086796,0 91.51495810864455,23.90656214682918,0 91.51498634655755,23.906544467201,0 91.51499838408617,23.90654089033107,0 91.51501046345635,23.90653035673877,0 91.51503448884723,23.9065197811451,0 91.51505847228559,23.90650577816154,0 91.51507441958323,23.90649876703806,0 91.51508636799217,23.90649176667186,0 91.51510227273805,23.90648121354068,0 91.51512607715416,23.90647745915862,0 91.51513795885835,23.90647386577997,0 91.51516168001451,23.90646668840913,0 91.51517746973732,23.90646305549924,0 91.51518931493023,23.90646290311769,0 91.51520904028585,23.90646264976641,0 91.51522874483013,23.90646239636192,0 91.51525629462378,23.90646203703726,0 91.51527199806844,23.90646177235262,0 91.51528773364109,23.90646492496906,0 91.51530732093687,23.90646458940073,0 91.51532687950584,23.90646425112288,0 91.51535044699699,23.90647067119862,0 91.51537400042824,23.90647708738163,0 91.51538982395297,23.90648705814317,0 91.51541353222484,23.90650031182587,0 91.51543300756582,23.90649995983925,0 91.51544858056418,23.90649969613863,0 91.51546024995224,23.90649949849537,0 91.51547957733558,23.90649575491281,0 91.51549897662068,23.90649542854555,0 91.51551834110006,23.90649509033712,0 91.51553791765579,23.90650157343137,0 91.51556496320742,23.90650109363284,0 91.51558438251983,23.90650415930705,0 91.5155960808999,23.90650736131992,0 91.5156077007387,23.9065072185567,0 91.51562334767861,23.90651045810044,0 91.51563884550866,23.90651028742998,0 91.5156547892414,23.90652034886915,0 91.515663307778,23.90653735036597,0 91.51566408186,23.90655448588594,0 91.51566516929046,23.90657855556012,0 91.51566610586072,23.90659926224414,0 91.51566673327405,23.90661310681289,0 91.51568265661221,23.90661983280836,0 91.51570994821331,23.90661946950658,0 91.51572163505661,23.90661931382908,0 91.51574110048767,23.90661905475181,0 91.51584116222269,23.90660055950892,0 91.51590342338108,23.90672517720211,0 91.5160276293318,23.90681913533322,0 91.51610021027997,23.90694056251918,0 91.51622775999869,23.90705535559398,0 91.51642310177243,23.90700067374244,0 91.51664348095719,23.90707250924256,0 91.51682610423731,23.90720325527911,0 91.51703778014176,23.90736810261682,0 91.51718288779654,23.90754377109071,0 91.51724291451382,23.907713539135,0 91.51750203383421,23.90785369904554,0 91.51750933377511,23.90797221423431,0 91.51744754048062,23.90813898015214,0 91.51727366414025,23.90814678084751,0 91.51704926851002,23.90806165479503,0 91.51683506952467,23.90802190517967,0 91.51661828960046,23.9079769289574,0 91.51631554884783,23.90784734467342,0 91.51618489399866,23.90776081592351,0 91.51606030040237,23.90791743963112,0 91.51610258500196,23.90806017471849,0 91.51612225580318,23.90819703745211,0 91.51615568040627,23.90833294837479,0 91.5163564349666,23.90839216416206,0 91.51632281079858,23.90848581687453,0 91.51617476917423,23.90855828631672,0 91.51605306188318,23.90859985243375,0 91.51596409343989,23.90854982565513,0 91.51579501181119,23.90856856945582,0 91.51565468302412,23.90857971410135,0 91.51549023530113,23.90868138603925,0 91.51549781337017,23.90879882008775,0 91.51550129046107,23.90894505787092,0 91.51540573528678,23.90913814552201,0 91.51532775374024,23.90930925213411,0 91.5153625232396,23.90936002306609,0 91.51552935289442,23.90942618322366,0 91.51563714399441,23.90954572345233,0 91.51576375191765,23.90960767200057,0 91.5158914874976,23.90960032689757,0 91.51603022129868,23.90966734541663,0 91.5159977758902,23.90983247842478,0 91.51580754271455,23.90989785999944,0 91.5157700075122,23.90999164448776,0 91.51550734814991,23.91025174919183,0 91.51554978888883,23.91039086666472,0 91.5153350295958,23.91074400744102,0 91.51527317300447,23.91068304381665,0 91.5149646499747,23.91063934675116,0 91.51475647413422,23.91053713463842,0 91.51419602058481,23.91055726935939,0 91.5136627209685,23.91019065048717,0 91.51365911456141,23.91014189298802,0 
					</coordinates>
				</LinearRing>
			</outerBoundaryIs>
		</Polygon>
		<atom:link rel="app" href="https://www.google.com/earth/about/versions/#earth-pro" title="Google Earth Pro 7.3.7.1155"></atom:link>
	</Placemark>
</Document>
</kml>
