<?xml version="1.0" encoding="UTF-8"?>
<kml xmlns="http://www.opengis.net/kml/2.2" xmlns:gx="http://www.google.com/kml/ext/2.2" xmlns:kml="http://www.opengis.net/kml/2.2" xmlns:atom="http://www.w3.org/2005/Atom">
<Document>
	<name>AR Bamboo Plant. over 5.0 ha at Naisuk JFMC under Jeolcherra Beat during 2026-27-19_36_8.kml</name>
	<StyleMap id="msn_ylw-pushpin">
		<Pair>
			<key>normal</key>
			<styleUrl>#sn_ylw-pushpin</styleUrl>
		</Pair>
		<Pair>
			<key>highlight</key>
			<styleUrl>#sh_ylw-pushpin</styleUrl>
		</Pair>
	</StyleMap>
	<Style id="sh_ylw-pushpin">
		<IconStyle>
			<scale>1.3</scale>
			<Icon>
				<href>http://maps.google.com/mapfiles/kml/pushpin/ylw-pushpin.png</href>
			</Icon>
			<hotSpot x="20" y="2" xunits="pixels" yunits="pixels"/>
		</IconStyle>
		<BalloonStyle>
		</BalloonStyle>
		<PolyStyle>
			<fill>0</fill>
		</PolyStyle>
	</Style>
	<Style id="sn_ylw-pushpin">
		<IconStyle>
			<scale>1.1</scale>
			<Icon>
				<href>http://maps.google.com/mapfiles/kml/pushpin/ylw-pushpin.png</href>
			</Icon>
			<hotSpot x="20" y="2" xunits="pixels" yunits="pixels"/>
		</IconStyle>
		<BalloonStyle>
		</BalloonStyle>
		<PolyStyle>
			<fill>0</fill>
		</PolyStyle>
	</Style>
	<Placemark>
		<name>AR Bamboo Plant. over 5.0 ha at Naisuk JFMC under Jeolcherra Beat during 2026-27-19_36_8</name>
		<styleUrl>#msn_ylw-pushpin</styleUrl>
		<Polygon>
			<tessellate>1</tessellate>
			<outerBoundaryIs>
				<LinearRing>
					<coordinates>
						91.79265445915773,23.85853421222118,0 91.79257521743963,23.85834632142463,0 91.79257270587199,23.85834184326151,0 91.79257865792529,23.858318749768,0 91.79258206808584,23.85829141964797,0 91.79257949436152,23.85827344519862,0 91.79257720151041,23.85825513171904,0 91.7925786446792,23.85823664333103,0 91.79257394792441,23.85821418776479,0 91.79256189358669,23.85819245463989,0 91.7925472324866,23.85818017485175,0 91.79253494568286,23.85814629191508,0 91.792516637266,23.85813466165104,0 91.79250329029843,23.85811843323538,0 91.79250054132382,23.85784943903524,0 91.79256749070569,23.85770315482595,0 91.7926067476856,23.85752660353089,0 91.792801251277,23.85758715769961,0 91.79295330220572,23.8576544981966,0 91.79316172372732,23.8576327351125,0 91.7933638246321,23.85756725925599,0 91.79355965957224,23.85742217877242,0 91.79373940183696,23.85725365692948,0 91.79404036269459,23.85724256883127,0 91.79419386950181,23.85713371881227,0 91.79439547039922,23.85706042222572,0 91.79457730726088,23.85706098208584,0 91.79470888047705,23.85711398585746,0 91.79489500700947,23.85719354953135,0 91.7950618467335,23.85722185293573,0 91.79501866700751,23.85752368343692,0 91.79496428232564,23.8575787973808,0 91.79487260769318,23.85775750857071,0 91.79487356999451,23.85779573426073,0 91.79486688679656,23.85792878856975,0 91.79483089839712,23.85810783857277,0 91.7949328434982,23.85828406293732,0 91.79499378547183,23.85829820399235,0 91.79504625394004,23.85839694325328,0 91.79501736032171,23.85858274848616,0 91.79504541353023,23.85898540062747,0 91.79476807869801,23.85907911911932,0 91.79390092633338,23.85973355011407,0 91.79372863157039,23.85968390846402,0 91.79324031981361,23.85944851136542,0 91.79292545433675,23.85914091816198,0 91.79257938443378,23.85892233683007,0 91.79265445915773,23.85853421222118,0 
					</coordinates>
				</LinearRing>
			</outerBoundaryIs>
		</Polygon>
		<atom:link rel="app" href="https://www.google.com/earth/about/versions/#earth-pro" title="Google Earth Pro 7.3.7.1155"></atom:link>
	</Placemark>
</Document>
</kml>
