<?xml version="1.0" encoding="UTF-8"?>
<kml xmlns="http://www.opengis.net/kml/2.2" xmlns:gx="http://www.google.com/kml/ext/2.2" xmlns:kml="http://www.opengis.net/kml/2.2" xmlns:atom="http://www.w3.org/2005/Atom">
<Document>
	<name>1778064724723.kml</name>
	<StyleMap id="msn_ylw-pushpin">
		<Pair>
			<key>normal</key>
			<styleUrl>#sn_ylw-pushpin</styleUrl>
		</Pair>
		<Pair>
			<key>highlight</key>
			<styleUrl>#sh_ylw-pushpin</styleUrl>
		</Pair>
	</StyleMap>
	<Style id="sh_ylw-pushpin">
		<IconStyle>
			<scale>1.3</scale>
			<Icon>
				<href>http://maps.google.com/mapfiles/kml/pushpin/ylw-pushpin.png</href>
			</Icon>
			<hotSpot x="20" y="2" xunits="pixels" yunits="pixels"/>
		</IconStyle>
		<BalloonStyle>
		</BalloonStyle>
		<PolyStyle>
			<fill>0</fill>
		</PolyStyle>
	</Style>
	<Style id="sn_ylw-pushpin">
		<IconStyle>
			<scale>1.1</scale>
			<Icon>
				<href>http://maps.google.com/mapfiles/kml/pushpin/ylw-pushpin.png</href>
			</Icon>
			<hotSpot x="20" y="2" xunits="pixels" yunits="pixels"/>
		</IconStyle>
		<BalloonStyle>
		</BalloonStyle>
		<PolyStyle>
			<fill>0</fill>
		</PolyStyle>
	</Style>
	<Placemark>
		<name>1778064724723</name>
		<styleUrl>#msn_ylw-pushpin</styleUrl>
		<Polygon>
			<tessellate>1</tessellate>
			<outerBoundaryIs>
				<LinearRing>
					<coordinates>
						91.68280555232676,23.6939286504486,0 91.68292569086574,23.69392704893657,0 91.68298755449548,23.69389919007272,0 91.68326898745158,23.69390220882657,0 91.68339376092071,23.69387996338171,0 91.68344185137069,23.69385508266628,0 91.68371686356714,23.69385447982955,0 91.68378968172752,23.6938296103564,0 91.68395609461908,23.69379715951728,0 91.684109952988,23.6936221775588,0 91.6844176201037,23.69374421719934,0 91.68463675247867,23.69381252961,0 91.68475401280116,23.69393204598708,0 91.6846983244553,23.69406136771885,0 91.68452123666511,23.69417780434341,0 91.68445999643247,23.6944263187431,0 91.68452092565342,23.69465116980648,0 91.6845406648102,23.69504073892542,0 91.68443166537828,23.695167953147,0 91.68431000453739,23.69535317871784,0 91.68403505987632,23.69550027320557,0 91.68387742905549,23.69552215624774,0 91.68356598459634,23.69560434586827,0 91.68350488165144,23.69573500029079,0 91.68354277637704,23.69583202876794,0 91.683658065863,23.69592009040895,0 91.6836597072983,23.69611646806532,0 91.68349449760642,23.69610213781612,0 91.68331901419478,23.6961880335904,0 91.68324292800123,23.69611127412857,0 91.68310130818163,23.69616547662105,0 91.68280961260366,23.6959557872941,0 91.6824156805335,23.69563872373326,0 91.68211869160825,23.69542717344832,0 91.68199213694922,23.69542178099111,0 91.68215476399193,23.69536543778376,0 91.68225135647222,23.69518843812967,0 91.68219568718524,23.69508510942785,0 91.68212623672271,23.69490251680666,0 91.68206606223447,23.69471721612829,0 91.68192993169555,23.69451738434817,0 91.68187702323449,23.69445075953456,0 91.68186466806577,23.69430115124739,0 91.681751514609,23.69420534521267,0 91.68150029085312,23.69422436283953,0 91.68145355246985,23.69418163103824,0 91.68163321771624,23.69398807029613,0 91.68204654731639,23.69398438459579,0 91.68233735397718,23.69385354778469,0 91.6825772959958,23.69391465496336,0 91.68265276536998,23.69385025987995,0 91.68280555232676,23.6939286504486,0 
					</coordinates>
				</LinearRing>
			</outerBoundaryIs>
		</Polygon>
		<atom:link rel="app" href="https://www.google.com/earth/about/versions/#earth-pro" title="Google Earth Pro 7.3.7.1155"></atom:link>
	</Placemark>
</Document>
</kml>
