<?xml version="1.0" encoding="UTF-8"?>
<kml xmlns="http://www.opengis.net/kml/2.2" xmlns:gx="http://www.google.com/kml/ext/2.2" xmlns:kml="http://www.opengis.net/kml/2.2" xmlns:atom="http://www.w3.org/2005/Atom">
<Document>
	<name>1778579250181.kml</name>
	<StyleMap id="msn_ylw-pushpin">
		<Pair>
			<key>normal</key>
			<styleUrl>#sn_ylw-pushpin</styleUrl>
		</Pair>
		<Pair>
			<key>highlight</key>
			<styleUrl>#sh_ylw-pushpin</styleUrl>
		</Pair>
	</StyleMap>
	<Style id="sh_ylw-pushpin">
		<IconStyle>
			<scale>1.3</scale>
			<Icon>
				<href>http://maps.google.com/mapfiles/kml/pushpin/ylw-pushpin.png</href>
			</Icon>
			<hotSpot x="20" y="2" xunits="pixels" yunits="pixels"/>
		</IconStyle>
		<BalloonStyle>
		</BalloonStyle>
		<PolyStyle>
			<fill>0</fill>
		</PolyStyle>
	</Style>
	<Style id="sn_ylw-pushpin">
		<IconStyle>
			<scale>1.1</scale>
			<Icon>
				<href>http://maps.google.com/mapfiles/kml/pushpin/ylw-pushpin.png</href>
			</Icon>
			<hotSpot x="20" y="2" xunits="pixels" yunits="pixels"/>
		</IconStyle>
		<BalloonStyle>
		</BalloonStyle>
		<PolyStyle>
			<fill>0</fill>
		</PolyStyle>
	</Style>
	<Placemark>
		<name>1778579250181</name>
		<styleUrl>#msn_ylw-pushpin</styleUrl>
		<Polygon>
			<tessellate>1</tessellate>
			<outerBoundaryIs>
				<LinearRing>
					<coordinates>
						91.83476981525089,23.68855062104403,0 91.83442807698633,23.68834520001801,0 91.83443314113123,23.68808681092815,0 91.83476040849284,23.68775159414513,0 91.83475443164134,23.68776248598949,0 91.83473625193304,23.68774074523146,0 91.83472357037668,23.68770838845606,0 91.83471085471136,23.68768149358415,0 91.83469294486255,23.68766503872137,0 91.83465765683118,23.68764821943423,0 91.83462799926194,23.68762616890877,0 91.8345513335203,23.6875762989526,0 91.83443838648786,23.68751573060009,0 91.83437864115133,23.6874828732585,0 91.8343479492779,23.68745590168534,0 91.83426982220888,23.68741229167506,0 91.83366983180748,23.68727920083397,0 91.83409895021605,23.68678395999764,0 91.83441363046758,23.68619076479177,0 91.83391961879781,23.68579339654747,0 91.83427038192784,23.68558691272816,0 91.83462167688775,23.68561502740726,0 91.83518639307644,23.68583218630469,0 91.8362263038517,23.6858062194737,0 91.83677305006448,23.6856253560905,0 91.83724533906978,23.68553456517702,0 91.837667194671,23.68539427764846,0 91.83810005299938,23.685618126012,0 91.83854602763004,23.68574637474006,0 91.83914269345127,23.68568873701378,0 91.83929294405819,23.68562735657448,0 91.84034576808655,23.68582159235679,0 91.84051690613468,23.68592298719267,0 91.84092931251749,23.68630570989459,0 91.84090528747889,23.68663595132497,0 91.84058811125743,23.68684034533714,0 91.84054575564994,23.68695753644114,0 91.84056743503311,23.68721463662262,0 91.84109449143766,23.68768736336482,0 91.84146754008448,23.68799233937839,0 91.84151100564355,23.68856947515339,0 91.84112616097738,23.68889569390989,0 91.84048538417024,23.68906636256976,0 91.84046172243826,23.68906665250518,0 91.84042664435263,23.68908378600447,0 91.84035091552015,23.6891184950116,0 91.84027563239346,23.68915372784646,0 91.84009562915645,23.68923103100039,0 91.84005488488582,23.68924343792401,0 91.84002593260158,23.68924463027088,0 91.83927897778113,23.68925584484023,0 91.83868202845477,23.68921289544587,0 91.83839225770717,23.6888242612706,0 91.83799914492788,23.68884072623436,0 91.83742330045069,23.68911124117457,0 91.83706417473346,23.68918594742476,0 91.83646463282237,23.68921470766379,0 91.83639854856962,23.68915941080284,0 91.835916123118,23.68874350077704,0 91.83476981525089,23.68855062104403,0 
					</coordinates>
				</LinearRing>
			</outerBoundaryIs>
		</Polygon>
		<atom:link rel="app" href="https://www.google.com/earth/about/versions/#earth-pro" title="Google Earth Pro 7.3.7.1155"></atom:link>
	</Placemark>
</Document>
</kml>
