<?xml version="1.0" encoding="UTF-8"?>
<kml xmlns="http://www.opengis.net/kml/2.2" xmlns:gx="http://www.google.com/kml/ext/2.2" xmlns:kml="http://www.opengis.net/kml/2.2" xmlns:atom="http://www.w3.org/2005/Atom">
<Document>
	<name>5 HA ANR THANSABODOL JFMC OF NORTH LONGTHARAI VC.kml</name>
	<StyleMap id="m_ylw-pushpin">
		<Pair>
			<key>normal</key>
			<styleUrl>#s_ylw-pushpin</styleUrl>
		</Pair>
		<Pair>
			<key>highlight</key>
			<styleUrl>#s_ylw-pushpin_hl</styleUrl>
		</Pair>
	</StyleMap>
	<Style id="s_ylw-pushpin">
		<IconStyle>
			<scale>1.1</scale>
			<Icon>
				<href>http://maps.google.com/mapfiles/kml/pushpin/ylw-pushpin.png</href>
			</Icon>
			<hotSpot x="20" y="2" xunits="pixels" yunits="pixels"/>
		</IconStyle>
		<LineStyle>
			<color>ffffaa00</color>
			<width>5</width>
		</LineStyle>
		<PolyStyle>
			<fill>0</fill>
		</PolyStyle>
	</Style>
	<Style id="s_ylw-pushpin_hl">
		<IconStyle>
			<scale>1.3</scale>
			<Icon>
				<href>http://maps.google.com/mapfiles/kml/pushpin/ylw-pushpin.png</href>
			</Icon>
			<hotSpot x="20" y="2" xunits="pixels" yunits="pixels"/>
		</IconStyle>
		<LineStyle>
			<color>ffffaa00</color>
			<width>5</width>
		</LineStyle>
		<PolyStyle>
			<fill>0</fill>
		</PolyStyle>
	</Style>
	<Placemark>
		<name>5 HA ANR THANSABODOL JFMC OF NORTH LONGTHARAI VC</name>
		<styleUrl>#m_ylw-pushpin</styleUrl>
		<Polygon>
			<tessellate>1</tessellate>
			<outerBoundaryIs>
				<LinearRing>
					<coordinates>
						91.97532274091934,23.82238569764883,0 91.9751708974766,23.8223445498663,0 91.97495133676016,23.82233757773742,0 91.97493380691793,23.82233759042822,0 91.97478912331364,23.82234123536018,0 91.97466417718164,23.82230544490691,0 91.97453391605487,23.82224982721917,0 91.97441212766705,23.82209398108702,0 91.97430694213105,23.82202917815086,0 91.97419941732555,23.82191321293404,0 91.9741441324944,23.82185256402371,0 91.97400021943466,23.82186062998982,0 91.97390504321218,23.82193245760476,0 91.97389874077649,23.8220408552746,0 91.97396750210201,23.8221567974342,0 91.97405575791151,23.82224800119192,0 91.97411663944337,23.82230425105736,0 91.97418605476913,23.82237308454539,0 91.97421567566451,23.82237875977179,0 91.97441798476135,23.82244851090202,0 91.97452883735234,23.82250704063626,0 91.97467655672199,23.82259080177738,0 91.9747980133003,23.82260278002702,0 91.97490639463581,23.82261569490939,0 91.97497433108947,23.82263133998241,0 91.97498893898556,23.82252311778473,0 91.97538683863691,23.82272986675578,0 91.97545112167832,23.82279313118339,0 91.9754784792303,23.82285772693256,0 91.97552051990756,23.82299656515623,0 91.9755191540537,23.82321564142579,0 91.97543749587156,23.82338687252264,0 91.97525013704859,23.82345064592207,0 91.97509657267921,23.82345163044196,0 91.97497585524795,23.82334038038745,0 91.97479321352992,23.82368394180001,0 91.97471425801632,23.82348807335761,0 91.97456849799546,23.82326726968672,0 91.97447859404238,23.8232290262364,0 91.97423574382245,23.82324139477858,0 91.97399199604833,23.82369134044336,0 91.97374396059534,23.82379154943553,0 91.97368654392289,23.82322022075078,0 91.97351855368181,23.82300307809309,0 91.9734215642351,23.82286554132855,0 91.97320683981006,23.82275489369725,0 91.97302828383125,23.82270306318911,0 91.97286040170485,23.82271869031313,0 91.97274980880613,23.82264212577544,0 91.9726784834623,23.82252858984557,0 91.97259378218247,23.82249634334019,0 91.9725213592541,23.82248573209359,0 91.9724080481343,23.82239337707226,0 91.97222393274768,23.82249934834644,0 91.97202090390782,23.82263256996567,0 91.97196612887218,23.82262463370235,0 91.97195836199805,23.82253837587362,0 91.97199322942447,23.82234865473635,0 91.97203689590582,23.82217088785037,0 91.97207213128164,23.82205594649862,0 91.97224033685335,23.82173654167032,0 91.97242763772935,23.82143533044584,0 91.97257832885214,23.82128631665878,0 91.97262863287668,23.82124919908099,0 91.97266511275197,23.82119032159793,0 91.9727153992955,23.82107857984823,0 91.97274365417132,23.82100722708839,0 91.97279075124733,23.82095598919665,0 91.97286399601558,23.82086400761983,0 91.97292984331015,23.82084456093034,0 91.97300649584815,23.82081896200332,0 91.97315246402606,23.82085499422904,0 91.97321765532998,23.82086521523218,0 91.97326949773179,23.82087694880041,0 91.97331769818349,23.82090449286873,0 91.97338314136405,23.820939065334,0 91.97348523653497,23.82097533844656,0 91.97367073200347,23.82109550515221,0 91.97380060529723,23.82124350886374,0 91.97381489549382,23.82133459349652,0 91.97384813266231,23.82141415410766,0 91.97386834329804,23.82152090068522,0 91.97390670670229,23.82153215701205,0 91.97403479060102,23.82166562719579,0 91.97406324186684,23.82168139063082,0 91.97418333385001,23.82167089221719,0 91.97422803328472,23.82166208544851,0 91.97430278657451,23.82165994077145,0 91.97433312695033,23.82166638734388,0 91.9743934107849,23.82165473551548,0 91.97449986501152,23.82164043015786,0 91.97461785401174,23.8217034362784,0 91.97471072035336,23.82184044402209,0 91.97483593584721,23.82192566488858,0 91.97487235800126,23.82193698278775,0 91.97493791449693,23.82193771403853,0 91.97498719460236,23.82192793199483,0 91.97504861807148,23.82192138269057,0 91.97512235694408,23.82192170161258,0 91.97521588912872,23.82204018736009,0 91.97526355361636,23.8220801592419,0 91.97539726757074,23.82219123645207,0 91.97503488813506,23.82225863667885,0 91.97517322249702,23.82222635379729,0 91.97526519553848,23.82225494252719,0 91.97533028145698,23.82224557638224,0 91.97543741966632,23.82228131323752,0 91.97532274091934,23.82238569764883,0 
					</coordinates>
				</LinearRing>
			</outerBoundaryIs>
		</Polygon>
		<atom:link rel="app" href="https://www.google.com/earth/about/versions/#earth-pro" title="Google Earth Pro 7.3.7.1155"></atom:link>
	</Placemark>
</Document>
</kml>
