<?xml version="1.0" encoding="UTF-8"?>
<kml xmlns="http://www.opengis.net/kml/2.2" xmlns:gx="http://www.google.com/kml/ext/2.2" xmlns:kml="http://www.opengis.net/kml/2.2" xmlns:atom="http://www.w3.org/2005/Atom">
<Document>
	<name>1778164739562.kml</name>
	<StyleMap id="m_ylw-pushpin">
		<Pair>
			<key>normal</key>
			<styleUrl>#s_ylw-pushpin</styleUrl>
		</Pair>
		<Pair>
			<key>highlight</key>
			<styleUrl>#s_ylw-pushpin_hl</styleUrl>
		</Pair>
	</StyleMap>
	<Style id="s_ylw-pushpin">
		<IconStyle>
			<scale>1.1</scale>
			<Icon>
				<href>http://maps.google.com/mapfiles/kml/pushpin/ylw-pushpin.png</href>
			</Icon>
			<hotSpot x="20" y="2" xunits="pixels" yunits="pixels"/>
		</IconStyle>
		<PolyStyle>
			<fill>0</fill>
		</PolyStyle>
	</Style>
	<Style id="s_ylw-pushpin_hl">
		<IconStyle>
			<scale>1.3</scale>
			<Icon>
				<href>http://maps.google.com/mapfiles/kml/pushpin/ylw-pushpin.png</href>
			</Icon>
			<hotSpot x="20" y="2" xunits="pixels" yunits="pixels"/>
		</IconStyle>
		<PolyStyle>
			<fill>0</fill>
		</PolyStyle>
	</Style>
	<Placemark>
		<name>1778164739562.kml</name>
		<styleUrl>#m_ylw-pushpin</styleUrl>
		<Polygon>
			<tessellate>1</tessellate>
			<outerBoundaryIs>
				<LinearRing>
					<coordinates>
						92.05098069696948,24.11367976073484,0 92.05095629829519,24.11363395473863,0 92.05094814675039,24.11360807947575,0 92.05098609886548,24.11347306180744,0 92.05084095841882,24.1133419848499,0 92.05083795155278,24.11329855032267,0 92.05077514801665,24.11328541411042,0 92.05073677839165,24.11328114215229,0 92.05058502826759,24.11318130530601,0 92.05058158021782,24.11318192959633,0 92.05057668296394,24.11318161115805,0 92.05057390249921,24.11318308311044,0 92.05058640814669,24.11317506867172,0 92.05056943113597,24.11319671338343,0 92.05060024950059,24.11316785366611,0 92.05056752165392,24.11320587057969,0 92.05070968358957,24.11325460960452,0 92.05056921695197,24.11317457320947,0 92.05035959661801,24.11304192768839,0 92.05034626297422,24.11307065767172,0 92.05043536550205,24.11310659813505,0 92.0504375653195,24.11310736618744,0 92.05047618357202,24.1131194280508,0 92.05035237887104,24.11306695905713,0 92.050285941944,24.11300637976908,0 92.05023939284139,24.11293705106706,0 92.05020707178868,24.11285398927955,0 92.05018057799784,24.11276825152841,0 92.05017199720903,24.11273374300557,0 92.050157946703,24.1127237703891,0 92.05013673725935,24.1126982651435,0 92.05010662038724,24.11266494797776,0 92.05005074109836,24.11254972395144,0 92.05003985813863,24.11249007387592,0 92.05005808257567,24.11243188667805,0 92.05008245268635,24.11239495555119,0 92.05005948427159,24.11233558039585,0 92.05006203373887,24.11230734514599,0 92.05009189821668,24.11227333951034,0 92.05012024543345,24.11224977998058,0 92.05015231967252,24.11223748085407,0 92.05016489838239,24.11220447500244,0 92.05018362570225,24.11220363182962,0 92.0502135005472,24.11217926311935,0 92.0502418221826,24.11215261505864,0 92.05028435899439,24.11213952661531,0 92.05032142946288,24.11210511917175,0 92.05032828604362,24.11212572561923,0 92.05036396726824,24.11208185626331,0 92.05040230824032,24.11207329034302,0 92.05041690724417,24.11205491394026,0 92.05048391347825,24.1119805830613,0 92.05051439971167,24.11188460434266,0 92.05051850552684,24.11178796518899,0 92.05050967906926,24.11171410672234,0 92.05050878325804,24.11163872796067,0 92.05049197339598,24.11161105351393,0 92.05050844804927,24.11158616032356,0 92.05049728012548,24.11152840078152,0 92.05045696977534,24.11147749562579,0 92.05045873161501,24.11143768576814,0 92.05045525791544,24.11139230268196,0 92.05044662040179,24.11137216997022,0 92.05044262689498,24.11136125122873,0 92.0504521657829,24.11134151295946,0 92.05045727350858,24.11132494055099,0 92.05046979002836,24.11129153684817,0 92.05047029482161,24.11128269193471,0 92.05047784344474,24.11126368425286,0 92.05046210605789,24.11122134470342,0 92.05046630547727,24.11120414737438,0 92.05046673132347,24.11119417780713,0 92.05048481525354,24.11118886207489,0 92.05050783108842,24.11118997985207,0 92.05052987760216,24.11119119221535,0 92.05054297464616,24.11119821253995,0 92.05056227480699,24.11119762729576,0 92.05056926918131,24.11119400260131,0 92.05057414053559,24.11120379500202,0 92.050586872203,24.11120375293506,0 92.05060623902949,24.11120520853074,0 92.05061726627457,24.11120017384685,0 92.05064178998995,24.1111900099625,0 92.0506557875744,24.11117692930062,0 92.05067479879268,24.11116867892941,0 92.05068693841136,24.11117153773242,0 92.05070418446114,24.11116983540847,0 92.05072348305899,24.11117504670811,0 92.05074039550946,24.11117132298343,0 92.05075180080713,24.11116816221066,0 92.05076129916631,24.11117433381042,0 92.05077604074599,24.11116904331318,0 92.05081018577151,24.11117526470555,0 92.05082847011411,24.1111632488688,0 92.05084508271332,24.11115663006713,0 92.05086905212754,24.11115737322601,0 92.05088885956411,24.11116007486882,0 92.05091087201565,24.11115619659352,0 92.05092873229715,24.11115922329672,0 92.05093852104429,24.11116121215971,0 92.05095207507111,24.11116881790914,0 92.05097064448479,24.11116803369116,0 92.05099624345134,24.11120227556571,0 92.05100461469084,24.11120340530909,0 92.05100682835462,24.11121851132427,0 92.05102451452194,24.11121255764201,0 92.05103205427277,24.11121289072106,0 92.05105010576823,24.1112252725917,0 92.05106399138332,24.11124981402736,0 92.05106337100557,24.11126525326223,0 92.05107522123541,24.11128476753729,0 92.05108493332845,24.11128207070766,0 92.05108811976142,24.11131168496293,0 92.05108762970853,24.11132413183927,0 92.05107080605399,24.11133413485663,0 92.05105990378067,24.1113475254963,0 92.05105210981795,24.11136657084287,0 92.05105212062278,24.11140661004817,0 92.0510525181089,24.11145647605229,0 92.05106252411757,24.11153082294947,0 92.05107137715531,24.11157287646067,0 92.05106683801357,24.11159177425539,0 92.05109245517336,24.11160157953507,0 92.0511327502353,24.1116470661556,0 92.05116572474002,24.11171405534962,0 92.05122596841366,24.11173895316026,0 92.05120237783142,24.11173811805567,0 92.05122585780678,24.11179203451424,0 92.0512551777128,24.11185774437284,0 92.05126989215243,24.1118583342026,0 92.05129434434247,24.11185673272047,0 92.05132567286756,24.11184401006977,0 92.05132503315248,24.11190096029491,0 92.05135840356316,24.11187173074006,0 92.05137229564784,24.11196732018399,0 92.05141903071613,24.11199323741227,0 92.05138805823843,24.11198143364534,0 92.05143684174143,24.11208253333455,0 92.05140601576805,24.1120905082549,0 92.05139074292954,24.11209938817301,0 92.05137124644703,24.11213975241233,0 92.05134419212204,24.11215891460079,0 92.05133119431514,24.1121995492497,0 92.05132519813402,24.11224459198894,0 92.05138871737773,24.11232845870952,0 92.05134800066349,24.11228270377268,0 92.05135426617292,24.11233186314603,0 92.05136455453113,24.11234524653092,0 92.05138706716225,24.11235139550336,0 92.05137808193753,24.11237947672096,0 92.05138568552496,24.11245277241862,0 92.05137214185174,24.11242763811616,0 92.05135596024732,24.11239190249979,0 92.05138140807864,24.11247578266835,0 92.05139307003773,24.11251439619232,0 92.05140732901069,24.11254836377039,0 92.05142325436692,24.11255607679014,0 92.05141706096769,24.11259408519267,0 92.05142901053219,24.11262538888994,0 92.05141426819915,24.11265180527749,0 92.05143440432452,24.11268391476864,0 92.05145719642536,24.11271092017266,0 92.05144943759882,24.11276033578373,0 92.05145652505325,24.11281144512817,0 92.05145945453954,24.11284958881253,0 92.05147424349536,24.11288904018928,0 92.0515080076601,24.1129262279754,0 92.0515226722674,24.11298483947847,0 92.05154969759009,24.1130217227842,0 92.05157585395548,24.11306004557619,0 92.05159282242307,24.11305159095999,0 92.05161356453667,24.11308377996165,0 92.05164468923117,24.11314127983034,0 92.05165809485362,24.11317641370403,0 92.05167601597584,24.11318076603816,0 92.05169818099014,24.11319737707874,0 92.0517443772781,24.1132350011945,0 92.05178827744965,24.11324726094409,0 92.05181204041293,24.11327352628324,0 92.05183425914578,24.11329367606438,0 92.05185975698289,24.11331825294944,0 92.05187169420127,24.11339162398409,0 92.05189477912684,24.11343849892486,0 92.05192530112274,24.11348944713495,0 92.05196076673505,24.11352062559748,0 92.05195735518521,24.1135743156227,0 92.05193903133198,24.11357260455791,0 92.05192713277296,24.11357990547384,0 92.05188649440449,24.11360157529659,0 92.05184774760828,24.1136243053147,0 92.0518259295753,24.1136430216139,0 92.05179166024932,24.11364249481968,0 92.05177775831184,24.11361135388021,0 92.05171758744595,24.1136337149868,0 92.05164122082596,24.11363913545027,0 92.05159237156361,24.11362668897285,0 92.05152021044132,24.11366032736978,0 92.05146763227978,24.11366171207098,0 92.05139619400849,24.11365183045256,0 92.05133666484913,24.1136514814576,0 92.05127036674672,24.11362270130824,0 92.0513091516044,24.11365022963561,0 92.05120375313382,24.11364451238048,0 92.05098069696948,24.11367976073484,0 
					</coordinates>
				</LinearRing>
			</outerBoundaryIs>
		</Polygon>
		<atom:link rel="app" href="https://www.google.com/earth/about/versions/#earth-pro" title="Google Earth Pro 7.3.7.1155"></atom:link>
	</Placemark>
</Document>
</kml>
