<?xml version="1.0" encoding="UTF-8"?>
<kml xmlns="http://www.opengis.net/kml/2.2" xmlns:gx="http://www.google.com/kml/ext/2.2" xmlns:kml="http://www.opengis.net/kml/2.2" xmlns:atom="http://www.w3.org/2005/Atom">
<Document>
	<name>1778157577916.kml</name>
	<StyleMap id="msn_ylw-pushpin">
		<Pair>
			<key>normal</key>
			<styleUrl>#sn_ylw-pushpin</styleUrl>
		</Pair>
		<Pair>
			<key>highlight</key>
			<styleUrl>#sh_ylw-pushpin</styleUrl>
		</Pair>
	</StyleMap>
	<Style id="sh_ylw-pushpin">
		<IconStyle>
			<scale>1.3</scale>
			<Icon>
				<href>http://maps.google.com/mapfiles/kml/pushpin/ylw-pushpin.png</href>
			</Icon>
			<hotSpot x="20" y="2" xunits="pixels" yunits="pixels"/>
		</IconStyle>
		<BalloonStyle>
		</BalloonStyle>
		<PolyStyle>
			<color>00ffffff</color>
			<outline>0</outline>
		</PolyStyle>
	</Style>
	<Style id="sn_ylw-pushpin">
		<IconStyle>
			<scale>1.1</scale>
			<Icon>
				<href>http://maps.google.com/mapfiles/kml/pushpin/ylw-pushpin.png</href>
			</Icon>
			<hotSpot x="20" y="2" xunits="pixels" yunits="pixels"/>
		</IconStyle>
		<BalloonStyle>
		</BalloonStyle>
		<PolyStyle>
			<color>00ffffff</color>
			<outline>0</outline>
		</PolyStyle>
	</Style>
	<Placemark>
		<name>1778157577916.kml</name>
		<styleUrl>#msn_ylw-pushpin</styleUrl>
		<Polygon>
			<tessellate>1</tessellate>
			<outerBoundaryIs>
				<LinearRing>
					<coordinates>
						92.21917743109093,24.18600888462324,0 92.21920423655342,24.18573296457542,0 92.21912190766051,24.18553725867449,0 92.21913701235769,24.18528407196215,0 92.21915705535798,24.18507552856762,0 92.21916402354952,24.18495830038845,0 92.2192399525037,24.18481970593542,0 92.21922579908247,24.18474338222026,0 92.21920033337692,24.18468941307051,0 92.21906853668123,24.18447399188696,0 92.21909206815533,24.18433637628233,0 92.2191135775647,24.18426371276718,0 92.21914232787168,24.18421950658677,0 92.21914074949025,24.18393316204254,0 92.21912649572413,24.18387003724247,0 92.21911913258231,24.18377159660326,0 92.21909417757264,24.1837385668908,0 92.2190466186873,24.1834581189557,0 92.21905691866361,24.18331347739063,0 92.21923983797387,24.18315202066808,0 92.21925664596527,24.18317324262447,0 92.21934044896868,24.18318479722388,0 92.21950797762644,24.18325118255131,0 92.21963992461916,24.1832463283912,0 92.21976977324897,24.18324769220159,0 92.21978726530213,24.18321591849816,0 92.22006167185782,24.18317935293912,0 92.22014762315993,24.1831703282458,0 92.22019377283273,24.1831867554891,0 92.22020179989583,24.18320579522998,0 92.22028535195042,24.18331203760614,0 92.22035441810118,24.18339877717581,0 92.22043329972917,24.18345906970531,0 92.22053068074754,24.18346058912923,0 92.22060670473009,24.18348344533257,0 92.22069151278068,24.18353101258609,0 92.22088977407506,24.18354923286991,0 92.220968976751,24.18362930629414,0 92.22117327451498,24.18364965674785,0 92.22130295797227,24.18375091637995,0 92.22141359052495,24.18375695370662,0 92.22168206699941,24.18395970663576,0 92.2218893714596,24.18411728453349,0 92.22191681972022,24.18416254081761,0 92.22191649046512,24.18437577279866,0 92.2220202779142,24.18454856577372,0 92.22217213472345,24.18479808210317,0 92.22223797959347,24.18483542448875,0 92.2223501854849,24.18492377711701,0 92.22234913208605,24.18494377013044,0 92.22240191246203,24.18503144644915,0 92.22254134753945,24.18512496708692,0 92.2225625867882,24.18513162901673,0 92.22259538226245,24.18513848650771,0 92.22261756872705,24.18515015071223,0 92.22272296034072,24.18519254527608,0 92.22272545600424,24.18523328293862,0 92.22266622379541,24.18526471481568,0 92.22241926161135,24.18526743215717,0 92.22219676771893,24.18524626819786,0 92.22197379057522,24.1852298408114,0 92.22180470025232,24.18518024024094,0 92.22160008522096,24.18506442236691,0 92.22136050786277,24.18498406950357,0 92.22108041704419,24.18489339371204,0 92.22090702040381,24.18484471605243,0 92.22071864148896,24.18495480896223,0 92.22066881152256,24.18504167890069,0 92.22060355214774,24.18515844392946,0 92.22054907073232,24.18520624768257,0 92.22047219758895,24.18534770566737,0 92.22049977030598,24.18541411625463,0 92.22051644138764,24.18564666802654,0 92.22052402667261,24.18568187110776,0 92.22047623669256,24.18581751817857,0 92.22049427421975,24.18605840492167,0 92.22047916481027,24.1860988716385,0 92.22051401842462,24.18622280062407,0 92.22057488029088,24.18633894363214,0 92.22058549755172,24.18639482937001,0 92.22070174553711,24.18653500337852,0 92.22071523075002,24.18675684221504,0 92.22083157313106,24.18688172127638,0 92.22087943776701,24.18691107334248,0 92.22093117555985,24.18696225892401,0 92.22109306747916,24.18707003348822,0 92.22116944498029,24.18717801292797,0 92.22134208072151,24.18724830052784,0 92.2213942269202,24.18733264161376,0 92.22142615600241,24.18737693728337,0 92.22140582030272,24.1875042874301,0 92.2213534233862,24.18761598194619,0 92.22122156909451,24.18785644927285,0 92.22094417509946,24.18799480680404,0 92.22081190199283,24.18799742731325,0 92.22027031444074,24.18798271528986,0 92.21983378909192,24.18794442023328,0 92.21950738527914,24.18782009105458,0 92.21931591824315,24.18773410854071,0 92.21926078834643,24.18758423513248,0 92.21923531864779,24.187253736838,0 92.21924653430992,24.18719733849525,0 92.21927358264676,24.18714304827794,0 92.21928039964041,24.18707635344729,0 92.21933050791914,24.18699455291383,0 92.21932896335611,24.18680974534196,0 92.219322643227,24.18676441092888,0 92.21931936374448,24.18666470073244,0 92.21930735491927,24.1866116841978,0 92.21929738917324,24.18649596389607,0 92.21925453912888,24.1864116218223,0 92.21924154140994,24.18635257473804,0 92.21924641802642,24.1862612284033,0 92.21924144524098,24.18612066306107,0 92.21917743109093,24.18600888462324,0 
					</coordinates>
				</LinearRing>
			</outerBoundaryIs>
		</Polygon>
		<atom:link rel="app" href="https://www.google.com/earth/about/versions/#earth-pro" title="Google Earth Pro 7.3.7.1155"></atom:link>
	</Placemark>
</Document>
</kml>
