<?xml version="1.0" encoding="UTF-8"?>
<kml xmlns="http://www.opengis.net/kml/2.2" xmlns:gx="http://www.google.com/kml/ext/2.2" xmlns:kml="http://www.opengis.net/kml/2.2" xmlns:atom="http://www.w3.org/2005/Atom">
<Document>
	<name>1778069139438.kml</name>
	<StyleMap id="msn_ylw-pushpin">
		<Pair>
			<key>normal</key>
			<styleUrl>#sn_ylw-pushpin</styleUrl>
		</Pair>
		<Pair>
			<key>highlight</key>
			<styleUrl>#sh_ylw-pushpin</styleUrl>
		</Pair>
	</StyleMap>
	<Style id="sh_ylw-pushpin">
		<IconStyle>
			<scale>1.3</scale>
			<Icon>
				<href>http://maps.google.com/mapfiles/kml/pushpin/ylw-pushpin.png</href>
			</Icon>
			<hotSpot x="20" y="2" xunits="pixels" yunits="pixels"/>
		</IconStyle>
		<BalloonStyle>
		</BalloonStyle>
		<PolyStyle>
			<fill>0</fill>
		</PolyStyle>
	</Style>
	<Style id="sn_ylw-pushpin">
		<IconStyle>
			<scale>1.1</scale>
			<Icon>
				<href>http://maps.google.com/mapfiles/kml/pushpin/ylw-pushpin.png</href>
			</Icon>
			<hotSpot x="20" y="2" xunits="pixels" yunits="pixels"/>
		</IconStyle>
		<BalloonStyle>
		</BalloonStyle>
		<PolyStyle>
			<fill>0</fill>
		</PolyStyle>
	</Style>
	<Placemark>
		<name>1778069139438</name>
		<styleUrl>#msn_ylw-pushpin</styleUrl>
		<Polygon>
			<tessellate>1</tessellate>
			<outerBoundaryIs>
				<LinearRing>
					<coordinates>
						91.70981350162863,23.17314486981017,0 91.7093932453176,23.17288008868311,0 91.70942439983551,23.17187310655405,0 91.7093281862449,23.17106321772801,0 91.70890488961255,23.17066002476089,0 91.70842501542485,23.16998536042492,0 91.70856044676188,23.16979317140767,0 91.70879888757253,23.16947915379268,0 91.70898330838727,23.16928646821561,0 91.70911381109735,23.16917273390854,0 91.70921720524652,23.16900282605711,0 91.70922503006906,23.16899254482117,0 91.70925819349355,23.16894289833484,0 91.70927555525861,23.16891404527443,0 91.70932981052366,23.1688514990519,0 91.70936069645751,23.16881103135363,0 91.70940791618284,23.16875772829239,0 91.70963082586883,23.16861623197693,0 91.70978237160219,23.16855711608453,0 91.7101430139688,23.16856799054493,0 91.71034537920556,23.16850868685395,0 91.71051153447272,23.16853020503386,0 91.7106249188749,23.16836346406591,0 91.71072545662975,23.16837512956124,0 91.71084106063043,23.16836713811377,0 91.711009793836,23.16839057645235,0 91.71123380073671,23.16837533695229,0 91.71139230694135,23.16841630052863,0 91.71163572323631,23.16837051240161,0 91.71178378911404,23.16822160632664,0 91.71192922775541,23.16817269823274,0 91.71194201758851,23.16817982101752,0 91.71195516256722,23.16819494658456,0 91.71197668418228,23.16820954828938,0 91.71198993419344,23.1682248131999,0 91.71200740868576,23.1682398635184,0 91.71202493768594,23.16825496080062,0 91.71203812033951,23.16826631469507,0 91.71206089790239,23.16829787307402,0 91.71208337427451,23.16832145950441,0 91.71232557527628,23.16851651706079,0 91.71234395233927,23.16862013964736,0 91.71230407368537,23.16871867254794,0 91.71231835643712,23.1688819569846,0 91.71244433958148,23.16889972262443,0 91.7125299469816,23.16896517923867,0 91.7127497618131,23.16901838006154,0 91.71285392472467,23.1691530752237,0 91.71287947614945,23.1693669190432,0 91.71280759601314,23.16948543814247,0 91.71280308172395,23.16969147062617,0 91.71299309532417,23.16993033185282,0 91.7132083570594,23.17038455614725,0 91.71328442562236,23.17061254206428,0 91.71326452614854,23.17082228908641,0 91.71341530454599,23.17114229003567,0 91.7138204605084,23.17189606639672,0 91.71383098752626,23.17216077567642,0 91.71396017312104,23.17224054629353,0 91.71384557893178,23.17249246891523,0 91.71360803408584,23.17265323754108,0 91.71363858682257,23.17298590521257,0 91.71413386692326,23.17348404404924,0 91.71393768054919,23.17361226317135,0 91.71350236567837,23.17319946376944,0 91.71301209258513,23.17295436094124,0 91.71265415059463,23.17290798571191,0 91.71199694183342,23.17286285009092,0 91.71139655265593,23.17266561761344,0 91.71090872180686,23.17255212056571,0 91.71068308126939,23.17267514753466,0 91.71028866984128,23.17305873310996,0 91.70981350162863,23.17314486981017,0 
					</coordinates>
				</LinearRing>
			</outerBoundaryIs>
		</Polygon>
		<atom:link rel="app" href="https://www.google.com/earth/about/versions/#earth-pro" title="Google Earth Pro 7.3.7.1155"></atom:link>
	</Placemark>
</Document>
</kml>
