<?xml version="1.0" encoding="UTF-8"?>
<kml xmlns="http://www.opengis.net/kml/2.2" xmlns:gx="http://www.google.com/kml/ext/2.2" xmlns:kml="http://www.opengis.net/kml/2.2" xmlns:atom="http://www.w3.org/2005/Atom">
<Document>
	<name>1778579454386.kml</name>
	<StyleMap id="msn_ylw-pushpin">
		<Pair>
			<key>normal</key>
			<styleUrl>#sn_ylw-pushpin</styleUrl>
		</Pair>
		<Pair>
			<key>highlight</key>
			<styleUrl>#sh_ylw-pushpin</styleUrl>
		</Pair>
	</StyleMap>
	<Style id="sh_ylw-pushpin">
		<IconStyle>
			<scale>1.3</scale>
			<Icon>
				<href>http://maps.google.com/mapfiles/kml/pushpin/ylw-pushpin.png</href>
			</Icon>
			<hotSpot x="20" y="2" xunits="pixels" yunits="pixels"/>
		</IconStyle>
		<BalloonStyle>
		</BalloonStyle>
		<PolyStyle>
			<fill>0</fill>
		</PolyStyle>
	</Style>
	<Style id="sn_ylw-pushpin">
		<IconStyle>
			<scale>1.1</scale>
			<Icon>
				<href>http://maps.google.com/mapfiles/kml/pushpin/ylw-pushpin.png</href>
			</Icon>
			<hotSpot x="20" y="2" xunits="pixels" yunits="pixels"/>
		</IconStyle>
		<BalloonStyle>
		</BalloonStyle>
		<PolyStyle>
			<fill>0</fill>
		</PolyStyle>
	</Style>
	<Placemark>
		<name>1778579454386</name>
		<styleUrl>#msn_ylw-pushpin</styleUrl>
		<Polygon>
			<tessellate>1</tessellate>
			<outerBoundaryIs>
				<LinearRing>
					<coordinates>
						91.82695958912717,23.68329251286156,0 91.82651319129951,23.68288967249567,0 91.82641967919429,23.68263302685794,0 91.82617146309809,23.6825422725836,0 91.82577993043995,23.68255268112856,0 91.82558029033487,23.68240042677136,0 91.82556895574456,23.68239536417002,0 91.82555944721491,23.68233684927891,0 91.82555431507269,23.68229250675197,0 91.82554745852839,23.68222549611305,0 91.82554851281562,23.6821838471034,0 91.82554503070845,23.68215669664433,0 91.8255462460092,23.68213877412694,0 91.82554364820761,23.68212059213123,0 91.82562724109543,23.68181448509251,0 91.82579182657123,23.68173814079762,0 91.82598501693498,23.6814910718247,0 91.82621292660932,23.68120798773273,0 91.82653415177458,23.68104205293056,0 91.82726979286619,23.68107769558883,0 91.82733394840514,23.68106857496805,0 91.82798701609003,23.68038007847682,0 91.8293685850245,23.68043204985887,0 91.82955179839121,23.6803644454155,0 91.82986485803566,23.68009464806418,0 91.8299532286301,23.68005243045792,0 91.83017105690348,23.68005823097933,0 91.83021266958106,23.68014418482753,0 91.83033078316278,23.68027259243778,0 91.83041129673963,23.68040090385014,0 91.83053913287014,23.68044840799053,0 91.83062381621149,23.6804903781953,0 91.83072812902927,23.68051875854592,0 91.83085724648923,23.68068376790494,0 91.83094087920631,23.68077365114909,0 91.83097779088814,23.68095195017872,0 91.83084760701941,23.68112052111752,0 91.83071761635965,23.68128307610634,0 91.83055295960298,23.68146029609171,0 91.83030900120255,23.68153877473321,0 91.83004602182562,23.68146668445129,0 91.82984151738297,23.68138005942452,0 91.82961238102564,23.68135710529808,0 91.82942519303509,23.68153753062049,0 91.82933041481326,23.68185570504826,0 91.82931334120578,23.68208824755731,0 91.82926334443282,23.68224436732453,0 91.82907748174797,23.68230878301318,0 91.829061698674,23.6823128073279,0 91.82904513320372,23.68230590817996,0 91.82901604598361,23.68228917200234,0 91.82898789084223,23.68228429647228,0 91.82896769017698,23.68227913288205,0 91.82895939074527,23.68227353634144,0 91.82865522906147,23.6821520910677,0 91.82850223664961,23.68228469795767,0 91.82834123550739,23.68270913166282,0 91.82757727721985,23.68344637741293,0 91.82695958912717,23.68329251286156,0 
					</coordinates>
				</LinearRing>
			</outerBoundaryIs>
		</Polygon>
		<atom:link rel="app" href="https://www.google.com/earth/about/versions/#earth-pro" title="Google Earth Pro 7.3.7.1155"></atom:link>
	</Placemark>
</Document>
</kml>
