<?xml version="1.0" encoding="UTF-8"?>
<kml xmlns="http://www.opengis.net/kml/2.2" xmlns:gx="http://www.google.com/kml/ext/2.2" xmlns:kml="http://www.opengis.net/kml/2.2" xmlns:atom="http://www.w3.org/2005/Atom">
<Document>
	<name>1778562745435.kml</name>
	<StyleMap id="msn_ylw-pushpin">
		<Pair>
			<key>normal</key>
			<styleUrl>#sn_ylw-pushpin</styleUrl>
		</Pair>
		<Pair>
			<key>highlight</key>
			<styleUrl>#sh_ylw-pushpin</styleUrl>
		</Pair>
	</StyleMap>
	<Style id="sh_ylw-pushpin">
		<IconStyle>
			<scale>1.3</scale>
			<Icon>
				<href>http://maps.google.com/mapfiles/kml/pushpin/ylw-pushpin.png</href>
			</Icon>
			<hotSpot x="20" y="2" xunits="pixels" yunits="pixels"/>
		</IconStyle>
		<BalloonStyle>
		</BalloonStyle>
		<LineStyle>
			<color>ffff55ff</color>
			<width>4.3</width>
		</LineStyle>
		<PolyStyle>
			<color>4dffffff</color>
		</PolyStyle>
	</Style>
	<Style id="sn_ylw-pushpin">
		<IconStyle>
			<scale>1.1</scale>
			<Icon>
				<href>http://maps.google.com/mapfiles/kml/pushpin/ylw-pushpin.png</href>
			</Icon>
			<hotSpot x="20" y="2" xunits="pixels" yunits="pixels"/>
		</IconStyle>
		<BalloonStyle>
		</BalloonStyle>
		<LineStyle>
			<color>ffff55ff</color>
			<width>4.3</width>
		</LineStyle>
		<PolyStyle>
			<color>4dffffff</color>
		</PolyStyle>
	</Style>
	<Placemark>
		<name>1778562745435</name>
		<styleUrl>#msn_ylw-pushpin</styleUrl>
		<Polygon>
			<tessellate>1</tessellate>
			<outerBoundaryIs>
				<LinearRing>
					<coordinates>
						91.56264567003279,23.9914620788313,0 91.56250952649779,23.99147337373646,0 91.56236604105843,23.99136378753183,0 91.56236068113161,23.99136075296621,0 91.5623547746543,23.99136360315166,0 91.56234886122439,23.99136645668894,0 91.56234308403383,23.99136783838942,0 91.56233618626459,23.99136624856755,0 91.5623281843863,23.99136169500561,0 91.56232020179269,23.9913571523627,0 91.56231068230676,23.99135406186175,0 91.56230522794613,23.9913525073161,0 91.56229977849682,23.99135095415328,0 91.56229045456185,23.9913464155102,0 91.56228222691648,23.99134481836073,0 91.56227015229373,23.99134024380526,0 91.5622541010255,23.99133416243053,0 91.56224870475471,23.99133262259295,0 91.56217190227234,23.99130517839179,0 91.56208031302096,23.99130299391083,0 91.56196408171621,23.99129846109678,0 91.56188095220821,23.99125811171402,0 91.5618806796934,23.99125948169487,0 91.56187571684971,23.99125676117004,0 91.56187268554027,23.99125130696932,0 91.56186938663387,23.99124722849134,0 91.56186334784137,23.99124316658142,0 91.56186143481987,23.99123909843791,0 91.56185761939965,23.99123098453301,0 91.5618549062025,23.99122424419999,0 91.56185440899296,23.99122017934029,0 91.56185424115981,23.99121473962495,0 91.5618149183655,23.99104199272386,0 91.56183095596907,23.99102951167373,0 91.56183224327924,23.99102951753715,0 91.56183770147865,23.99102829137061,0 91.56184315659094,23.99102706599567,0 91.56185118107162,23.99102585286316,0 91.5618556457889,23.99102337667916,0 91.56186108912803,23.9910221541793,0 91.56186781416208,23.99102093812429,0 91.56187809492236,23.991020984077,0 91.56188966297009,23.99102103577844,0 91.56189766462606,23.99101982587958,0 91.56190823180627,23.99101862806899,0 91.56191770025418,23.99101623783503,0 91.56194172096748,23.99101659025283,0 91.56196345419646,23.9910167688459,0 91.56197628442214,23.99101684854867,0 91.56198526778175,23.99101690431879,0 91.56220559745339,23.99103772801737,0 91.56249671784902,23.99110990935809,0 91.56283079134064,23.99119691071081,0 91.56308679326746,23.99126341896718,0 91.56332691906967,23.99135632910712,0 91.56350090779677,23.99142066988298,0 91.56348935020981,23.99147319959408,0 91.56346364994933,23.99154183434486,0 91.56337190160824,23.9915924325191,0 91.56331058706287,23.9915749435135,0 91.56311642023753,23.99157215320253,0 91.56299988458728,23.99154969402391,0 91.56290729226004,23.99153382055002,0 91.56281527238832,23.99151324496952,0 91.5627374396208,23.99145653562947,0 91.56264567003279,23.9914620788313,0 
					</coordinates>
				</LinearRing>
			</outerBoundaryIs>
		</Polygon>
		<atom:link rel="app" href="https://www.google.com/earth/about/versions/#earth-pro" title="Google Earth Pro 7.3.7.1155"></atom:link>
	</Placemark>
</Document>
</kml>
