<?xml version="1.0" encoding="UTF-8"?>
<kml xmlns="http://www.opengis.net/kml/2.2" xmlns:gx="http://www.google.com/kml/ext/2.2" xmlns:kml="http://www.opengis.net/kml/2.2" xmlns:atom="http://www.w3.org/2005/Atom">
<Document>
	<name>BHarat ch para ANR 30 haa.kml</name>
	<StyleMap id="m_ylw-pushpin4">
		<Pair>
			<key>normal</key>
			<styleUrl>#s_ylw-pushpin4</styleUrl>
		</Pair>
		<Pair>
			<key>highlight</key>
			<styleUrl>#s_ylw-pushpin_hl4</styleUrl>
		</Pair>
	</StyleMap>
	<Style id="s_ylw-pushpin4">
		<IconStyle>
			<scale>1.1</scale>
			<Icon>
				<href>http://maps.google.com/mapfiles/kml/pushpin/ylw-pushpin.png</href>
			</Icon>
			<hotSpot x="20" y="2" xunits="pixels" yunits="pixels"/>
		</IconStyle>
	</Style>
	<Style id="s_ylw-pushpin_hl4">
		<IconStyle>
			<scale>1.3</scale>
			<Icon>
				<href>http://maps.google.com/mapfiles/kml/pushpin/ylw-pushpin.png</href>
			</Icon>
			<hotSpot x="20" y="2" xunits="pixels" yunits="pixels"/>
		</IconStyle>
	</Style>
	<Placemark>
		<name>Untitled Polygon</name>
		<styleUrl>#m_ylw-pushpin4</styleUrl>
		<Polygon>
			<tessellate>1</tessellate>
			<outerBoundaryIs>
				<LinearRing>
					<coordinates>
						91.90032904374011,23.74332485248984,0 91.90036055072045,23.74337907826956,0 91.90042351912047,23.74348745018919,0 91.90048702505398,23.74362283260271,0 91.90070310227802,23.74378377779196,0 91.90079385598445,23.74378328308029,0 91.90082153520751,23.74367505133019,0 91.90081806513074,23.74353993526329,0 91.90081042730999,23.74332497320911,0 91.9008367667159,23.74313449218349,0 91.90117140055018,23.74318735175545,0 91.901322980998,23.74326924427611,0 91.90171869941621,23.74326576032585,0 91.90186857404227,23.74326609291534,0 91.90210437831426,23.74327015724512,0 91.9026946029928,23.74325441487922,0 91.90281543609468,23.74322674906987,0 91.90302968007627,23.74280927254836,0 91.90306027120945,23.74278125177029,0 91.90330389629401,23.74250294294768,0 91.90336400480109,23.74244793277802,0 91.90433422403382,23.7423301655766,0 91.90487602849967,23.74227405473916,0 91.90553462537869,23.7422283527194,0 91.90577525855832,23.74217678718159,0 91.90634937068093,23.74215025908769,0 91.90656069622459,23.74209273254542,0 91.90677185399569,23.74203630765412,0 91.9073458882898,23.74189910628423,0 91.90752745790842,23.74184442955709,0 91.90767860752403,23.74181692423441,0 91.90782983943059,23.74176183719276,0 91.90801138598451,23.74178978147574,0 91.90822279165791,23.74184494183055,0 91.90840380447381,23.74201055659137,0 91.90852446336804,23.7421486058676,0 91.90867577135874,23.7423424281927,0 91.90876664472474,23.74253625813271,0 91.90876751553084,23.74267556530761,0 91.90861886448968,23.74292795255509,0 91.90850025600417,23.74318096262794,0 91.90840964332546,23.74332001492893,0 91.90828536949127,23.74356365190333,0 91.90828431450301,23.74364464506036,0 91.9082825716991,23.74377946388387,0 91.90818906730681,23.74399420223645,0 91.9081273257479,23.74410126603937,0 91.90788479478466,23.74429028177299,0 91.90773419492224,23.74434523858585,0 91.90758362779523,23.74440028450814,0 91.90740274400005,23.74445442081042,0 91.90722175626026,23.7444525964528,0 91.90701080324848,23.74445059137211,0 91.90679999445794,23.74444828900418,0 91.90652913492968,23.7446353619155,0 91.90652905085589,23.74477101747949,0 91.90652887719422,23.74485003247205,0 91.90670896715883,23.74501576042262,0 91.90670914339894,23.74515508432102,0 91.90670919840198,23.74526554449798,0 91.90670917649295,23.74540251421518,0 91.90664895669453,23.74561922635224,0 91.90658877897447,23.74575310523555,0 91.90646868894183,23.74580339174346,0 91.90619908414887,23.74574356839542,0 91.90610929813951,23.74574263397657,0 91.90595942745973,23.74580184069382,0 91.90574925670477,23.74591769793318,0 91.90565910929115,23.74605712898294,0 91.90565909722561,23.7462221157952,0 91.90550888654252,23.74641656240282,0 91.90487798699667,23.7464204416858,0 91.90442476824443,23.74648613466592,0 91.90406213032736,23.74665703656737,0 91.90358077737399,23.74671174498405,0 91.90334177173955,23.74668009243998,0 91.90298646645731,23.74658571117097,0 91.90275308370586,23.74651753391982,0 91.90263791831536,23.74642652794148,0 91.9023438415021,23.74630819920996,0 91.90197985689161,23.74620690598532,0 91.90188760177342,23.74612838525085,0 91.90173354952974,23.74591508816152,0 91.90163849887452,23.74570228983698,0 91.90154640803912,23.74565000086797,0 91.90124020174456,23.74565719394893,0 91.90090782952541,23.7456592076595,0 91.90054926361692,23.74568443107148,0 91.90034141902255,23.74568189959929,0 91.90019366995398,23.74554207712728,0 91.90007883946637,23.74526248866218,0 91.90002435442517,23.74498320159665,0 91.89991362258148,23.74453725891883,0 91.89984958052102,23.74429358674627,0 91.89993111917006,23.74405264305557,0 91.90015616692992,23.74359543906048,0 91.90029998642923,23.74337931400461,0 91.90032904374011,23.74332485248984,0 
					</coordinates>
				</LinearRing>
			</outerBoundaryIs>
		</Polygon>
		<atom:link rel="app" href="https://www.google.com/earth/about/versions/#earth-pro" title="Google Earth Pro 7.3.7.1155"></atom:link>
	</Placemark>
</Document>
</kml>
