<?xml version="1.0" encoding="UTF-8"?>
<kml xmlns="http://www.opengis.net/kml/2.2" xmlns:gx="http://www.google.com/kml/ext/2.2" xmlns:kml="http://www.opengis.net/kml/2.2" xmlns:atom="http://www.w3.org/2005/Atom">
<Document>
	<name>1778166697028.kml</name>
	<StyleMap id="msn_ylw-pushpin">
		<Pair>
			<key>normal</key>
			<styleUrl>#sn_ylw-pushpin</styleUrl>
		</Pair>
		<Pair>
			<key>highlight</key>
			<styleUrl>#sh_ylw-pushpin</styleUrl>
		</Pair>
	</StyleMap>
	<Style id="sh_ylw-pushpin">
		<IconStyle>
			<scale>1.3</scale>
			<Icon>
				<href>http://maps.google.com/mapfiles/kml/pushpin/ylw-pushpin.png</href>
			</Icon>
			<hotSpot x="20" y="2" xunits="pixels" yunits="pixels"/>
		</IconStyle>
		<BalloonStyle>
		</BalloonStyle>
		<LineStyle>
			<width>2.5</width>
		</LineStyle>
		<PolyStyle>
			<fill>0</fill>
		</PolyStyle>
	</Style>
	<Style id="sn_ylw-pushpin">
		<IconStyle>
			<scale>1.1</scale>
			<Icon>
				<href>http://maps.google.com/mapfiles/kml/pushpin/ylw-pushpin.png</href>
			</Icon>
			<hotSpot x="20" y="2" xunits="pixels" yunits="pixels"/>
		</IconStyle>
		<BalloonStyle>
		</BalloonStyle>
		<LineStyle>
			<width>2.5</width>
		</LineStyle>
		<PolyStyle>
			<fill>0</fill>
		</PolyStyle>
	</Style>
	<Placemark>
		<name>1778166697028</name>
		<styleUrl>#msn_ylw-pushpin</styleUrl>
		<Polygon>
			<tessellate>1</tessellate>
			<outerBoundaryIs>
				<LinearRing>
					<coordinates>
						92.09886464628984,24.04789386695446,0 92.09897242327334,24.04774949772514,0 92.09903440868779,24.04772001208441,0 92.09912761855928,24.04765942426207,0 92.09914496758194,24.04758004494923,0 92.09922173638445,24.0475827948181,0 92.09926288737722,24.04755160716326,0 92.09931178391597,24.04761572928316,0 92.09941205128841,24.04765003170206,0 92.09957420280818,24.04766342160461,0 92.09973266611482,24.04765910974547,0 92.09984281288253,24.04775098038861,0 92.0998757045878,24.04786686670492,0 92.09999111289284,24.04784740762773,0 92.10009086146536,24.04786329985625,0 92.10019655993658,24.04779652271241,0 92.10032317366496,24.04779310561485,0 92.10048006650081,24.04773534279128,0 92.10068064616787,24.04769196009067,0 92.10077966002375,24.04775967197321,0 92.10091780403727,24.04776365743273,0 92.10092052898793,24.04791573907364,0 92.10089789844976,24.04798304331019,0 92.10094097758414,24.04807659456126,0 92.10089988859697,24.04833649346786,0 92.10093912099913,24.04847391073802,0 92.10093790307097,24.04854640850784,0 92.10093385404139,24.0485572947327,0 92.10092889460608,24.04858953056632,0 92.10092487450994,24.048601270641,0 92.10092362676316,24.04861220040773,0 92.10091910607221,24.04862790256755,0 92.10091495754286,24.04864007312976,0 92.10091363607953,24.04865140189065,0 92.10091474483964,24.04866569538752,0 92.1009124036655,24.04867391170213,0 92.10090801234787,24.04867532722837,0 92.10090206231978,24.04867699278932,0 92.1008990832529,24.04867782719072,0 92.10089050443604,24.04868735002601,0 92.10088034155126,24.04869738354565,0 92.10087766263825,24.04870536422551,0 92.10087192302235,24.04871426664591,0 92.10086430571425,24.04871643270735,0 92.1008591055603,24.04872157429535,0 92.1008529796229,24.0487233200184,0 92.10085080944802,24.04872761730741,0 92.10084253789906,24.04873391097212,0 92.10083638680462,24.04873575934432,0 92.10083919920933,24.04874664281261,0 92.10084728182163,24.04875207364097,0 92.10085597428802,24.04875338566244,0 92.1008645342223,24.04876670039747,0 92.10087318732714,24.04878015985089,0 92.10088296254844,24.04879755870351,0 92.10091274232613,24.0488755786165,0 92.10093568496535,24.04902465647187,0 92.10094074821853,24.04921540596914,0 92.10099627190243,24.04936446812931,0 92.1010190057378,24.04948312557382,0 92.10117374540944,24.04953414265413,0 92.10123618580889,24.04970206733914,0 92.10118052998905,24.04985712977911,0 92.1011728208851,24.04993589807163,0 92.10076739512489,24.04991122001146,0 92.10072830604132,24.04998598137665,0 92.10059104617825,24.05000578056436,0 92.10047285315568,24.05014711620248,0 92.10024195639245,24.05022514394736,0 92.10005228219514,24.05031880250079,0 92.09984520551114,24.05032889937048,0 92.09981022942051,24.05013888284416,0 92.09972880262465,24.05001324454118,0 92.0995643444023,24.0498539715835,0 92.09936205770822,24.04966791895428,0 92.09927550042072,24.049454815919,0 92.09917937069638,24.04932811749092,0 92.09905056552837,24.04889678284401,0 92.09899176792331,24.04881400678172,0 92.09901737737394,24.04866860319808,0 92.09902958411716,24.0484891874723,0 92.09897495621163,24.04840738624999,0 92.09888966354151,24.04811165552976,0 92.09884545376831,24.04802126225611,0 92.09879287074074,24.04790490628098,0 92.09886464628984,24.04789386695446,0 
					</coordinates>
				</LinearRing>
			</outerBoundaryIs>
		</Polygon>
		<atom:link rel="app" href="https://www.google.com/earth/about/versions/#earth-pro" title="Google Earth Pro 7.3.7.1155"></atom:link>
	</Placemark>
</Document>
</kml>
