<?xml version="1.0" encoding="UTF-8"?>
<kml xmlns="http://www.opengis.net/kml/2.2" xmlns:gx="http://www.google.com/kml/ext/2.2" xmlns:kml="http://www.opengis.net/kml/2.2" xmlns:atom="http://www.w3.org/2005/Atom">
<Document>
	<name>1778166598550.kml</name>
	<StyleMap id="msn_ylw-pushpin">
		<Pair>
			<key>normal</key>
			<styleUrl>#sn_ylw-pushpin</styleUrl>
		</Pair>
		<Pair>
			<key>highlight</key>
			<styleUrl>#sh_ylw-pushpin</styleUrl>
		</Pair>
	</StyleMap>
	<Style id="sh_ylw-pushpin">
		<IconStyle>
			<scale>1.3</scale>
			<Icon>
				<href>http://maps.google.com/mapfiles/kml/pushpin/ylw-pushpin.png</href>
			</Icon>
			<hotSpot x="20" y="2" xunits="pixels" yunits="pixels"/>
		</IconStyle>
		<BalloonStyle>
		</BalloonStyle>
		<LineStyle>
			<width>3</width>
		</LineStyle>
		<PolyStyle>
			<fill>0</fill>
		</PolyStyle>
	</Style>
	<Style id="sn_ylw-pushpin">
		<IconStyle>
			<scale>1.1</scale>
			<Icon>
				<href>http://maps.google.com/mapfiles/kml/pushpin/ylw-pushpin.png</href>
			</Icon>
			<hotSpot x="20" y="2" xunits="pixels" yunits="pixels"/>
		</IconStyle>
		<BalloonStyle>
		</BalloonStyle>
		<LineStyle>
			<width>3</width>
		</LineStyle>
		<PolyStyle>
			<fill>0</fill>
		</PolyStyle>
	</Style>
	<Placemark>
		<name>1778166598550</name>
		<styleUrl>#msn_ylw-pushpin</styleUrl>
		<Polygon>
			<tessellate>1</tessellate>
			<outerBoundaryIs>
				<LinearRing>
					<coordinates>
						92.11680292148981,23.91220273983706,0 92.11695713648095,23.912069695952,0 92.11706159555374,23.91181273470082,0 92.1173324765046,23.91154085875988,0 92.11751539738569,23.91158355603891,0 92.11751261322686,23.91193827374512,0 92.11737060525317,23.91221298081211,0 92.11727089785758,23.91246102909284,0 92.11724256477351,23.91258184106878,0 92.11700456166749,23.9131827798675,0 92.11683719358369,23.91363530123508,0 92.11652050510129,23.91408771699728,0 92.11634929546426,23.91438309784272,0 92.11627158776798,23.91434206785423,0 92.11624447088157,23.91420410665537,0 92.11617684963977,23.91417652478064,0 92.11608880490455,23.91393288247949,0 92.11591105595447,23.91372686626384,0 92.11580416212823,23.91361865083437,0 92.11567528959307,23.91361297044263,0 92.11559801655862,23.91351789733343,0 92.11571836715423,23.91332147836571,0 92.11583111499425,23.91319997683977,0 92.11588891476522,23.91313041040822,0 92.11586106504353,23.91300952516459,0 92.11585841175842,23.91284480232925,0 92.11579272157009,23.91273923431357,0 92.11574498293034,23.91263163114674,0 92.11575679934681,23.91251184420407,0 92.11575553418515,23.91243314658298,0 92.11572490524003,23.91235609764156,0 92.1157213663068,23.91227248635973,0 92.11574833153125,23.91219475647128,0 92.1158442264323,23.9121282278517,0 92.11604307569169,23.91213075318424,0 92.11613791154862,23.91212943907649,0 92.1161942905793,23.91219922436065,0 92.11632161396989,23.91216726905331,0 92.11645721260965,23.91220469908409,0 92.11663108638119,23.91224134088367,0 92.11674037352444,23.91226688915771,0 92.11680292148981,23.91220273983706,0 
					</coordinates>
				</LinearRing>
			</outerBoundaryIs>
		</Polygon>
		<atom:link rel="app" href="https://www.google.com/earth/about/versions/#earth-pro" title="Google Earth Pro 7.3.7.1155"></atom:link>
	</Placemark>
</Document>
</kml>
