<?xml version="1.0" encoding="UTF-8"?>
<kml xmlns="http://www.opengis.net/kml/2.2" xmlns:gx="http://www.google.com/kml/ext/2.2" xmlns:kml="http://www.opengis.net/kml/2.2" xmlns:atom="http://www.w3.org/2005/Atom">
<Document>
	<name>1778222730826.kml</name>
	<StyleMap id="msn_ylw-pushpin">
		<Pair>
			<key>normal</key>
			<styleUrl>#sn_ylw-pushpin</styleUrl>
		</Pair>
		<Pair>
			<key>highlight</key>
			<styleUrl>#sh_ylw-pushpin</styleUrl>
		</Pair>
	</StyleMap>
	<Style id="sh_ylw-pushpin">
		<IconStyle>
			<scale>1.3</scale>
			<Icon>
				<href>http://maps.google.com/mapfiles/kml/pushpin/ylw-pushpin.png</href>
			</Icon>
			<hotSpot x="20" y="2" xunits="pixels" yunits="pixels"/>
		</IconStyle>
		<BalloonStyle>
		</BalloonStyle>
		<PolyStyle>
			<fill>0</fill>
		</PolyStyle>
	</Style>
	<Style id="sn_ylw-pushpin">
		<IconStyle>
			<scale>1.1</scale>
			<Icon>
				<href>http://maps.google.com/mapfiles/kml/pushpin/ylw-pushpin.png</href>
			</Icon>
			<hotSpot x="20" y="2" xunits="pixels" yunits="pixels"/>
		</IconStyle>
		<BalloonStyle>
		</BalloonStyle>
		<PolyStyle>
			<fill>0</fill>
		</PolyStyle>
	</Style>
	<Placemark>
		<name>1778222730826</name>
		<styleUrl>#msn_ylw-pushpin</styleUrl>
		<Polygon>
			<tessellate>1</tessellate>
			<outerBoundaryIs>
				<LinearRing>
					<coordinates>
						91.80414054187229,23.11107647485865,0 91.80440828281691,23.11108377798369,0 91.80466665636027,23.11118291539761,0 91.8048444293681,23.11124475306437,0 91.80499722634997,23.11121691977756,0 91.80529929588911,23.11138529914573,0 91.80531136758715,23.11138917008995,0 91.80535962485017,23.11140828667663,0 91.80539994780838,23.11142704479225,0 91.80541600380093,23.11143817410592,0 91.80544418588143,23.11145678366801,0 91.80545611605532,23.11147146800544,0 91.80548433974111,23.11149371676569,0 91.80550466034839,23.11150497366302,0 91.80552088933413,23.11151617506976,0 91.80553679599949,23.11154207879303,0 91.80555703488109,23.11155423133197,0 91.80556485996496,23.11157300389708,0 91.80557703335134,23.11158106574219,0 91.80558915526464,23.1115928109761,0 91.80560130076505,23.11160457909819,0 91.80562166022985,23.11162055706742,0 91.80564209145149,23.11163316559545,0 91.80566267308453,23.11163853837868,0 91.80567944774853,23.11163163933255,0 91.80569196786425,23.11162854139621,0 91.80571281964218,23.11162242918039,0 91.80573769974585,23.11162443740651,0 91.8057584740245,23.11162611421088,0 91.80577095639217,23.11162712173901,0 91.80578762044726,23.11162846678563,0 91.80580848031086,23.1116301989771,0 91.80581677955726,23.11163496993902,0 91.80584184045846,23.11164120486101,0 91.8058627769271,23.11164709266523,0 91.80588796574861,23.11165373198875,0 91.80590900718876,23.11166040932531,0 91.80592589046414,23.11166657785938,0 91.80595130989485,23.11167381128192,0 91.80597256745473,23.11167643363056,0 91.80599390703047,23.11168730646895,0 91.80600675078465,23.11169302584696,0 91.80602823366213,23.1117039699873,0 91.80604549824261,23.11171442102194,0 91.80648220361417,23.11188563533619,0 91.80649034558078,23.11196122538674,0 91.80690199359981,23.11206882333414,0 91.80704797565613,23.11224695839848,0 91.80733650700347,23.11236553928979,0 91.80750138907946,23.11243070349072,0 91.80765639127758,23.11243347670782,0 91.80768794386633,23.11255854815966,0 91.80768706214623,23.11269401349752,0 91.80777555130391,23.11277934644581,0 91.80797122301581,23.11286190727622,0 91.80798831686045,23.112938945366,0 91.80795353336747,23.1132116240341,0 91.80780734815941,23.11342573659066,0 91.80770342077604,23.11373266840233,0 91.80761122523396,23.11384207727133,0 91.80748704147771,23.11385472253589,0 91.80713674216943,23.11413474133759,0 91.80709798951571,23.11412679718046,0 91.8070422513125,23.11410674284076,0 91.80701427799039,23.11409388011442,0 91.80697660529655,23.11409390538392,0 91.80693316790199,23.11408793936792,0 91.80691171868591,23.11408827505591,0 91.80686896061658,23.11408536850851,0 91.80683680983314,23.11408179457002,0 91.80681436548784,23.11406430639025,0 91.80679238741372,23.11405330905672,0 91.80678585895048,23.11403444576032,0 91.80676314376282,23.11401069861947,0 91.80674693659665,23.1140057190729,0 91.80671965447041,23.11399441874201,0 91.80670368782225,23.11399497683415,0 91.80667195378349,23.11399736419745,0 91.80663493333159,23.11400044827452,0 91.80660315881745,23.11400309520236,0 91.80658230741949,23.1140115729642,0 91.80656104774795,23.1140131676473,0 91.80654499259086,23.11401363501583,0 91.8065290422801,23.11401491668719,0 91.80649178777267,23.11401791012334,0 91.80645480202253,23.11402798735774,0 91.80642810505388,23.11403013643101,0 91.80639603320775,23.11403271792802,0 91.80637985480841,23.1140327047041,0 91.80635284052556,23.11403211542831,0 91.80634254137718,23.11404617515812,0 91.80631550017711,23.11404557082163,0 91.80628868440614,23.11405213530127,0 91.80627287137322,23.11406613566187,0 91.80624035959863,23.11406506460103,0 91.80621916506502,23.114085219898,0 91.80620875386815,23.11410555609738,0 91.8061817943162,23.11411739033624,0 91.80615999662452,23.11411549280995,0 91.80613821452438,23.11411351926432,0 91.80610565898093,23.11411732650501,0 91.80608942348921,23.11412274515057,0 91.80606236717526,23.11413412995671,0 91.8060352520765,23.11414403171174,0 91.80601351872573,23.11414674473632,0 91.80599178390092,23.11414264250779,0 91.80596467203912,23.11413743189829,0 91.80593222336725,23.11413116973479,0 91.80590525334836,23.11412596511286,0 91.80587834743774,23.11412077248356,0 91.80585671989934,23.11413140618784,0 91.80582978068679,23.11413417139869,0 91.80581386619092,23.11411755754869,0 91.80579277220151,23.11409317236308,0 91.805777339158,23.11405586743575,0 91.80575647526786,23.11403177416564,0 91.80574117421968,23.11400104416078,0 91.8057202422201,23.11399067796505,0 91.80569953859785,23.11397340309194,0 91.80568378983779,23.11397104124048,0 91.80565817505828,23.113946231122,0 91.80563770521559,23.11392925360631,0 91.80561687156535,23.11392615515911,0 91.80560196690024,23.11390314878455,0 91.80557604678435,23.113899312874,0 91.80555015374384,23.11389568784531,0 91.80552941105464,23.11389337808316,0 91.80550388266319,23.11387881976126,0 91.8054934412401,23.113878564826,0 91.80545724512608,23.11387073019279,0 91.80543117573039,23.11387009439354,0 91.80541032619477,23.11386958619781,0 91.80538948161264,23.11386907768774,0 91.80537424563764,23.11386176872695,0 91.80534301347306,23.11386103413033,0 91.80532283994869,23.11385225170366,0 91.80530271149259,23.1138434884336,0 91.80527744607259,23.1138346060954,0 91.80525672060325,23.11383404880677,0 91.80523082157333,23.11383335278866,0 91.80520050414636,23.11382435600317,0 91.80519015140918,23.11382412805122,0 91.80514839024129,23.11382504137405,0 91.80512252366557,23.11382442960018,0 91.80510108012395,23.1138316709144,0 91.80507520498016,23.11383105776002,0 91.80505809506843,23.11384618651389,0 91.80502700659608,23.11384544704633,0 91.80500518273375,23.11385384088158,0 91.80497880019264,23.11385514662149,0 91.80495168255291,23.11386354459243,0 91.80493059214685,23.113864366956,0 91.8049094933684,23.11386518922708,0 91.80488788212861,23.11387211483957,0 91.80486147387094,23.11387314596534,0 91.80483986705005,23.11387986637606,0 91.80481865054634,23.1138809196422,0 91.80479742340665,23.11388197334428,0 91.80477724672816,23.11387098157469,0 91.80455961342079,23.11361607509004,0 91.80401007034722,23.11354658552794,0 91.80384626747129,23.11320285387196,0 91.80370697990568,23.11289995918202,0 91.80345565401227,23.11266753740859,0 91.80369909616493,23.11220470399623,0 91.80376557234526,23.1120324909296,0 91.8037089821963,23.1117213675813,0 91.80374016689184,23.11156144629542,0 91.80397828547788,23.111409175982,0 91.80414054187229,23.11107647485865,0 
					</coordinates>
				</LinearRing>
			</outerBoundaryIs>
		</Polygon>
		<atom:link rel="app" href="https://www.google.com/earth/about/versions/#earth-pro" title="Google Earth Pro 7.3.7.1155"></atom:link>
	</Placemark>
</Document>
</kml>
