<?xml version="1.0" encoding="UTF-8"?>
<kml xmlns="http://www.opengis.net/kml/2.2" xmlns:gx="http://www.google.com/kml/ext/2.2" xmlns:kml="http://www.opengis.net/kml/2.2" xmlns:atom="http://www.w3.org/2005/Atom">
<Document>
	<name>ANR Bamboo Plant. over 5.0 ha at Kachucherra of Kachucherra Beat during 2026-27-19_35_2.kml</name>
	<StyleMap id="msn_ylw-pushpin">
		<Pair>
			<key>normal</key>
			<styleUrl>#sn_ylw-pushpin</styleUrl>
		</Pair>
		<Pair>
			<key>highlight</key>
			<styleUrl>#sh_ylw-pushpin</styleUrl>
		</Pair>
	</StyleMap>
	<Style id="sh_ylw-pushpin">
		<IconStyle>
			<scale>1.3</scale>
			<Icon>
				<href>http://maps.google.com/mapfiles/kml/pushpin/ylw-pushpin.png</href>
			</Icon>
			<hotSpot x="20" y="2" xunits="pixels" yunits="pixels"/>
		</IconStyle>
		<BalloonStyle>
		</BalloonStyle>
		<PolyStyle>
			<fill>0</fill>
		</PolyStyle>
	</Style>
	<Style id="sn_ylw-pushpin">
		<IconStyle>
			<scale>1.1</scale>
			<Icon>
				<href>http://maps.google.com/mapfiles/kml/pushpin/ylw-pushpin.png</href>
			</Icon>
			<hotSpot x="20" y="2" xunits="pixels" yunits="pixels"/>
		</IconStyle>
		<BalloonStyle>
		</BalloonStyle>
		<PolyStyle>
			<fill>0</fill>
		</PolyStyle>
	</Style>
	<Placemark>
		<name>ANR Bamboo Plant. over 5.0 ha at Kachucherra of Kachucherra Beat during 2026-27-19_35_2</name>
		<styleUrl>#msn_ylw-pushpin</styleUrl>
		<Polygon>
			<tessellate>1</tessellate>
			<outerBoundaryIs>
				<LinearRing>
					<coordinates>
						91.84434935915066,23.99655504075775,0 91.84513924293287,23.99546024256722,0 91.84530903905316,23.99539039785985,0 91.84537693102521,23.99533853703024,0 91.84549153990312,23.99530457396712,0 91.84556231610973,23.99534866611985,0 91.84678941462884,23.99545997719996,0 91.84690182662096,23.99544067918084,0 91.84710784040143,23.99546387634071,0 91.84717071319557,23.99550241199082,0 91.84750829631555,23.9956782366967,0 91.84756485109864,23.99581633665981,0 91.84765077323956,23.99596720256647,0 91.84750121597675,23.99601619570346,0 91.84736431642025,23.99617672445068,0 91.84683137847789,23.99653456553877,0 91.84622827337775,23.99698732570833,0 91.8457931721525,23.99727340516856,0 91.84556476518807,23.99732110715093,0 91.84532827759809,23.99733828775328,0 91.84499498598186,23.99728467253893,0 91.84466848241991,23.99727879540373,0 91.84432199590451,23.99724641305615,0 91.84413643709962,23.99712193703861,0 91.84397242734313,23.99683067028234,0 91.84434935915066,23.99655504075775,0 
					</coordinates>
				</LinearRing>
			</outerBoundaryIs>
		</Polygon>
		<atom:link rel="app" href="https://www.google.com/earth/about/versions/#earth-pro" title="Google Earth Pro 7.3.7.1155"></atom:link>
	</Placemark>
</Document>
</kml>
