<?xml version="1.0" encoding="UTF-8"?>
<kml xmlns="http://www.opengis.net/kml/2.2" xmlns:gx="http://www.google.com/kml/ext/2.2" xmlns:kml="http://www.opengis.net/kml/2.2" xmlns:atom="http://www.w3.org/2005/Atom">
<Document>
	<name>1778484804197.kml</name>
	<StyleMap id="msn_ylw-pushpin">
		<Pair>
			<key>normal</key>
			<styleUrl>#sn_ylw-pushpin</styleUrl>
		</Pair>
		<Pair>
			<key>highlight</key>
			<styleUrl>#sh_ylw-pushpin</styleUrl>
		</Pair>
	</StyleMap>
	<Style id="sh_ylw-pushpin">
		<IconStyle>
			<scale>1.3</scale>
			<Icon>
				<href>http://maps.google.com/mapfiles/kml/pushpin/ylw-pushpin.png</href>
			</Icon>
			<hotSpot x="20" y="2" xunits="pixels" yunits="pixels"/>
		</IconStyle>
		<BalloonStyle>
		</BalloonStyle>
		<PolyStyle>
			<fill>0</fill>
		</PolyStyle>
	</Style>
	<Style id="sn_ylw-pushpin">
		<IconStyle>
			<scale>1.1</scale>
			<Icon>
				<href>http://maps.google.com/mapfiles/kml/pushpin/ylw-pushpin.png</href>
			</Icon>
			<hotSpot x="20" y="2" xunits="pixels" yunits="pixels"/>
		</IconStyle>
		<BalloonStyle>
		</BalloonStyle>
		<PolyStyle>
			<fill>0</fill>
		</PolyStyle>
	</Style>
	<Placemark>
		<name>1778484804197</name>
		<styleUrl>#msn_ylw-pushpin</styleUrl>
		<Polygon>
			<tessellate>1</tessellate>
			<outerBoundaryIs>
				<LinearRing>
					<coordinates>
						91.41303378142484,23.5505007480514,0 91.413051199886,23.5501348226985,0 91.41330181894214,23.54975366570367,0 91.41355134911339,23.54918979102844,0 91.41368935278432,23.5485190167294,0 91.41412509859828,23.54827617563538,0 91.41436706938352,23.54799996319576,0 91.41513551320345,23.54752524586917,0 91.41555100831445,23.54701804053671,0 91.41593572044908,23.54656756438355,0 91.41637004628362,23.54635181451569,0 91.41678808950526,23.54631457999098,0 91.41732237726265,23.54616142011056,0 91.41805578323985,23.54602039054287,0 91.41815254483218,23.54681198518348,0 91.41799824774223,23.547063531982,0 91.41797960598507,23.54758694570853,0 91.41782365996417,23.5480059781522,0 91.41747994186578,23.54892062003078,0 91.41697363605275,23.54965154105336,0 91.41662532379144,23.55032117586385,0 91.41639108930518,23.55096471234064,0 91.41611868830199,23.55134139457328,0 91.41581052812037,23.55163651650811,0 91.4155915011505,23.5516396937078,0 91.41477317309574,23.55126263565098,0 91.41428022337722,23.55102845599241,0 91.41394245361857,23.55086417366644,0 91.41332812235935,23.55067420799404,0 91.41303378142484,23.5505007480514,0 
					</coordinates>
				</LinearRing>
			</outerBoundaryIs>
		</Polygon>
		<atom:link rel="app" href="https://www.google.com/earth/about/versions/#earth-pro" title="Google Earth Pro 7.3.7.1155"></atom:link>
	</Placemark>
</Document>
</kml>
