<?xml version="1.0" encoding="UTF-8"?>
<kml xmlns="http://www.opengis.net/kml/2.2" xmlns:gx="http://www.google.com/kml/ext/2.2" xmlns:kml="http://www.opengis.net/kml/2.2" xmlns:atom="http://www.w3.org/2005/Atom">
<Document>
	<name>1778488459356 .kml</name>
	<StyleMap id="msn_ylw-pushpin">
		<Pair>
			<key>normal</key>
			<styleUrl>#sn_ylw-pushpin</styleUrl>
		</Pair>
		<Pair>
			<key>highlight</key>
			<styleUrl>#sh_ylw-pushpin</styleUrl>
		</Pair>
	</StyleMap>
	<Style id="sh_ylw-pushpin">
		<IconStyle>
			<scale>1.3</scale>
			<Icon>
				<href>http://maps.google.com/mapfiles/kml/pushpin/ylw-pushpin.png</href>
			</Icon>
			<hotSpot x="20" y="2" xunits="pixels" yunits="pixels"/>
		</IconStyle>
		<BalloonStyle>
		</BalloonStyle>
		<LineStyle>
			<color>ffff55ff</color>
			<width>4.3</width>
		</LineStyle>
		<PolyStyle>
			<color>4dffffff</color>
		</PolyStyle>
	</Style>
	<Style id="sn_ylw-pushpin">
		<IconStyle>
			<scale>1.1</scale>
			<Icon>
				<href>http://maps.google.com/mapfiles/kml/pushpin/ylw-pushpin.png</href>
			</Icon>
			<hotSpot x="20" y="2" xunits="pixels" yunits="pixels"/>
		</IconStyle>
		<BalloonStyle>
		</BalloonStyle>
		<LineStyle>
			<color>ffff55ff</color>
			<width>4.3</width>
		</LineStyle>
		<PolyStyle>
			<color>4dffffff</color>
		</PolyStyle>
	</Style>
	<Placemark>
		<name>1778488459356 </name>
		<styleUrl>#msn_ylw-pushpin</styleUrl>
		<Polygon>
			<tessellate>1</tessellate>
			<outerBoundaryIs>
				<LinearRing>
					<coordinates>
						91.50415802590406,24.05288060293937,0 91.50407159362418,24.05271064589304,0 91.50403750900756,24.05254050202923,0 91.50407928796614,24.05236962643546,0 91.50413895189641,24.0522670149453,0 91.50420027434753,24.05219413452517,0 91.50423234512309,24.05209015055015,0 91.5042617825447,24.05202989552048,0 91.50428771030177,24.05203346177764,0 91.50434746002122,24.05207448746599,0 91.50441217160088,24.05210028063988,0 91.50448527220379,24.05209810293871,0 91.50456430525422,24.05209136684424,0 91.50467389738576,24.05204327114705,0 91.50477176204717,24.05198122542645,0 91.50484281221236,24.0520074919353,0 91.50493013217306,24.05205756010954,0 91.5049583307021,24.05207121299448,0 91.50499824048657,24.05210170996704,0 91.50508501451829,24.05216725242845,0 91.50512298461732,24.05221064477014,0 91.50517203475319,24.05223471753694,0 91.50524817728667,24.05220987182598,0 91.50535135468297,24.05214907523573,0 91.50542874705545,24.05205603208417,0 91.50548672517755,24.05197354066442,0 91.50550489487409,24.05190624604597,0 91.50556248558142,24.05183617022752,0 91.50557575634811,24.0518363979538,0 91.50558640626917,24.0518338019922,0 91.50559704759075,24.05183120812935,0 91.50560768031333,24.05182861637054,0 91.50561830448109,24.05182602668798,0 91.50562892005925,24.05182343901861,0 91.50564482835649,24.05182365298431,0 91.50565543615554,24.05182375001269,0 91.5056660232232,24.05181842303426,0 91.50567660756724,24.05181582859613,0 91.50568985459512,24.05181598247594,0 91.50570310448306,24.05181613639696,0 91.50571632094858,24.05181357413342,0 91.50572948426982,24.05180830268958,0 91.50573997891621,24.05180301010367,0 91.50574781149879,24.05179769686902,0 91.50575832726045,24.05179511949996,0 91.50576883438099,24.05179254424601,0 91.50577940035005,24.05179266488885,0 91.50578990313446,24.0517901650897,0 91.50580041151757,24.05178778369483,0 91.50581347913564,24.05178282148659,0 91.50582375842278,24.05177482165209,0 91.50583409611217,24.05176947324465,0 91.50584441342693,24.05176413539992,0 91.5058546123161,24.05175618606794,0 91.50586216606597,24.05174827841585,0 91.50587241599523,24.05174298196935,0 91.50588003549187,24.05173771444426,0 91.50589274035511,24.0517298230784,0 91.50590294222337,24.05172464835176,0 91.50591300977125,24.05171694030552,0 91.50592044978602,24.05170925245625,0 91.5059305951407,24.0517041396019,0 91.50594331837289,24.0516990363632,0 91.5059535636276,24.05169648885937,0 91.50596379971718,24.05169394360957,0 91.50597402678373,24.05169140062731,0 91.50598713845881,24.05169393327281,0 91.50599764867346,24.05169640067898,0 91.50600849219218,24.05170397244907,0 91.50601660142507,24.05170902442863,0 91.50602991710115,24.05171404503566,0 91.5060408339377,24.05172166175296,0 91.50604639301547,24.05172676384884,0 91.50605735449847,24.05173441326343,0 91.5060681535291,24.05173949651313,0 91.50607877534875,24.05174200038086,0 91.50608941076574,24.05174452247536,0 91.50610246297698,24.05174445110782,0 91.50611091719011,24.05175216753185,0 91.50611981819284,24.05176510217793,0 91.50612591764467,24.05177549673033,0 91.50612941031373,24.0517859429855,0 91.50613291673078,24.05179643030049,0 91.50613402738762,24.05180963644945,0 91.50613515299514,24.05182293145494,0 91.50613630640723,24.05183635404118,0 91.50613746528791,24.05184983976085,0 91.50614105636015,24.05186065119753,0 91.50614708828843,24.05186875752739,0 91.50615604625882,24.05187959317322,0 91.50616482527707,24.05188782824428,0 91.50617388601746,24.05189884968731,0 91.50618541751713,24.05190716228041,0 91.50619402252975,24.05191272096538,0 91.50620317940798,24.05192383883987,0 91.50621209921223,24.05193221362821,0 91.50622104507148,24.05194061287422,0 91.50623301360892,24.05195185009131,0 91.50624445001782,24.05195750725246,0 91.50625803704204,24.05195756237633,0 91.50627434276302,24.05195762858235,0 91.5062824961569,24.05195766167034,0 91.50629608493612,24.0519577144467,0 91.50630659123348,24.05195483927262,0 91.50632012654974,24.05195478182454,0 91.50633099235181,24.05195482295088,0 91.50634164683029,24.05195233553911,0 91.50635540333504,24.05195277478079,0 91.50636916758202,24.05195321427228,0 91.50637944484338,24.05194789000278,0 91.50639045564589,24.05194824031543,0 91.50640147129968,24.05194859079214,0 91.50641287844986,24.05195178042425,0 91.5064243022891,24.05195497479438,0 91.50643850545734,24.05195826215322,0 91.50644679527106,24.05195852737103,0 91.50645785271669,24.0519588810795,0 91.5064697476172,24.0519649413268,0 91.50648122829293,24.05196811651705,0 91.50649731701672,24.05196557836613,0 91.50650566689806,24.05196590613616,0 91.50651594152357,24.05196066021006,0 91.50652620173526,24.05195542176061,0 91.50653924335077,24.05195032638121,0 91.5066547515973,24.05190100524921,0 91.50678135048148,24.05183711973493,0 91.50692061673976,24.05184614439468,0 91.50699390909186,24.05185864429641,0 91.50709195502708,24.05192858236948,0 91.50710937013028,24.0519840480751,0 91.5070881905752,24.05201242007921,0 91.50701622200818,24.05203867666427,0 91.5069736973945,24.05211914982745,0 91.50690312396621,24.05216366957152,0 91.50684214734565,24.05219226317427,0 91.5067579164119,24.0522145648114,0 91.50667499475028,24.05223974061613,0 91.50656920442523,24.0522418654618,0 91.50650323022025,24.05225066299349,0 91.50650077880917,24.05225374846751,0 91.50649344699011,24.05226310348647,0 91.50648265290867,24.05226905324651,0 91.5064575803313,24.05227753369267,0 91.5064467385521,24.05228351381285,0 91.50643589013906,24.05228953295736,0 91.50638354885623,24.05235966754239,0 91.50635327903198,24.05242592238568,0 91.50630510479945,24.05250029596608,0 91.50626251380953,24.05253057420966,0 91.50621164127874,24.05257650849611,0 91.50616398920536,24.05263076030775,0 91.50607556059533,24.0526217165105,0 91.50599002601579,24.0526061511677,0 91.50592471597957,24.05263463798622,0 91.50590074294155,24.05273461138356,0 91.50586663504144,24.05283598882308,0 91.50584111413953,24.05281264201533,0 91.50579403408203,24.0527874259038,0 91.50572612434136,24.05281487906609,0 91.50566699812312,24.05284822151013,0 91.50562937225131,24.05285972872287,0 91.50556325096346,24.05287790664616,0 91.50548703279632,24.05291529286542,0 91.5054296952606,24.05293491043129,0 91.50535465522226,24.05301236510948,0 91.50533034692437,24.05306543133553,0 91.50521589931134,24.05310755715415,0 91.50520608478942,24.0531108271035,0 91.5051898585788,24.05311378519157,0 91.50517383958436,24.05311306247591,0 91.50515462806902,24.05311219581603,0 91.50513862771913,24.05311147402777,0 91.50512903162613,24.05311104105238,0 91.50511303092345,24.05311039020523,0 91.50510048080019,24.05310620422975,0 91.50508475242742,24.05310189608982,0 91.50507197824639,24.05310138637276,0 91.5050594735047,24.05309721253354,0 91.50504698467442,24.05309304408133,0 91.50503478715758,24.05308522796578,0 91.50502261603683,24.05307742902614,0 91.50500729605986,24.05306952176718,0 91.50499547384217,24.05305813059087,0 91.50498655719996,24.05305051449464,0 91.50497479727281,24.0530391817252,0 91.50496938473506,24.05302812909506,0 91.50495785355382,24.05301381052783,0 91.50494604626655,24.05300313633718,0 91.50493765041142,24.05298932440477,0 91.5049287920401,24.05298212992444,0 91.50491733745194,24.05296818433406,0 91.50490877192229,24.05295775603203,0 91.50489662052317,24.05295368394634,0 91.504884743906,24.05294635488793,0 91.50487288693986,24.05293905386356,0 91.50486103772562,24.05293181707891,0 91.50484864015912,24.05293118619316,0 91.50483344305779,24.05292710221089,0 91.50482106366196,24.0529264732025,0 91.50480869039747,24.05292584441447,0 91.50479292715735,24.05292835145901,0 91.50478365359116,24.05292787947767,0 91.50476794900425,24.05293021902614,0 91.50475532208043,24.05293274833828,0 91.50474577062808,24.05293546876515,0 91.50473006417685,24.05293780791113,0 91.50471743285651,24.05294033828125,0 91.50470478961269,24.05294289827819,0 91.5046889215575,24.05294566679384,0 91.50467614792275,24.05294855919322,0 91.50465988458316,24.05295471797291,0 91.50465019574671,24.05295773805577,0 91.50463700683922,24.05296403084202,0 91.5046246024031,24.05296353479984,0 91.50461139758362,24.05296982114933,0 91.50459561106365,24.05297228110652,0 91.50458023752964,24.05297134866787,0 91.50457018331738,24.0529775754964,0 91.50455634614313,24.05298767545538,0 91.50453982635699,24.05299420508154,0 91.50452688538958,24.05299731955115,0 91.50451082238848,24.05300033345457,0 91.50449836415868,24.05299992375487,0 91.50448279705212,24.05299941178752,0 91.50447034788218,24.05299900229623,0 91.50445893057045,24.05299155166412,0 91.50444391270781,24.05298752681679,0 91.5044280934117,24.05298764753395,0 91.5044148187859,24.05299143924136,0 91.5043983129365,24.05299536201763,0 91.50438760377649,24.05300272288348,0 91.50437367404129,24.05301017414966,0 91.50436492747917,24.05302474757514,0 91.50436185833468,24.05304310111739,0 91.50435939231254,24.05305784759432,0 91.50435368995954,24.05307273037391,0 91.50434212685855,24.05308411026589,0 91.50432917497926,24.05308447149541,0 91.50431424263689,24.05307753494879,0 91.50415802590406,24.05288060293937,0 
					</coordinates>
				</LinearRing>
			</outerBoundaryIs>
		</Polygon>
		<atom:link rel="app" href="https://www.google.com/earth/about/versions/#earth-pro" title="Google Earth Pro 7.3.7.1155"></atom:link>
	</Placemark>
</Document>
</kml>
