<?xml version="1.0" encoding="UTF-8"?>
<kml xmlns="http://www.opengis.net/kml/2.2" xmlns:gx="http://www.google.com/kml/ext/2.2" xmlns:kml="http://www.opengis.net/kml/2.2" xmlns:atom="http://www.w3.org/2005/Atom">
<Document>
	<name>1778062580491.kml</name>
	<StyleMap id="msn_ylw-pushpin">
		<Pair>
			<key>normal</key>
			<styleUrl>#sn_ylw-pushpin</styleUrl>
		</Pair>
		<Pair>
			<key>highlight</key>
			<styleUrl>#sh_ylw-pushpin</styleUrl>
		</Pair>
	</StyleMap>
	<Style id="sh_ylw-pushpin">
		<IconStyle>
			<scale>1.3</scale>
			<Icon>
				<href>http://maps.google.com/mapfiles/kml/pushpin/ylw-pushpin.png</href>
			</Icon>
			<hotSpot x="20" y="2" xunits="pixels" yunits="pixels"/>
		</IconStyle>
		<BalloonStyle>
		</BalloonStyle>
		<PolyStyle>
			<fill>0</fill>
		</PolyStyle>
	</Style>
	<Style id="sn_ylw-pushpin">
		<IconStyle>
			<scale>1.1</scale>
			<Icon>
				<href>http://maps.google.com/mapfiles/kml/pushpin/ylw-pushpin.png</href>
			</Icon>
			<hotSpot x="20" y="2" xunits="pixels" yunits="pixels"/>
		</IconStyle>
		<BalloonStyle>
		</BalloonStyle>
		<PolyStyle>
			<fill>0</fill>
		</PolyStyle>
	</Style>
	<Placemark>
		<name>1778062580491</name>
		<styleUrl>#msn_ylw-pushpin</styleUrl>
		<Polygon>
			<tessellate>1</tessellate>
			<outerBoundaryIs>
				<LinearRing>
					<coordinates>
						91.83026401256437,23.43952073475426,0 91.8298803192375,23.43923172534843,0 91.82917497618253,23.4385133598316,0 91.82898200772244,23.4380784529985,0 91.82930662611673,23.43772535723837,0 91.82954694722702,23.43770567551595,0 91.8298728679673,23.43758829943019,0 91.83021677961574,23.43759375436433,0 91.83077163293547,23.43768719469797,0 91.83105706655564,23.43799452267699,0 91.8311168585179,23.43812427659831,0 91.83208651213226,23.4386986708156,0 91.83228220231872,23.43890385066434,0 91.83264346159378,23.43899353934452,0 91.83305956281035,23.43930709584244,0 91.83307452925391,23.43936674367544,0 91.8329480289181,23.43949091056999,0 91.83248568106953,23.43941631792219,0 91.83223113092082,23.43943033521888,0 91.83190011335709,23.43938052353103,0 91.83162451598508,23.43959883946963,0 91.83123244678814,23.43967954292458,0 91.83092291846494,23.43967608908318,0 91.83071971973729,23.4396250932515,0 91.83033498711316,23.4397422425758,0 91.83026401256437,23.43952073475426,0 
					</coordinates>
				</LinearRing>
			</outerBoundaryIs>
		</Polygon>
		<atom:link rel="app" href="https://www.google.com/earth/about/versions/#earth-pro" title="Google Earth Pro 7.3.7.1155"></atom:link>
	</Placemark>
</Document>
</kml>
