<?xml version="1.0" encoding="UTF-8"?>
<kml xmlns="http://www.opengis.net/kml/2.2" xmlns:gx="http://www.google.com/kml/ext/2.2" xmlns:kml="http://www.opengis.net/kml/2.2" xmlns:atom="http://www.w3.org/2005/Atom">
<Document>
	<name>1778077391774.kml</name>
	<StyleMap id="msn_ylw-pushpin">
		<Pair>
			<key>normal</key>
			<styleUrl>#sn_ylw-pushpin</styleUrl>
		</Pair>
		<Pair>
			<key>highlight</key>
			<styleUrl>#sh_ylw-pushpin</styleUrl>
		</Pair>
	</StyleMap>
	<Style id="sh_ylw-pushpin">
		<IconStyle>
			<scale>1.3</scale>
			<Icon>
				<href>http://maps.google.com/mapfiles/kml/pushpin/ylw-pushpin.png</href>
			</Icon>
			<hotSpot x="20" y="2" xunits="pixels" yunits="pixels"/>
		</IconStyle>
		<BalloonStyle>
		</BalloonStyle>
		<PolyStyle>
			<fill>0</fill>
		</PolyStyle>
	</Style>
	<Style id="sn_ylw-pushpin">
		<IconStyle>
			<scale>1.1</scale>
			<Icon>
				<href>http://maps.google.com/mapfiles/kml/pushpin/ylw-pushpin.png</href>
			</Icon>
			<hotSpot x="20" y="2" xunits="pixels" yunits="pixels"/>
		</IconStyle>
		<BalloonStyle>
		</BalloonStyle>
		<PolyStyle>
			<fill>0</fill>
		</PolyStyle>
	</Style>
	<Placemark>
		<name>1778077391774</name>
		<styleUrl>#msn_ylw-pushpin</styleUrl>
		<Polygon>
			<tessellate>1</tessellate>
			<outerBoundaryIs>
				<LinearRing>
					<coordinates>
						91.64945142297557,23.63157764974912,0 91.64946606950345,23.63133908298074,0 91.64961669529021,23.63125200399647,0 91.64971981415773,23.63111375558304,0 91.64992676117558,23.63082564710569,0 91.65021479797551,23.63069166824938,0 91.65064810479122,23.63061776274725,0 91.65084721749801,23.63075719130922,0 91.65118650186166,23.63096123959636,0 91.65146024029382,23.63124325941041,0 91.65187043337477,23.63149711841053,0 91.65221739982913,23.6317217668311,0 91.65243092028193,23.63196391343415,0 91.65281914325845,23.63203512229732,0 91.65343811274276,23.63215921030319,0 91.65378856067932,23.63209380174942,0 91.65395904475261,23.63186777865768,0 91.65405301892578,23.63163406137818,0 91.65405262218825,23.63160779439423,0 91.6540487709829,23.63158700695942,0 91.65404317262448,23.63155631411617,0 91.65403410926713,23.63153096222467,0 91.65402396309084,23.63147543771835,0 91.65401836200441,23.63144521055733,0 91.65401195181659,23.63141037016687,0 91.65400402478703,23.63136646860099,0 91.6539996565933,23.63134227599943,0 91.65399185670688,23.63129907886723,0 91.65413470796219,23.63102446475942,0 91.65431063475525,23.6308176359303,0 91.65443202236601,23.63052460864327,0 91.65463411255115,23.63038059811405,0 91.6548643095865,23.63038045148195,0 91.65513305943361,23.63057462101511,0 91.65534263695022,23.63078138709168,0 91.65551741089266,23.63096746474685,0 91.65567045623243,23.63120026961253,0 91.65580873952619,23.63150026976731,0 91.65588041574372,23.63171424450661,0 91.65578039993972,23.63177801505778,0 91.65560054388139,23.63195477345919,0 91.6553734300949,23.63216200439897,0 91.65509366319549,23.63219757995819,0 91.65508186553032,23.63220458412906,0 91.65505920879896,23.6322062298759,0 91.65503199484318,23.632208207125,0 91.65500929521329,23.63220985584865,0 91.65499112152433,23.63221117623575,0 91.65496859340337,23.6322131499202,0 91.65494432299977,23.63220903537448,0 91.65492006144828,23.63220492266207,0 91.65490031624375,23.63220040773649,0 91.6548788709415,23.63218976460689,0 91.65485635360112,23.632191791631,0 91.65483213443716,23.63218768899752,0 91.65481694095133,23.63218277913646,0 91.65479743107159,23.6321785785042,0 91.65477794830974,23.63217440609263,0 91.65475561130593,23.63217679939382,0 91.65473612911407,23.63217262537896,0 91.65471218112832,23.63216893116009,0 91.65467459655483,23.63216631336011,0 91.65465050804383,23.63216236942032,0 91.6546208481425,23.63215356664597,0 91.65458387623825,23.63215205839635,0 91.6544903223789,23.63214476333405,0 91.65424189545867,23.63211539875241,0 91.65400243312543,23.63217407638292,0 91.6538426126959,23.63237420764542,0 91.65380357559175,23.63266812045098,0 91.65368062302042,23.63286875474175,0 91.65371829325123,23.63306361301841,0 91.65371817340406,23.6332199761932,0 91.65383264762872,23.63338639823666,0 91.65386254601265,23.63361381262546,0 91.65373948166378,23.63369222672678,0 91.65348976366654,23.63382477352613,0 91.65323571604333,23.63378393097504,0 91.65278787930335,23.63358335761489,0 91.65252979424011,23.63332418332774,0 91.6521986947797,23.63316853413206,0 91.6518677901108,23.63316434811777,0 91.65138303281284,23.63309729309856,0 91.65118978262795,23.63287829187488,0 91.65085887872073,23.63281375524862,0 91.65030866994834,23.63257230493495,0 91.6497308817371,23.63212994811076,0 91.64973714257491,23.63182753092923,0 91.64945142297557,23.63157764974912,0 
					</coordinates>
				</LinearRing>
			</outerBoundaryIs>
		</Polygon>
		<atom:link rel="app" href="https://www.google.com/earth/about/versions/#earth-pro" title="Google Earth Pro 7.3.7.1155"></atom:link>
	</Placemark>
</Document>
</kml>
