<?xml version="1.0" encoding="UTF-8"?>
<kml xmlns="http://www.opengis.net/kml/2.2" xmlns:gx="http://www.google.com/kml/ext/2.2" xmlns:kml="http://www.opengis.net/kml/2.2" xmlns:atom="http://www.w3.org/2005/Atom">
<Document>
	<name>shivpur ANR.kml</name>
	<StyleMap id="msn_ylw-pushpin">
		<Pair>
			<key>normal</key>
			<styleUrl>#sn_ylw-pushpin</styleUrl>
		</Pair>
		<Pair>
			<key>highlight</key>
			<styleUrl>#sh_ylw-pushpin</styleUrl>
		</Pair>
	</StyleMap>
	<Style id="sh_ylw-pushpin">
		<IconStyle>
			<scale>1.3</scale>
			<Icon>
				<href>http://maps.google.com/mapfiles/kml/pushpin/ylw-pushpin.png</href>
			</Icon>
			<hotSpot x="20" y="2" xunits="pixels" yunits="pixels"/>
		</IconStyle>
		<BalloonStyle>
		</BalloonStyle>
	</Style>
	<Style id="sn_ylw-pushpin">
		<IconStyle>
			<scale>1.1</scale>
			<Icon>
				<href>http://maps.google.com/mapfiles/kml/pushpin/ylw-pushpin.png</href>
			</Icon>
			<hotSpot x="20" y="2" xunits="pixels" yunits="pixels"/>
		</IconStyle>
		<BalloonStyle>
		</BalloonStyle>
	</Style>
	<Placemark>
		<name>shivpur ANR</name>
		<styleUrl>#msn_ylw-pushpin</styleUrl>
		<Polygon>
			<tessellate>1</tessellate>
			<outerBoundaryIs>
				<LinearRing>
					<coordinates>
						91.54361272491964,23.19680664810407,0 91.54337631226974,23.19621486923967,0 91.5434003127999,23.19604638717883,0 91.54351664341112,23.19589139401289,0 91.54365198449563,23.19576914891342,0 91.54377147194484,23.19560549490176,0 91.54390354715576,23.1955164976771,0 91.54411515333688,23.19543136300522,0 91.54429043429698,23.19544053559827,0 91.54446898231791,23.19547249211207,0 91.5446124669199,23.19550499949544,0 91.54474396434657,23.19547518910025,0 91.54479655981871,23.19545866909759,0 91.54515176262619,23.19540556743732,0 91.54536288748476,23.19547370385507,0 91.54558364965817,23.1956884032468,0 91.54578528658057,23.19582053150743,0 91.54595909120643,23.19601723295752,0 91.54611350703671,23.19615349415774,0 91.54615076902743,23.19628406049655,0 91.54633078841556,23.19640907502898,0 91.54630427501205,23.19660688540383,0 91.54622685042402,23.1967579179922,0 91.54618052374856,23.19684228585461,0 91.54606349154884,23.19704807235847,0 91.54593413401115,23.19720813832897,0 91.54584243776,23.19735732934409,0 91.54571461849818,23.19750946983761,0 91.54569459737698,23.19755494132385,0 91.54566680878644,23.19761877287213,0 91.54556481335453,23.197666100954,0 91.54539177094114,23.19781540431051,0 91.54530216139904,23.19790143809309,0 91.54513370819029,23.19805809157512,0 91.54502844923297,23.19816997630881,0 91.54494413104683,23.19828121909931,0 91.54486194172708,23.19853110791712,0 91.54470686442215,23.19876739927638,0 91.54452178776799,23.19881958718614,0 91.54444429939583,23.19885619784912,0 91.54432578432188,23.19893789340003,0 91.54422833037101,23.19902008983077,0 91.54408670780114,23.19900569081089,0 91.54397853803808,23.19903339369295,0 91.54388302116391,23.19894743179057,0 91.54379271982533,23.19879150693286,0 91.54377240312813,23.19871257316044,0 91.54368222336599,23.19858436244333,0 91.54371556265309,23.19839511043475,0 91.54377091453628,23.19824590208846,0 91.54384846337192,23.19819893812705,0 91.54393830042771,23.19813009261632,0 91.54393301932416,23.19802104346448,0 91.543914690877,23.19793969656712,0 91.54385166412797,23.19787075106943,0 91.54380386372354,23.19775400074549,0 91.54379106408152,23.1976146844804,0 91.54374981321328,23.19750975759074,0 91.54370133042997,23.1974166100831,0 91.54366391354498,23.19725293770131,0 91.54359335055101,23.19716912966507,0 91.54355305976578,23.19713974226598,0 91.54361272491964,23.19680664810407,0 
					</coordinates>
				</LinearRing>
			</outerBoundaryIs>
		</Polygon>
		<atom:link rel="app" href="https://www.google.com/earth/about/versions/#earth-pro" title="Google Earth Pro 7.3.7.1155"></atom:link>
	</Placemark>
</Document>
</kml>
