<?xml version="1.0" encoding="UTF-8"?>
<kml xmlns="http://www.opengis.net/kml/2.2" xmlns:gx="http://www.google.com/kml/ext/2.2" xmlns:kml="http://www.opengis.net/kml/2.2" xmlns:atom="http://www.w3.org/2005/Atom">
<Document>
	<name>ANR Bamboo plant. over 5.0 ha at Ashapurna of Mendi beat under ELEMENT PROJECT-19_31_53.kml</name>
	<StyleMap id="msn_ylw-pushpin">
		<Pair>
			<key>normal</key>
			<styleUrl>#sn_ylw-pushpin</styleUrl>
		</Pair>
		<Pair>
			<key>highlight</key>
			<styleUrl>#sh_ylw-pushpin</styleUrl>
		</Pair>
	</StyleMap>
	<Style id="sh_ylw-pushpin">
		<IconStyle>
			<scale>1.3</scale>
			<Icon>
				<href>http://maps.google.com/mapfiles/kml/pushpin/ylw-pushpin.png</href>
			</Icon>
			<hotSpot x="20" y="2" xunits="pixels" yunits="pixels"/>
		</IconStyle>
		<BalloonStyle>
		</BalloonStyle>
		<PolyStyle>
			<fill>0</fill>
		</PolyStyle>
	</Style>
	<Style id="sn_ylw-pushpin">
		<IconStyle>
			<scale>1.1</scale>
			<Icon>
				<href>http://maps.google.com/mapfiles/kml/pushpin/ylw-pushpin.png</href>
			</Icon>
			<hotSpot x="20" y="2" xunits="pixels" yunits="pixels"/>
		</IconStyle>
		<BalloonStyle>
		</BalloonStyle>
		<PolyStyle>
			<fill>0</fill>
		</PolyStyle>
	</Style>
	<Placemark>
		<name>ANR Bamboo plant. over 5.0 ha at Ashapurna of Mendi beat under ELEMENT PROJECT-19_31_53</name>
		<styleUrl>#msn_ylw-pushpin</styleUrl>
		<Polygon>
			<tessellate>1</tessellate>
			<outerBoundaryIs>
				<LinearRing>
					<coordinates>
						91.77943717336174,23.99702844664633,0 91.7794526879177,23.99710427640923,0 91.77954212812969,23.99714391104105,0 91.77964766580729,23.99718593521789,0 91.77974238806432,23.99716563702137,0 91.77983687637922,23.99717287477916,0 91.77992633489013,23.99720173944218,0 91.78002405595525,23.99715829530597,0 91.78008736723416,23.99721011588571,0 91.78014728971721,23.99720197418793,0 91.78020266383818,23.99722046248129,0 91.78056035513012,23.9972566015798,0 91.78060555624617,23.99728154256327,0 91.78071838192226,23.99727508466038,0 91.78101510768998,23.99724045203897,0 91.7811443111424,23.99723845007989,0 91.78119382307479,23.99727083213828,0 91.78133044457905,23.99715324749848,0 91.78149085356887,23.99726822165482,0 91.78174961911034,23.99727877830315,0 91.781831716439,23.99724041295968,0 91.78204372301353,23.99722764327963,0 91.78288235433855,23.99686021780546,0 91.78296941378836,23.99685177079965,0 91.78307882644035,23.99673727826944,0 91.78330772121365,23.99676417493967,0 91.78338553521432,23.99697081660306,0 91.78333289898855,23.99715368514098,0 91.7832800543715,23.99739245535384,0 91.78289212759748,23.99767291131341,0 91.7827833353705,23.99779997968496,0 91.78275908062732,23.9979467391464,0 91.78291740412907,23.99806207240596,0 91.78309538376345,23.99815637829462,0 91.78323365144932,23.99832890193637,0 91.78329609911668,23.99836538468685,0 91.78347735700753,23.99861204775547,0 91.783503406474,23.99880835642146,0 91.78338177561146,23.99892483479828,0 91.78308086812356,23.9989489992038,0 91.78297422155995,23.99905661473566,0 91.78291888697507,23.99925141148571,0 91.7832747944942,23.99956360823988,0 91.7833212835381,23.99977359691395,0 91.78309695836947,23.99993106616379,0 91.78288623014831,24.00032343051667,0 91.78284228785859,24.00045810615272,0 91.78290052783791,24.00058943351176,0 91.78307330485308,24.00054017349565,0 91.78332690724416,24.00056048524759,0 91.78331653077193,24.00072419099486,0 91.78312334638083,24.00082777388574,0 91.78277981156832,24.00066066837298,0 91.78223211075158,24.00041638690216,0 91.7821942907413,24.00016107053647,0 91.78183432582715,24.00023479444073,0 91.78165511479945,24.00029513704623,0 91.78159152351273,24.000445285492,0 91.78135303086989,24.00062472149111,0 91.78132032669181,24.0008591845748,0 91.78133718786202,24.00121445995305,0 91.7811850180378,24.00130323267609,0 91.78093649801296,24.00118191672716,0 91.78063915274755,24.00108340811535,0 91.78040857814719,24.00094543765372,0 91.78045358684527,24.00069695844912,0 91.78039666680212,24.00045005105905,0 91.78048657004736,24.00018136573738,0 91.78032265724892,23.99994900999812,0 91.78011676530262,23.99996312210322,0 91.77994350102165,23.99999114597248,0 91.77993308795129,24.0000648047433,0 91.77976711247736,24.00015899519348,0 91.77964181946484,24.00029555919825,0 91.77946355363038,24.00020703100178,0 91.77941470297091,24.00010656654284,0 91.77915146067143,23.99995961648251,0 91.77902052057506,23.99993925122074,0 91.77899536934029,23.99961292836375,0 91.77916935480825,23.99926394947185,0 91.77914570177623,23.99900957323974,0 91.77910527033723,23.99879325959758,0 91.77903547784425,23.99858502458479,0 91.77910236373391,23.99841334525792,0 91.77924517838805,23.9983057127208,0 91.77926060572922,23.99803492735742,0 91.77931362355822,23.997813152662,0 91.77926588012006,23.99758184006429,0 91.77926322504638,23.9973466856639,0 91.77938785600358,23.99706179918207,0 91.77943717336174,23.99702844664633,0 
					</coordinates>
				</LinearRing>
			</outerBoundaryIs>
		</Polygon>
		<atom:link rel="app" href="https://www.google.com/earth/about/versions/#earth-pro" title="Google Earth Pro 7.3.7.1155"></atom:link>
	</Placemark>
</Document>
</kml>
