<?xml version="1.0" encoding="UTF-8"?>
<kml xmlns="http://www.opengis.net/kml/2.2" xmlns:gx="http://www.google.com/kml/ext/2.2" xmlns:kml="http://www.opengis.net/kml/2.2" xmlns:atom="http://www.w3.org/2005/Atom">
<Document>
	<name>5 ha ANR JABNASHAKTI JFMC OF MAKARCHERRA VC.kml</name>
	<StyleMap id="m_ylw-pushpin">
		<Pair>
			<key>normal</key>
			<styleUrl>#s_ylw-pushpin</styleUrl>
		</Pair>
		<Pair>
			<key>highlight</key>
			<styleUrl>#s_ylw-pushpin_hl</styleUrl>
		</Pair>
	</StyleMap>
	<Style id="s_ylw-pushpin">
		<IconStyle>
			<scale>1.1</scale>
			<Icon>
				<href>http://maps.google.com/mapfiles/kml/pushpin/ylw-pushpin.png</href>
			</Icon>
			<hotSpot x="20" y="2" xunits="pixels" yunits="pixels"/>
		</IconStyle>
		<LineStyle>
			<color>ffffaa00</color>
			<width>5</width>
		</LineStyle>
		<PolyStyle>
			<fill>0</fill>
		</PolyStyle>
	</Style>
	<Style id="s_ylw-pushpin_hl">
		<IconStyle>
			<scale>1.3</scale>
			<Icon>
				<href>http://maps.google.com/mapfiles/kml/pushpin/ylw-pushpin.png</href>
			</Icon>
			<hotSpot x="20" y="2" xunits="pixels" yunits="pixels"/>
		</IconStyle>
		<LineStyle>
			<color>ffffaa00</color>
			<width>5</width>
		</LineStyle>
		<PolyStyle>
			<fill>0</fill>
		</PolyStyle>
	</Style>
	<Placemark>
		<name>5 ha ANR JABNASHAKTI JFMC OF MAKARCHERRA VC</name>
		<styleUrl>#m_ylw-pushpin</styleUrl>
		<Polygon>
			<tessellate>1</tessellate>
			<outerBoundaryIs>
				<LinearRing>
					<coordinates>
						92.01609354395971,23.87718429966894,0 92.01614245425405,23.87703599903195,0 92.01625462301513,23.87707810879379,0 92.01640461472874,23.87713449889093,0 92.01650360488725,23.87716501207681,0 92.01670171006486,23.87725739070219,0 92.01684784601893,23.87729970610112,0 92.01698198294642,23.8772888865074,0 92.0171406925972,23.87731181637839,0 92.01726291260267,23.87734454989151,0 92.01736750542763,23.8773455819579,0 92.01752410498955,23.87735592995736,0 92.01758399687209,23.87745494925873,0 92.0177304810157,23.87757389709515,0 92.01774703524609,23.87768087888547,0 92.01776396274516,23.87773894678773,0 92.01777246441019,23.87779610519845,0 92.01777186044994,23.87790231148414,0 92.01777111906782,23.87803318434225,0 92.01774969071985,23.87826152062012,0 92.01771756166352,23.87847198776773,0 92.017695790999,23.87859766798942,0 92.01760428654626,23.87876658019083,0 92.0174886494399,23.87873147296861,0 92.01738152968299,23.87873049664356,0 92.01737402542025,23.87866171497376,0 92.01725951333381,23.87864948739101,0 92.01714574656964,23.87863628254394,0 92.01710967006925,23.87867769811018,0 92.01710615246236,23.87876643340287,0 92.0171193372756,23.87891535305752,0 92.01709966803821,23.87898455982134,0 92.01708944124603,23.87905278495944,0 92.01703347133365,23.87912282785305,0 92.01696022515769,23.87920755270412,0 92.01686048412485,23.87925826743099,0 92.016715410069,23.87934227354556,0 92.01662635948126,23.87926648555957,0 92.01657387671753,23.87917350388011,0 92.01650516995844,23.8790695818316,0 92.01649950279035,23.87899040622392,0 92.01633884359732,23.87894005028983,0 92.01625077493779,23.87888047574081,0 92.01616918239938,23.87887360074215,0 92.01606869085813,23.87888429882464,0 92.01600451527945,23.87889429609052,0 92.01591987068004,23.87894843202952,0 92.01588964471271,23.87905105247068,0 92.01588792644702,23.87912716684648,0 92.01585197955043,23.87920907311348,0 92.01580725212355,23.8792742677566,0 92.01573054326845,23.87942403011525,0 92.01563992966719,23.87930212985064,0 92.01549457053746,23.87921290402682,0 92.01541823890599,23.87915653948784,0 92.01535558483823,23.87907503331772,0 92.01521073710725,23.87898041118167,0 92.01514184413145,23.87896141015219,0 92.0150135935276,23.87887126211314,0 92.01497415604904,23.87883851187106,0 92.01487986149363,23.87883081512784,0 92.01483398698308,23.87879161771412,0 92.01481769179028,23.87872613979695,0 92.01483246963348,23.87858349178862,0 92.01483761549625,23.87845535380296,0 92.01484885144778,23.87834042031238,0 92.01485365645632,23.87821927073255,0 92.01487005060972,23.87813055579186,0 92.01488916212178,23.8780220442951,0 92.01494476257986,23.87795927349865,0 92.01497502010834,23.87789571538389,0 92.01506221507447,23.87776282619672,0 92.01507975748895,23.87763700365705,0 92.01516504040998,23.87749907996239,0 92.01534077306881,23.87740629336208,0 92.01544975431908,23.87737518794361,0 92.0156014578353,23.87742031284432,0 92.01580576399122,23.87745141398392,0 92.01588920300388,23.87738237343251,0 92.01593149237664,23.87731349153141,0 92.01601185833952,23.87723315066011,0 92.01609354395971,23.87718429966894,0 
					</coordinates>
				</LinearRing>
			</outerBoundaryIs>
		</Polygon>
		<atom:link rel="app" href="https://www.google.com/earth/about/versions/#earth-pro" title="Google Earth Pro 7.3.7.1155"></atom:link>
	</Placemark>
</Document>
</kml>
