<?xml version="1.0" encoding="UTF-8"?>
<kml xmlns="http://www.opengis.net/kml/2.2" xmlns:gx="http://www.google.com/kml/ext/2.2" xmlns:kml="http://www.opengis.net/kml/2.2" xmlns:atom="http://www.w3.org/2005/Atom">
<Document>
	<name>1778224200077.kml</name>
	<StyleMap id="msn_ylw-pushpin">
		<Pair>
			<key>normal</key>
			<styleUrl>#sn_ylw-pushpin</styleUrl>
		</Pair>
		<Pair>
			<key>highlight</key>
			<styleUrl>#sh_ylw-pushpin</styleUrl>
		</Pair>
	</StyleMap>
	<Style id="sh_ylw-pushpin">
		<IconStyle>
			<scale>1.3</scale>
			<Icon>
				<href>http://maps.google.com/mapfiles/kml/pushpin/ylw-pushpin.png</href>
			</Icon>
			<hotSpot x="20" y="2" xunits="pixels" yunits="pixels"/>
		</IconStyle>
		<BalloonStyle>
		</BalloonStyle>
		<PolyStyle>
			<fill>0</fill>
		</PolyStyle>
	</Style>
	<Style id="sn_ylw-pushpin">
		<IconStyle>
			<scale>1.1</scale>
			<Icon>
				<href>http://maps.google.com/mapfiles/kml/pushpin/ylw-pushpin.png</href>
			</Icon>
			<hotSpot x="20" y="2" xunits="pixels" yunits="pixels"/>
		</IconStyle>
		<BalloonStyle>
		</BalloonStyle>
		<PolyStyle>
			<fill>0</fill>
		</PolyStyle>
	</Style>
	<Placemark>
		<name>1778224200077</name>
		<styleUrl>#msn_ylw-pushpin</styleUrl>
		<Polygon>
			<tessellate>1</tessellate>
			<outerBoundaryIs>
				<LinearRing>
					<coordinates>
						91.78743293964681,23.14128067058081,0 91.78728979761433,23.14104343857286,0 91.78725254568236,23.14085827523138,0 91.78730844054411,23.14066971890245,0 91.78731109077401,23.14042498116662,0 91.78755553442267,23.14030301220046,0 91.78771901619302,23.14016280721904,0 91.78787588019065,23.14010492518173,0 91.78810119389291,23.14012504533693,0 91.78820104148011,23.14006862567346,0 91.78832559347958,23.13997705658643,0 91.78841406744246,23.13988187722867,0 91.78854403459606,23.1397017735196,0 91.78864364016201,23.1396899011806,0 91.78881603712163,23.1397162887886,0 91.78902564856892,23.139723813343,0 91.78928817854084,23.13969565068232,0 91.78951561894124,23.13972007842429,0 91.78965220024514,23.13987208202212,0 91.78969136421908,23.13988728889183,0 91.79001579685304,23.13990009469063,0 91.79018181320367,23.13995693826855,0 91.79029878967738,23.14010147489987,0 91.79028483727966,23.14030455048918,0 91.79035189770599,23.14042591742464,0 91.79036211758469,23.14052487793719,0 91.79023103681477,23.14090528862015,0 91.79024716614545,23.14103996469231,0 91.79017570873359,23.14122262102008,0 91.79002227576333,23.1412971429328,0 91.78992491669749,23.1413819040508,0 91.78972261950963,23.14135618673535,0 91.78954069027304,23.14139771024214,0 91.78923395413851,23.14143300338231,0 91.78894414646953,23.14151751694499,0 91.78874288616771,23.14171382977527,0 91.78860460164751,23.14171882836072,0 91.78830538391924,23.14168377491706,0 91.78796440597488,23.14169373469779,0 91.78750487701348,23.14162697247889,0 91.78743293964681,23.14128067058081,0 
					</coordinates>
				</LinearRing>
			</outerBoundaryIs>
		</Polygon>
		<atom:link rel="app" href="https://www.google.com/earth/about/versions/#earth-pro" title="Google Earth Pro 7.3.7.1155"></atom:link>
	</Placemark>
</Document>
</kml>
