<?xml version="1.0" encoding="UTF-8"?>
<kml xmlns="http://www.opengis.net/kml/2.2" xmlns:gx="http://www.google.com/kml/ext/2.2" xmlns:kml="http://www.opengis.net/kml/2.2" xmlns:atom="http://www.w3.org/2005/Atom">
<Document>
	<name>1778487688836.kml</name>
	<StyleMap id="msn_ylw-pushpin">
		<Pair>
			<key>normal</key>
			<styleUrl>#sn_ylw-pushpin</styleUrl>
		</Pair>
		<Pair>
			<key>highlight</key>
			<styleUrl>#sh_ylw-pushpin</styleUrl>
		</Pair>
	</StyleMap>
	<Style id="sh_ylw-pushpin">
		<IconStyle>
			<scale>1.3</scale>
			<Icon>
				<href>http://maps.google.com/mapfiles/kml/pushpin/ylw-pushpin.png</href>
			</Icon>
			<hotSpot x="20" y="2" xunits="pixels" yunits="pixels"/>
		</IconStyle>
		<BalloonStyle>
		</BalloonStyle>
		<LineStyle>
			<color>ffff55ff</color>
			<width>4.3</width>
		</LineStyle>
		<PolyStyle>
			<color>4dffffff</color>
		</PolyStyle>
	</Style>
	<Style id="sn_ylw-pushpin">
		<IconStyle>
			<scale>1.1</scale>
			<Icon>
				<href>http://maps.google.com/mapfiles/kml/pushpin/ylw-pushpin.png</href>
			</Icon>
			<hotSpot x="20" y="2" xunits="pixels" yunits="pixels"/>
		</IconStyle>
		<BalloonStyle>
		</BalloonStyle>
		<LineStyle>
			<color>ffff55ff</color>
			<width>4.3</width>
		</LineStyle>
		<PolyStyle>
			<color>4dffffff</color>
		</PolyStyle>
	</Style>
	<Placemark>
		<name>1778487688836</name>
		<styleUrl>#msn_ylw-pushpin</styleUrl>
		<Polygon>
			<tessellate>1</tessellate>
			<outerBoundaryIs>
				<LinearRing>
					<coordinates>
						91.61117158657775,23.77746140911303,0 91.61116312571805,23.77742707923872,0 91.6112259349828,23.77735940107296,0 91.61125346773056,23.77736824570211,0 91.61127218218807,23.77734822070438,0 91.61140437729365,23.77721968499286,0 91.61153954183133,23.77722525266867,0 91.61167571532026,23.77724903780289,0 91.6117882127246,23.77727729059277,0 91.61193956549913,23.77731005013946,0 91.61201132480062,23.77736988755212,0 91.61207071026357,23.77740033561394,0 91.61216135614238,23.7773521481638,0 91.61217237178469,23.77734610934946,0 91.61218085995127,23.77734395229617,0 91.61218954111881,23.7773399023718,0 91.61219840412294,23.77733397168551,0 91.61220999561574,23.77732056913123,0 91.61221705208479,23.77731109134183,0 91.61222191613412,23.77730350244775,0 91.61222885978169,23.7772958207153,0 91.61224632218581,23.77728416010395,0 91.6122686808427,23.7772801482941,0 91.61227501369214,23.77727638156263,0 91.61228316194942,23.7772744283094,0 91.61228979698717,23.77726701107169,0 91.6122982356828,23.77726141582438,0 91.61230909919753,23.77725035521702,0 91.61231534624673,23.77724664510745,0 91.61232553387227,23.77724288832771,0 91.61233615071379,23.77723370559383,0 91.61234826512259,23.77722993051959,0 91.61235669159571,23.7772226300531,0 91.61236691557924,23.77721711734112,0 91.61237710880459,23.77721162118177,0 91.61239337868795,23.77720250639666,0 91.61240349171189,23.77719705400478,0 91.61240968346324,23.77719166914246,0 91.61241368825394,23.77718985195715,0 91.6124258961446,23.77718089246356,0 91.61243375702279,23.77717903591094,0 91.61244158763543,23.77717721009746,0 91.61245731468109,23.77717182023223,0 91.61246318865213,23.77717002105509,0 91.61247500403488,23.77716468976248,0 91.61248846391285,23.7771645614339,0 91.61249622890286,23.77716275188957,0 91.61250398496057,23.77716094442946,0 91.61251549654894,23.77716083567898,0 91.61253485000461,23.77715547827781,0 91.6125444176066,23.77715538937259,0 91.61255206829725,23.77715531834206,0 91.61256162741338,23.77715522956921,0 91.61257118175303,23.77715514083954,0 91.61258068671137,23.77715677406763,0 91.6125939668031,23.77716011691377,0 91.61260347428967,23.77716176938743,0 91.61261107578798,23.77716343670308,0 91.61261865073529,23.77716682623376,0 91.61262244126493,23.77716852236209,0 91.61263193901992,23.77717190393069,0 91.61264713937098,23.77717870453471,0 91.61265664786154,23.77718382843757,0 91.61266807415616,23.7771906831915,0 91.61267760033401,23.77719931006075,0 91.61268716191945,23.77720621581939,0 91.6126967492312,23.77721138722722,0 91.612704430261,23.77721833661013,0 91.61271405513895,23.77722528764698,0 91.61272370299066,23.77723225525802,0 91.61273144505317,23.7772392555968,0 91.61274113718112,23.77724625690531,0 91.61274697220757,23.7772515311902,0 91.61275672130651,23.77726034351802,0 91.61276648390999,23.77726743018782,0 91.6127743320415,23.77727455225194,0 91.61278220081284,23.77728169304061,0 91.61278817352418,23.7772906636837,0 91.6128000473491,23.77730144604091,0 91.61280401573197,23.77730504963136,0 91.6128060369938,23.77730866746169,0 91.61282185705338,23.77731768044229,0 91.61283772774102,23.77732672215944,0 91.61284565758764,23.77733033903116,0 91.61285560188371,23.777335753199,0 91.61286757348738,23.77734297119011,0 91.61287553373248,23.77734657644777,0 91.61288749099326,23.7773519918936,0 91.61289356830912,23.77735744781553,0 91.61290582102876,23.77737022784192,0 91.61291601511705,23.77737938234638,0 91.61292003195975,23.77738120572782,0 91.61292807247445,23.77738485558073,0 91.6129557890161,23.77738818433308,0 91.61297768599844,23.77739342808328,0 91.61299549914601,23.7773950669834,0 91.61300747524072,23.77739691302209,0 91.61302135495902,23.77739693868821,0 91.6130610178426,23.77739701206175,0 91.61309318405924,23.77740437936729,0 91.61311142679045,23.77740995165652,0 91.61321379300196,23.77741461579173,0 91.61333754618022,23.77747306188287,0 91.6134658477888,23.77751885765926,0 91.61359888520501,23.77755399892106,0 91.61367970037928,23.77759083713411,0 91.61373231969762,23.77766067593369,0 91.61388655813592,23.77774599981472,0 91.61400047313843,23.77780904884406,0 91.61400898598286,23.7778960736308,0 91.61416880280495,23.77800082526672,0 91.61426077972999,23.7781257778023,0 91.61436091487421,23.77822323402069,0 91.61437457020855,23.77830983630712,0 91.61431664345268,23.77837671525641,0 91.61416721325014,23.77840252515713,0 91.61405559945825,23.77833399680487,0 91.61401130003149,23.77836931585729,0 91.6140217583533,23.77846597737013,0 91.61407475319669,23.77854266057928,0 91.61403392138868,23.77857346232941,0 91.61405180226302,23.77864874040712,0 91.61403343176893,23.7786927953028,0 91.61406793137574,23.7787633598581,0 91.61407578780461,23.77887582610902,0 91.61399464383483,23.77892178123243,0 91.61384624525101,23.77894493017187,0 91.61378917120584,23.7789705118542,0 91.6136614464609,23.77889554145722,0 91.61348870315244,23.77882153560274,0 91.61331095271855,23.77879076588953,0 91.61314735156512,23.77868117531917,0 91.61297140283446,23.77856571879748,0 91.61282477039899,23.77841984149355,0 91.61268265121093,23.77837784542116,0 91.61259846804161,23.7782701412341,0 91.61245671832388,23.77828248520529,0 91.61230714064114,23.77826199770338,0 91.61229575319066,23.77825677853244,0 91.6122824084057,23.77824637997862,0 91.61226132615448,23.77824635251277,0 91.61224961410883,23.77824633732169,0 91.61224048476259,23.77824361604831,0 91.61222281621448,23.77823259514387,0 91.61221401111339,23.77822710287462,0 91.61220961591367,23.7782243613254,0 91.6122014839851,23.7782112256833,0 91.61219339060841,23.77819815231587,0 91.61218967036282,23.77818788419588,0 91.61218384387806,23.77817520238109,0 91.6121734912829,23.77816240939681,0 91.61216481800605,23.77815714367001,0 91.61215616262903,23.77815188878938,0 91.61214774393009,23.77814418949666,0 91.61213664139001,23.77814133016812,0 91.61212600837439,23.77813358143412,0 91.61211136065583,23.77812082390809,0 91.61210553907061,23.77811086647593,0 91.61209596038988,23.77809354354472,0 91.6120881953786,23.77808120111543,0 91.612084445764,23.77807385190135,0 91.61207624610113,23.77806637030971,0 91.61207029062157,23.77805899445181,0 91.61206012985046,23.77804916036042,0 91.61204975229253,23.77804173119167,0 91.61203547926605,23.77802947640067,0 91.61202686731606,23.77802687489611,0 91.61201677823266,23.77801727618372,0 91.61200457033948,23.77800379631784,0 91.61200272008888,23.77799936885139,0 91.61199479460613,23.77798824022074,0 91.61198725900894,23.77797280028997,0 91.6119837783384,23.77796185441371,0 91.61198213359917,23.77795531174167,0 91.61196607856527,23.77793764041019,0 91.6119560830668,23.77792663872041,0 91.61195627307276,23.7779244933104,0 91.61195086504318,23.77791149289849,0 91.61193299642711,23.77789185076728,0 91.61192547896702,23.77787891158842,0 91.61190992046926,23.77785948947698,0 91.61188961770594,23.77784256543588,0 91.61187537361056,23.77783012789658,0 91.61185227555197,23.77781788254067,0 91.61184782822639,23.77781796184775,0 91.61174672660611,23.77775486428934,0 91.61172300533073,23.77771414407258,0 91.61161945815824,23.77763968030046,0 91.61149447333963,23.77758359625674,0 91.61135423888886,23.77757718731384,0 91.61127861678484,23.77754051667315,0 91.6112005456168,23.77753634319292,0 91.61117158657775,23.77746140911303,0 
					</coordinates>
				</LinearRing>
			</outerBoundaryIs>
		</Polygon>
		<atom:link rel="app" href="https://www.google.com/earth/about/versions/#earth-pro" title="Google Earth Pro 7.3.7.1155"></atom:link>
	</Placemark>
</Document>
</kml>
