<?xml version="1.0" encoding="UTF-8"?>
<kml xmlns="http://www.opengis.net/kml/2.2" xmlns:gx="http://www.google.com/kml/ext/2.2" xmlns:kml="http://www.opengis.net/kml/2.2" xmlns:atom="http://www.w3.org/2005/Atom">
<Document>
	<name>12 ha AR Champaraipara JFMC.kml</name>
	<StyleMap id="m_ylw-pushpin">
		<Pair>
			<key>normal</key>
			<styleUrl>#s_ylw-pushpin</styleUrl>
		</Pair>
		<Pair>
			<key>highlight</key>
			<styleUrl>#s_ylw-pushpin_hl</styleUrl>
		</Pair>
	</StyleMap>
	<Style id="s_ylw-pushpin">
		<IconStyle>
			<scale>1.1</scale>
			<Icon>
				<href>http://maps.google.com/mapfiles/kml/pushpin/ylw-pushpin.png</href>
			</Icon>
			<hotSpot x="20" y="2" xunits="pixels" yunits="pixels"/>
		</IconStyle>
	</Style>
	<Style id="s_ylw-pushpin_hl">
		<IconStyle>
			<scale>1.3</scale>
			<Icon>
				<href>http://maps.google.com/mapfiles/kml/pushpin/ylw-pushpin.png</href>
			</Icon>
			<hotSpot x="20" y="2" xunits="pixels" yunits="pixels"/>
		</IconStyle>
	</Style>
	<Placemark>
		<name>12 ha AR Champaraipara JFMC</name>
		<styleUrl>#m_ylw-pushpin</styleUrl>
		<Polygon>
			<tessellate>1</tessellate>
			<outerBoundaryIs>
				<LinearRing>
					<coordinates>
						91.93420424802869,23.75227124807665,0 91.93431113689765,23.75227114498209,0 91.93438213422407,23.75227106720719,0 91.93446680492232,23.75235410471679,0 91.93453345095561,23.75243732883878,0 91.93454998720134,23.75250409222429,0 91.9345842544728,23.75257088808098,0 91.93460071078172,23.75265444167215,0 91.93470658027917,23.75268792200425,0 91.93477787485689,23.75270469051716,0 91.93488561986372,23.75273821121995,0 91.93495746055136,23.75267131305708,0 91.93495761544027,23.75258762289429,0 91.93495775756841,23.75255414930756,0 91.93494022781172,23.75248721405446,0 91.93494094243377,23.75240356278373,0 91.93494160717916,23.75235339661299,0 91.93490955714992,23.75221988220497,0 91.93491003403881,23.75216977045821,0 91.93491082758456,23.75208627113306,0 91.93494626638272,23.7519691768738,0 91.93494829938265,23.75183582411964,0 91.93494939222903,23.75175240495598,0 91.93491675848264,23.75166954299016,0 91.93481828318924,23.75152151683053,0 91.93483511129952,23.75150458335731,0 91.93491938410632,23.75141978563514,0 91.93497179821921,23.75133583445499,0 91.93509516712494,23.75120113884564,0 91.93516666397846,23.75111714210697,0 91.93522077114166,23.75105011137644,0 91.93525790310628,23.75100018813579,0 91.93531179341772,23.75096647375446,0 91.93550720945328,23.75088090917903,0 91.93561379633381,23.75082950461294,0 91.93570252725058,23.75079490676964,0 91.93577375384652,23.75076055913369,0 91.93591760219243,23.75070910690948,0 91.93600801461211,23.7506749543816,0 91.93619043865786,23.75062419550033,0 91.93633825721221,23.75059121511149,0 91.93650752353453,23.7505601050078,0 91.93658240903505,23.7505275604544,0 91.93669500513238,23.75051252119325,0 91.93673216211887,23.75047942145616,0 91.93676831693045,23.7503620261046,0 91.9368058500043,23.75036268071229,0 91.93689977543569,23.75038116564487,0 91.93695617387262,23.75039901262162,0 91.9370505158783,23.75043461152659,0 91.93714501249859,23.75048705018876,0 91.93722002895056,23.75052193506235,0 91.93731292383043,23.75057329600959,0 91.93733124919133,23.75062333423755,0 91.93733028664489,23.75072255039579,0 91.93734765742954,23.75080527562678,0 91.9374023430431,23.75085530534094,0 91.9375487463565,23.75093911861698,0 91.93765862718389,23.75098955135114,0 91.93771335461511,23.75102294418923,0 91.93780563248538,23.75107381459863,0 91.93787963258323,23.7511079042907,0 91.93804646210307,23.75112694936229,0 91.93813863468461,23.75114466183021,0 91.93824866329938,23.75117883515782,0 91.93835854771871,23.75119640362522,0 91.93843162271692,23.75121356743649,0 91.93850439903061,23.75124703996179,0 91.93855867318415,23.75128016704161,0 91.93861294475238,23.75131329424213,0 91.93879269089084,23.75142818569837,0 91.93888250234438,23.7514772643276,0 91.93888171180511,23.75152627682292,0 91.93886276755006,23.75157533961424,0 91.93882506971454,23.75165724016157,0 91.93880561850301,23.75172281193377,0 91.93880396279009,23.75180495491976,0 91.93880204803142,23.75188718159271,0 91.93881871768156,23.75198651113379,0 91.93892718071172,23.7521364063425,0 91.93896380749624,23.75218657604345,0 91.93900044765407,23.75222003526557,0 91.93907387851658,23.75228697632301,0 91.9391477537127,23.75237067453938,0 91.93916629104989,23.75240409611127,0 91.93920360264441,23.75252088643775,0 91.93920444819932,23.75263744507279,0 91.93920470653116,23.75267069996512,0 91.93915052010649,23.75272055905476,0 91.93907841370481,23.75280358102018,0 91.93904226447296,23.7528367804954,0 91.93896989622736,23.75288656374126,0 91.93889718674976,23.75293644861965,0 91.93882420170559,23.75296980515339,0 91.93873300710509,23.75296992449367,0 91.93864175930052,23.75297004401262,0 91.9384596877895,23.75297014150548,0 91.93833189321489,23.75297027029416,0 91.93818523788666,23.75300383719876,0 91.93811172596651,23.75302066310628,0 91.93803780162094,23.7530542469574,0 91.9379255187511,23.75313840215571,0 91.93790657198866,23.75317198667116,0 91.93788743810214,23.75322234857211,0 91.93784936999775,23.75330641062418,0 91.93777453577886,23.75337389981443,0 91.93771833461466,23.75342459121337,0 91.93760701322822,23.75345863136852,0 91.93749598227723,23.75350934908767,0 91.93744059534659,23.75355979687243,0 91.93740362272675,23.75361021584462,0 91.93732985585385,23.75366070688243,0 91.93727476067524,23.75372782947867,0 91.93721993354696,23.75379485295895,0 91.93710986993129,23.75384521435819,0 91.93696250574716,23.75386231034607,0 91.93683465908778,23.7539292166493,0 91.93679803270061,23.75392922259728,0 91.9366172579897,23.75392824014198,0 91.93634986785194,23.75392558805312,0 91.93624323743737,23.75392452058742,0 91.93581324178764,23.75393857753187,0 91.93517787530166,23.75367528219808,0 91.93476625118086,23.75323908383569,0 91.93445799282139,23.75272115530696,0 91.93421970170343,23.75232107201381,0 91.93420424802869,23.75227124807665,0 
					</coordinates>
				</LinearRing>
			</outerBoundaryIs>
		</Polygon>
		<atom:link rel="app" href="https://www.google.com/earth/about/versions/#earth-pro" title="Google Earth Pro 7.3.7.1155"></atom:link>
	</Placemark>
</Document>
</kml>
