<?xml version="1.0" encoding="UTF-8"?>
<kml xmlns="http://www.opengis.net/kml/2.2" xmlns:gx="http://www.google.com/kml/ext/2.2" xmlns:kml="http://www.opengis.net/kml/2.2" xmlns:atom="http://www.w3.org/2005/Atom">
<Document>
	<name>1778166203465.kml</name>
	<StyleMap id="msn_ylw-pushpin">
		<Pair>
			<key>normal</key>
			<styleUrl>#sn_ylw-pushpin</styleUrl>
		</Pair>
		<Pair>
			<key>highlight</key>
			<styleUrl>#sh_ylw-pushpin</styleUrl>
		</Pair>
	</StyleMap>
	<Style id="sh_ylw-pushpin">
		<IconStyle>
			<scale>1.3</scale>
			<Icon>
				<href>http://maps.google.com/mapfiles/kml/pushpin/ylw-pushpin.png</href>
			</Icon>
			<hotSpot x="20" y="2" xunits="pixels" yunits="pixels"/>
		</IconStyle>
		<BalloonStyle>
		</BalloonStyle>
		<LineStyle>
			<width>2.5</width>
		</LineStyle>
		<PolyStyle>
			<fill>0</fill>
		</PolyStyle>
	</Style>
	<Style id="sn_ylw-pushpin">
		<IconStyle>
			<scale>1.1</scale>
			<Icon>
				<href>http://maps.google.com/mapfiles/kml/pushpin/ylw-pushpin.png</href>
			</Icon>
			<hotSpot x="20" y="2" xunits="pixels" yunits="pixels"/>
		</IconStyle>
		<BalloonStyle>
		</BalloonStyle>
		<LineStyle>
			<width>2.5</width>
		</LineStyle>
		<PolyStyle>
			<fill>0</fill>
		</PolyStyle>
	</Style>
	<Placemark>
		<name>1778166203465</name>
		<visibility>0</visibility>
		<styleUrl>#msn_ylw-pushpin</styleUrl>
		<Polygon>
			<tessellate>1</tessellate>
			<outerBoundaryIs>
				<LinearRing>
					<coordinates>
						92.09200569618048,24.14775690339037,0 92.09221932091771,24.14785367797684,0 92.09241460159014,24.14787923971868,0 92.09263313110901,24.14777112672833,0 92.09282470655141,24.14772381407163,0 92.09304357888311,24.14771119523348,0 92.09305815534582,24.14771130379516,0 92.09309819362647,24.14771377449494,0 92.09316016949475,24.14772390492073,0 92.09318944415985,24.14773151869963,0 92.09320776212539,24.14773199193909,0 92.09323341043074,24.14773232525524,0 92.0932554302773,24.1477339289623,0 92.09327380706151,24.14773562601829,0 92.09328840329137,24.1477312481397,0 92.09330679442495,24.14773294357339,0 92.09332136698059,24.14772856795454,0 92.09333558339567,24.1477127848298,0 92.09335372157092,24.14770810417262,0 92.09336082929724,24.14770241978152,0 92.0935318542229,24.1475830587471,0 92.09368767851521,24.14755584788705,0 92.09383072865079,24.14751808297807,0 92.09405430074615,24.14737219016422,0 92.0942967451967,24.14723167021291,0 92.09452124355253,24.14713579278165,0 92.09453470827707,24.14713612808557,0 92.09454817642275,24.14713646315575,0 92.09456164783349,24.14713679850491,0 92.09457743744503,24.14713316453271,0 92.09461124678347,24.14712195557833,0 92.09463092925169,24.14711953589751,0 92.09464476927619,24.14712058711853,0 92.09467207653616,24.14712196543853,0 92.09471039650096,24.1472076274519,0 92.09478889263275,24.14734594574705,0 92.09488546968331,24.14760766916352,0 92.09492748248942,24.14801915009426,0 92.0948628396425,24.14820299332686,0 92.09477620854437,24.14814714509635,0 92.09470541388515,24.14822033549779,0 92.0946286204272,24.14826778096187,0 92.09460428397371,24.14833961936225,0 92.09469458523969,24.14844770612479,0 92.09471309234802,24.14845662628104,0 92.09473236043618,24.14847005225691,0 92.09474384442362,24.14848800942546,0 92.09474273399556,24.1485066861054,0 92.09474161933271,24.14852543899161,0 92.09472703600625,24.14854026856352,0 92.09470816486208,24.14855536978563,0 92.09468791391164,24.14856168268835,0 92.09467686754198,24.14857224865875,0 92.09465736059305,24.14858351123712,0 92.09464125427721,24.14858965798167,0 92.09462436215036,24.1485910000001,0 92.09460669525792,24.1485874881971,0 92.09458550463438,24.14858899497851,0 92.094564334431,24.14859061098614,0 92.09454684272008,24.14858761910044,0 92.09453012356525,24.1485896269944,0 92.09451338807666,24.14859163706299,0 92.09449169731292,24.14858914473995,0 92.0941375204211,24.14850928224585,0 92.0938253557665,24.14846691537712,0 92.09363566790412,24.14840830617861,0 92.09344779510208,24.14850768829002,0 92.0933154964096,24.14852566976865,0 92.09311830888984,24.14861779358727,0 92.09297886083098,24.14866740372823,0 92.09296133081675,24.14867287887139,0 92.09294830969672,24.1486723752469,0 92.09290042197085,24.14867578406231,0 92.0928657660026,24.14867385390178,0 92.09283979188099,24.14867243773069,0 92.09282625789929,24.14868372486746,0 92.09280026906042,24.14868230388735,0 92.09279593917412,24.14868206727772,0 92.09265545576801,24.14871088554903,0 92.09262851207851,24.14872491671213,0 92.0926053573709,24.1487481224534,0 92.09258320254118,24.14875537800691,0 92.09258246499559,24.14876607663626,0 92.0924612791912,24.14876173669175,0 92.09239224479744,24.14885338992041,0 92.09234766350178,24.14886084123511,0 92.0923183245458,24.14872208576902,0 92.09217924659649,24.1486982388486,0 92.09199932434538,24.14859384091272,0 92.09169995294788,24.14849861375999,0 92.09167757543763,24.14850250576336,0 92.09165475550368,24.1485074772259,0 92.09163187913192,24.14851246055333,0 92.09161353821007,24.14851645597832,0 92.09158135763734,24.14852347376008,0 92.09156368960375,24.14850974192142,0 92.09154976410407,24.14851302682873,0 92.09152650582057,24.14851851331709,0 92.09149835259906,24.1485255025947,0 92.09148365129045,24.14850239238399,0 92.09146016028474,24.14850824174251,0 92.09144603285952,24.14851175980472,0 92.09143660124791,24.14851410827241,0 92.09139748091621,24.14854142975214,0 92.09136910339424,24.14854811389253,0 92.09135014209566,24.1485525599212,0 92.09133616573928,24.14855529283532,0 92.09114695340887,24.14845043618841,0 92.09096650818314,24.14836318623725,0 92.09099479264628,24.1480308532859,0 92.09104947997587,24.147773480832,0 92.09107244088132,24.14766844080845,0 92.09122782216356,24.14759125241212,0 92.09129350738056,24.14751254423716,0 92.0915071346286,24.14758719885955,0 92.09156570523005,24.14762181088542,0 92.09171171221847,24.14765623489,0 92.09200569618048,24.14775690339037,0 
					</coordinates>
				</LinearRing>
			</outerBoundaryIs>
		</Polygon>
		<atom:link rel="app" href="https://www.google.com/earth/about/versions/#earth-pro" title="Google Earth Pro 7.3.7.1155"></atom:link>
	</Placemark>
</Document>
</kml>
