<?xml version="1.0" encoding="UTF-8"?>
<kml xmlns="http://www.opengis.net/kml/2.2" xmlns:gx="http://www.google.com/kml/ext/2.2" xmlns:kml="http://www.opengis.net/kml/2.2" xmlns:atom="http://www.w3.org/2005/Atom">
<Document>
	<name>1778239529241.kml</name>
	<StyleMap id="msn_ylw-pushpin">
		<Pair>
			<key>normal</key>
			<styleUrl>#sn_ylw-pushpin</styleUrl>
		</Pair>
		<Pair>
			<key>highlight</key>
			<styleUrl>#sh_ylw-pushpin</styleUrl>
		</Pair>
	</StyleMap>
	<Style id="sh_ylw-pushpin">
		<IconStyle>
			<scale>1.3</scale>
			<Icon>
				<href>http://maps.google.com/mapfiles/kml/pushpin/ylw-pushpin.png</href>
			</Icon>
			<hotSpot x="20" y="2" xunits="pixels" yunits="pixels"/>
		</IconStyle>
		<BalloonStyle>
		</BalloonStyle>
		<PolyStyle>
			<fill>0</fill>
		</PolyStyle>
	</Style>
	<Style id="sn_ylw-pushpin">
		<IconStyle>
			<scale>1.1</scale>
			<Icon>
				<href>http://maps.google.com/mapfiles/kml/pushpin/ylw-pushpin.png</href>
			</Icon>
			<hotSpot x="20" y="2" xunits="pixels" yunits="pixels"/>
		</IconStyle>
		<BalloonStyle>
		</BalloonStyle>
		<PolyStyle>
			<fill>0</fill>
		</PolyStyle>
	</Style>
	<Placemark>
		<name>1778239529241</name>
		<styleUrl>#msn_ylw-pushpin</styleUrl>
		<Polygon>
			<tessellate>1</tessellate>
			<outerBoundaryIs>
				<LinearRing>
					<coordinates>
						91.55106793670396,23.65752213792492,0 91.55100122924615,23.65744152324889,0 91.55094900149035,23.65726042237029,0 91.55093604728536,23.65710493558738,0 91.55081150095627,23.65689285171653,0 91.5507365928392,23.65670371572404,0 91.55065394475275,23.65660600376815,0 91.55058431635891,23.65646582907622,0 91.55037568779376,23.65637061439562,0 91.550223329611,23.65615125512833,0 91.55017181562377,23.65588599108246,0 91.55005098507516,23.65577303102216,0 91.55007648385093,23.65550364668409,0 91.55016109620215,23.65535266998834,0 91.55019202834119,23.65528748342012,0 91.55029171508049,23.65522833863336,0 91.55042669619925,23.65499677296015,0 91.55049644659431,23.65483265299251,0 91.55039782652824,23.65476530828053,0 91.55041065231283,23.65456038049271,0 91.55045947210648,23.6542870470303,0 91.55059481928799,23.65402766583784,0 91.5508164500132,23.6539464957348,0 91.55116301735107,23.65389771767051,0 91.55152540065103,23.65386733618909,0 91.55183342510246,23.65392091382523,0 91.55208793864362,23.65413103384905,0 91.55217720727839,23.65407244698474,0 91.55236841303058,23.65412585525588,0 91.55249015487234,23.65418836862196,0 91.55262917474812,23.65426938265133,0 91.55279350547966,23.6543147305507,0 91.55284197451972,23.65428726749265,0 91.55297281925537,23.65432857055756,0 91.55309085648516,23.65438410841537,0 91.55329874524121,23.65455758213407,0 91.55338066174791,23.65475390336472,0 91.55355901916542,23.65489844733132,0 91.55372774274896,23.65514565489745,0 91.55381308926405,23.65525634196374,0 91.55373851144434,23.65554625426905,0 91.55375641735769,23.65571708038269,0 91.55354782026717,23.6559655660596,0 91.55359987608787,23.65604147932109,0 91.55343318047231,23.65628374355969,0 91.55338029689096,23.6565149921928,0 91.55314477253502,23.65655203206,0 91.55309298883441,23.6567652442618,0 91.55298132033629,23.65682785897588,0 91.5528379206464,23.65675720674534,0 91.5527348683454,23.65663035320988,0 91.55266883638541,23.65664527920891,0 91.55253636172992,23.65682121072476,0 91.55224647967849,23.65695798526006,0 91.55181483348578,23.65723835014061,0 91.55156426935277,23.6573351624601,0 91.55144942543976,23.65740953905497,0 91.55116550123256,23.65753298124103,0 91.55106793670396,23.65752213792492,0 
					</coordinates>
				</LinearRing>
			</outerBoundaryIs>
		</Polygon>
		<atom:link rel="app" href="https://www.google.com/earth/about/versions/#earth-pro" title="Google Earth Pro 7.3.7.1155"></atom:link>
	</Placemark>
</Document>
</kml>
