<?xml version="1.0" encoding="UTF-8"?>
<kml xmlns="http://www.opengis.net/kml/2.2" xmlns:gx="http://www.google.com/kml/ext/2.2" xmlns:kml="http://www.opengis.net/kml/2.2" xmlns:atom="http://www.w3.org/2005/Atom">
<Document>
	<name>Pre-Survey Map of AR Bamboo plantation (ELEMENT Project) over 10.0 ha at  Madhabbari Beat under Mandwi Range during the financia.kml</name>
	<StyleMap id="msn_ylw-pushpin">
		<Pair>
			<key>normal</key>
			<styleUrl>#sn_ylw-pushpin</styleUrl>
		</Pair>
		<Pair>
			<key>highlight</key>
			<styleUrl>#sh_ylw-pushpin</styleUrl>
		</Pair>
	</StyleMap>
	<Style id="sh_ylw-pushpin">
		<IconStyle>
			<scale>1.3</scale>
			<Icon>
				<href>http://maps.google.com/mapfiles/kml/pushpin/ylw-pushpin.png</href>
			</Icon>
			<hotSpot x="20" y="2" xunits="pixels" yunits="pixels"/>
		</IconStyle>
		<BalloonStyle>
		</BalloonStyle>
		<LineStyle>
			<width>2.5</width>
		</LineStyle>
		<PolyStyle>
			<fill>0</fill>
		</PolyStyle>
	</Style>
	<Style id="sn_ylw-pushpin">
		<IconStyle>
			<scale>1.1</scale>
			<Icon>
				<href>http://maps.google.com/mapfiles/kml/pushpin/ylw-pushpin.png</href>
			</Icon>
			<hotSpot x="20" y="2" xunits="pixels" yunits="pixels"/>
		</IconStyle>
		<BalloonStyle>
		</BalloonStyle>
		<LineStyle>
			<width>2.5</width>
		</LineStyle>
		<PolyStyle>
			<fill>0</fill>
		</PolyStyle>
	</Style>
	<Placemark>
		<name>Pre-Survey Map of AR Bamboo plantation (ELEMENT Project) over 10.0 ha at  Madhabbari Beat under Mandwi Range during the financial Year 2026-27. -11_8_44</name>
		<styleUrl>#msn_ylw-pushpin</styleUrl>
		<Polygon>
			<tessellate>1</tessellate>
			<outerBoundaryIs>
				<LinearRing>
					<coordinates>
						91.5174118985779,23.88367045844732,0 91.51762001120912,23.88362893659128,0 91.51781086995233,23.88365058338757,0 91.51807515805045,23.88365550852879,0 91.51850313877743,23.88353993370595,0 91.51889429779482,23.88346582945447,0 91.51906574944825,23.88346567122527,0 91.51943308408264,23.8834521495097,0 91.51956720747204,23.88348380872689,0 91.51972257009947,23.8835912474462,0 91.51989273319245,23.88371073956822,0 91.52011941643158,23.88386912388066,0 91.52047208967963,23.88384229467642,0 91.52057736537091,23.8839709117809,0 91.52068122697315,23.88385951916777,0 91.52082191119794,23.88391514809454,0 91.52104063613307,23.88382573535225,0 91.52151870042522,23.88359895277808,0 91.52165980142023,23.88369265036935,0 91.52172135557396,23.88371216299316,0 91.52176993891692,23.88379912214117,0 91.52188021228015,23.88377554536223,0 91.52199073630544,23.88382239367712,0 91.52221544349655,23.88386867229637,0 91.52241628818894,23.88394571779046,0 91.52257009862616,23.88407914065528,0 91.52287591484236,23.88418605818872,0 91.52303015307274,23.88410788757153,0 91.52318184168782,23.8841241024819,0 91.52338222990632,23.88408186288103,0 91.52374064570375,23.88403893270856,0 91.52408002161445,23.88418442487966,0 91.52414395714875,23.88431938547064,0 91.52411245259579,23.88468232444157,0 91.52417806334685,23.8850716400506,0 91.52389990299346,23.88510702739884,0 91.52369273899568,23.88540305199481,0 91.52326226786924,23.8853534479342,0 91.52285368275706,23.88512203335528,0 91.52257587199423,23.88501166022247,0 91.52227091585628,23.88501310119175,0 91.52203515649038,23.88513020185174,0 91.52178586403917,23.88526897790549,0 91.5216317055058,23.88546410257994,0 91.52144365944068,23.88567577146367,0 91.52115470699067,23.88591882587598,0 91.52092547645704,23.88575273847912,0 91.52077033443265,23.88559397842782,0 91.52047662649248,23.88558813956652,0 91.51992653329373,23.8856294200447,0 91.51964383131639,23.88565229675697,0 91.51959169985231,23.8856953837117,0 91.51899795971401,23.8855270530495,0 91.51889275475688,23.88537527576175,0 91.51863145953261,23.88504470499746,0 91.51840470440905,23.88468151961635,0 91.51814647607303,23.88435794675679,0 91.51800698337647,23.88432134950176,0 91.51772004012371,23.88427667301613,0 91.51746198513649,23.88418412759232,0 91.51733693624502,23.88407621642549,0 91.51728589540465,23.88381080355012,0 91.5174118985779,23.88367045844732,0 
					</coordinates>
				</LinearRing>
			</outerBoundaryIs>
		</Polygon>
		<atom:link rel="app" href="https://www.google.com/earth/about/versions/#earth-pro" title="Google Earth Pro 7.3.7.1155"></atom:link>
	</Placemark>
</Document>
</kml>
