<?xml version="1.0" encoding="UTF-8"?>
<kml xmlns="http://www.opengis.net/kml/2.2" xmlns:gx="http://www.google.com/kml/ext/2.2" xmlns:kml="http://www.opengis.net/kml/2.2" xmlns:atom="http://www.w3.org/2005/Atom">
<Document>
	<name>1778165830119.kml</name>
	<StyleMap id="m_ylw-pushpin">
		<Pair>
			<key>normal</key>
			<styleUrl>#s_ylw-pushpin</styleUrl>
		</Pair>
		<Pair>
			<key>highlight</key>
			<styleUrl>#s_ylw-pushpin_hl</styleUrl>
		</Pair>
	</StyleMap>
	<Style id="s_ylw-pushpin">
		<IconStyle>
			<scale>1.1</scale>
			<Icon>
				<href>http://maps.google.com/mapfiles/kml/pushpin/ylw-pushpin.png</href>
			</Icon>
			<hotSpot x="20" y="2" xunits="pixels" yunits="pixels"/>
		</IconStyle>
		<PolyStyle>
			<fill>0</fill>
		</PolyStyle>
	</Style>
	<Style id="s_ylw-pushpin_hl">
		<IconStyle>
			<scale>1.3</scale>
			<Icon>
				<href>http://maps.google.com/mapfiles/kml/pushpin/ylw-pushpin.png</href>
			</Icon>
			<hotSpot x="20" y="2" xunits="pixels" yunits="pixels"/>
		</IconStyle>
		<PolyStyle>
			<fill>0</fill>
		</PolyStyle>
	</Style>
	<Placemark>
		<name>1778165830119.kml</name>
		<styleUrl>#m_ylw-pushpin</styleUrl>
		<Polygon>
			<tessellate>1</tessellate>
			<outerBoundaryIs>
				<LinearRing>
					<coordinates>
						92.0816345303864,24.27204701955936,0 92.08260788083624,24.27164014752498,0 92.0824961213588,24.27161386238133,0 92.0824060734848,24.2716374452038,0 92.08185736341295,24.27176417753667,0 92.08177409340367,24.27185006341584,0 92.08155880066103,24.27215162771719,0 92.08172927610363,24.27193869081723,0 92.08162735335715,24.27204571727809,0 92.08329971445767,24.27139002368094,0 92.08334739608428,24.27142706311401,0 92.08338756473412,24.27145978712037,0 92.08339395265683,24.27150703263285,0 92.08337063855143,24.27157494776889,0 92.08338124011154,24.27164727860513,0 92.08340192909263,24.2717011748709,0 92.0834002480558,24.27174736730464,0 92.08343178597863,24.27180921832437,0 92.08346836435037,24.27185916729408,0 92.08347509751974,24.27189993233977,0 92.08348564256295,24.27191668525547,0 92.0834757060239,24.27192646072285,0 92.08348231507658,24.27194221384922,0 92.08350677551672,24.27196646888941,0 92.08351169749994,24.27200795736237,0 92.08352331405231,24.2720396129115,0 92.08352874895523,24.27205759693145,0 92.08353220951012,24.27208962312366,0 92.08354943136486,24.27212585543471,0 92.08357005024466,24.27215851918719,0 92.08352828345367,24.27218375110884,0 92.08349579709096,24.27222437674066,0 92.08347418115272,24.27225152636673,0 92.08346142403704,24.27225612587362,0 92.0834724087708,24.27228835947335,0 92.08345078531981,24.27230293188374,0 92.08345712546362,24.27234675690955,0 92.08347898537718,24.27238346915433,0 92.08349744609717,24.27241649193271,0 92.0835192434092,24.27244175458358,0 92.08351775220837,24.27245227266631,0 92.08352836696176,24.27246891422845,0 92.0835238473006,24.27248690877683,0 92.0835236383931,24.27250486760033,0 92.08352602594277,24.27253121031538,0 92.0835322628178,24.27255521465478,0 92.08355567211957,24.27259158567436,0 92.08357282131699,24.2726226479781,0 92.08358183302509,24.27265415939505,0 92.08359328723684,24.27267581643012,0 92.08359945780433,24.27268963394114,0 92.08359954621497,24.27271563824096,0 92.08359486592055,24.27274863420684,0 92.08358661484739,24.27278014097187,0 92.08358837362113,24.27282569586573,0 92.08357623125684,24.2728582543993,0 92.08357360182593,24.27288597505231,0 92.08356484912753,24.27291108839182,0 92.08356997970397,24.27293088334884,0 92.08357355703609,24.27294436689549,0 92.08357933678225,24.27297127455845,0 92.08355565097753,24.27298037238837,0 92.08354678051413,24.2730043835239,0 92.08354075132905,24.2730399544562,0 92.08351850873468,24.27306071244909,0 92.08348597220346,24.27307292314095,0 92.08347547502245,24.27310734046262,0 92.08345932094869,24.27312796184315,0 92.08344897190339,24.27317635440121,0 92.08343580398592,24.27319184729305,0 92.08342292587909,24.27321462974192,0 92.08342928146287,24.2732447652436,0 92.0834090838455,24.2732713021598,0 92.08338067670846,24.27328268636131,0 92.08335538509377,24.2733084432841,0 92.08333953812728,24.27332129598621,0 92.08330179549377,24.27335272681054,0 92.08328160270912,24.27337389358524,0 92.08326731576838,24.27338497034813,0 92.08323484544898,24.27340140081863,0 92.08325374800899,24.27340086029829,0 92.0832425876242,24.27339273419503,0 92.08322225988448,24.27340434600223,0 92.08320424501616,24.27339365096563,0 92.08317924686033,24.27338629894892,0 92.08315521170007,24.27339165454122,0 92.08313588839052,24.27339019231117,0 92.08311245991688,24.27340106975876,0 92.08308312254466,24.27341653667265,0 92.08305868142281,24.2734229277202,0 92.08303770117568,24.27342944310935,0 92.08299127944314,24.27341186124507,0 92.0829691393473,24.27340841803809,0 92.082938192323,24.27340945824576,0 92.08289683420296,24.27341784602616,0 92.08287119919692,24.27342862476254,0 92.08284610800715,24.27343939623053,0 92.082797356141,24.27344936090555,0 92.08276530970957,24.27345571675539,0 92.08275722950019,24.27344851890847,0 92.08275100117318,24.27346141592134,0 92.08272179372747,24.27347137916599,0 92.08269438639316,24.27348857442054,0 92.08267478871151,24.2734943613231,0 92.08266307903229,24.27350150244636,0 92.08263174346567,24.27349825216361,0 92.08261493713319,24.27349680018335,0 92.08260274062854,24.27349256847983,0 92.08256922086377,24.27349320011539,0 92.0825437217205,24.27349177490709,0 92.08251923299433,24.27348833360075,0 92.08250231580948,24.27348853119032,0 92.08248483974508,24.27349702605758,0 92.08246562796963,24.27348499606135,0 92.08245119533818,24.27348735264787,0 92.08238188089535,24.27351165032763,0 92.08234265780411,24.27352831262544,0 92.08230634059439,24.27353578175111,0 92.08228048598933,24.27353784302657,0 92.08226092740206,24.27354577137866,0 92.08224047612619,24.27352395796457,0 92.08222440410826,24.27351927341914,0 92.08220205631969,24.27351850862276,0 92.08217743842188,24.27351532263274,0 92.0821608446433,24.27351076010311,0 92.08213572891911,24.27351359694886,0 92.08210525020309,24.27351657289627,0 92.08209010197953,24.27351525754712,0 92.08207037107341,24.27351390102307,0 92.0820657568712,24.27351209070084,0 92.08205715409251,24.27351194003193,0 92.0820439940626,24.27351482841589,0 92.08203552784144,24.27351273612414,0 92.08202328630318,24.27352908649733,0 92.08200928635645,24.27353413579945,0 92.0819998071599,24.27353227070449,0 92.08198794965656,24.27353417127667,0 92.08197533393258,24.27353689808167,0 92.08197489116205,24.27353238514716,0 92.08195692209432,24.27353651550203,0 92.08195151776866,24.27353808567984,0 92.08194921755124,24.2735265725338,0 92.08194857306742,24.27350736667013,0 92.08195489357085,24.27349129892302,0 92.08194624843202,24.27347970472582,0 92.0819357797959,24.2734689757762,0 92.08192186322316,24.27344483082831,0 92.08191338523325,24.27343208148841,0 92.08190123359203,24.27342407681104,0 92.08186465012474,24.27338813780371,0 92.08184080361637,24.2733792989066,0 92.08180190449221,24.27336978287483,0 92.08179506217134,24.27336798070478,0 92.08178709859223,24.27336512950531,0 92.08177017734239,24.27336627132023,0 92.08176926346754,24.27335592192604,0 92.08175860727077,24.27334652909217,0 92.0817445733208,24.27332747703226,0 92.08171479783169,24.27331097283146,0 92.08170649214807,24.27330250298875,0 92.08169098323387,24.27329356661015,0 92.08166722692032,24.27327485356644,0 92.08164708401689,24.27326314160088,0 92.08163664468037,24.27325685363682,0 92.08163644109243,24.27325277090122,0 92.08162003641641,24.27324515895633,0 92.08159954227882,24.27323258334005,0 92.0815801976419,24.2732284396633,0 92.08158503247395,24.27320815859239,0 92.08157737634302,24.2731912886112,0 92.08158604610561,24.27317953281949,0 92.08158155745647,24.27317602053312,0 92.0815777383761,24.27316400956456,0 92.08157364936973,24.27315827441845,0 92.08156582032017,24.27315159057774,0 92.08155988632599,24.27315937258732,0 92.08155562866924,24.27314339202437,0 92.08154845376369,24.27312974201334,0 92.08153485237807,24.27312668265899,0 92.08154366693395,24.27311583352155,0 92.08153591169547,24.2731042362937,0 92.08152146714723,24.27309179181147,0 92.08152769085498,24.27306690240412,0 92.08152647458445,24.27305653352726,0 92.08152069484433,24.27304104395749,0 92.08150932319901,24.27303058240808,0 92.08149462172186,24.27302521950813,0 92.08148142367001,24.27301782432374,0 92.08147312592401,24.27300969544543,0 92.08146127921175,24.27299939302771,0 92.0814538342814,24.27299755940556,0 92.08143412941594,24.27298892759682,0 92.08142869564296,24.27298189037015,0 92.08142132499054,24.27296606659178,0 92.08141736801866,24.27295930856946,0 92.08140790687976,24.27295297804469,0 92.08142262955504,24.27293744753647,0 92.0814254089051,24.27291470574086,0 92.08142146928944,24.27290091249076,0 92.08142813532052,24.27288047750754,0 92.08143340974389,24.27287033838875,0 92.08145063250691,24.27286500098001,0 92.08146564793273,24.27283073996413,0 92.08147238457641,24.2728131572735,0 92.08146767881028,24.27280707947252,0 92.08145649121671,24.27279353330029,0 92.08144972847259,24.27278226302681,0 92.08142366489457,24.27276863907807,0 92.08140155131241,24.27275721744091,0 92.0813871420013,24.27274620928005,0 92.08138223758867,24.27273721052588,0 92.08137991238468,24.2727135466486,0 92.08138033012692,24.27269353148145,0 92.08139149438591,24.27268465405182,0 92.081398331294,24.27268015306227,0 92.08142603818285,24.27265767800136,0 92.08143821738227,24.27264908112585,0 92.08144825499676,24.27264702415364,0 92.0814617003026,24.27263527247644,0 92.0814476345723,24.27260425377595,0 92.08148315107076,24.27261237084006,0 92.08150783722664,24.27261435531173,0 92.08151368613544,24.27259478322635,0 92.08152409223833,24.27258579108648,0 92.08154597416568,24.27259549432902,0 92.08157469328037,24.272573307878,0 92.08155599459856,24.27255698928806,0 92.08155983117889,24.27254413429389,0 92.08158540356843,24.27254987152004,0 92.08156869058467,24.27253438989987,0 92.08157400925641,24.27251735155919,0 92.08157716792238,24.27249610969603,0 92.0815654463071,24.27248330842415,0 92.081545401114,24.27245955510734,0 92.08152627372017,24.27243098399706,0 92.08152606159777,24.27238923312371,0 92.08153004741081,24.27234502161032,0 92.08153524288022,24.27228824851665,0 92.08154744645825,24.27221853566549,0 92.08154146109061,24.27217952137326,0 92.08160239471854,24.27218583626721,0 92.0816345303864,24.27204701955936,0 
					</coordinates>
				</LinearRing>
			</outerBoundaryIs>
		</Polygon>
		<atom:link rel="app" href="https://www.google.com/earth/about/versions/#earth-pro" title="Google Earth Pro 7.3.7.1155"></atom:link>
	</Placemark>
</Document>
</kml>
