<?xml version="1.0" encoding="UTF-8"?>
<kml xmlns="http://www.opengis.net/kml/2.2" xmlns:gx="http://www.google.com/kml/ext/2.2" xmlns:kml="http://www.opengis.net/kml/2.2" xmlns:atom="http://www.w3.org/2005/Atom">
<Document>
	<name>5 HA AR BAMBOO UTTAM JFMC OF DALCHERRA BEAT UNDER ELEMENT PRJECT.kml</name>
	<StyleMap id="m_ylw-pushpin">
		<Pair>
			<key>normal</key>
			<styleUrl>#s_ylw-pushpin</styleUrl>
		</Pair>
		<Pair>
			<key>highlight</key>
			<styleUrl>#s_ylw-pushpin_hl</styleUrl>
		</Pair>
	</StyleMap>
	<Style id="s_ylw-pushpin">
		<IconStyle>
			<scale>1.1</scale>
			<Icon>
				<href>http://maps.google.com/mapfiles/kml/pushpin/ylw-pushpin.png</href>
			</Icon>
			<hotSpot x="20" y="2" xunits="pixels" yunits="pixels"/>
		</IconStyle>
		<LineStyle>
			<color>ffffaa00</color>
			<width>5</width>
		</LineStyle>
		<PolyStyle>
			<fill>0</fill>
		</PolyStyle>
	</Style>
	<Style id="s_ylw-pushpin_hl">
		<IconStyle>
			<scale>1.3</scale>
			<Icon>
				<href>http://maps.google.com/mapfiles/kml/pushpin/ylw-pushpin.png</href>
			</Icon>
			<hotSpot x="20" y="2" xunits="pixels" yunits="pixels"/>
		</IconStyle>
		<LineStyle>
			<color>ffffaa00</color>
			<width>5</width>
		</LineStyle>
		<PolyStyle>
			<fill>0</fill>
		</PolyStyle>
	</Style>
	<Placemark>
		<name>5 HA AR BAMBOO UTTAM JFMC OF DALCHERRA BEAT UNDER ELEMENT PRJECT</name>
		<styleUrl>#m_ylw-pushpin</styleUrl>
		<Polygon>
			<tessellate>1</tessellate>
			<outerBoundaryIs>
				<LinearRing>
					<coordinates>
						92.03856086012931,23.89396162757455,0 92.0386867223414,23.89400238906319,0 92.03874610840562,23.89404958393106,0 92.03875416525837,23.89413700284647,0 92.03875590291146,23.8942581764772,0 92.03874937121708,23.89432564378142,0 92.03866848580327,23.89442032618638,0 92.03856406403533,23.89442719882446,0 92.03849645617029,23.89438663843174,0 92.03843716984225,23.89444089275287,0 92.03832542763357,23.89450890350487,0 92.03822868712156,23.8946179231098,0 92.0381161313607,23.89463188440773,0 92.0380709487241,23.89461838097837,0 92.03807045180992,23.89455694259757,0 92.03801783937142,23.89455028139523,0 92.0379726608702,23.89453677252909,0 92.03779975149486,23.89457165417491,0 92.03776240926148,23.89466797396589,0 92.03780067799062,23.89477100830658,0 92.03796768754121,23.89488014964863,0 92.03803640685281,23.8949694899109,0 92.03803687754062,23.89502491332201,0 92.03809041952834,23.89509378627701,0 92.03811356662962,23.8951421964657,0 92.03811460698175,23.8952536032424,0 92.03811527535483,23.8953165906699,0 92.038116322283,23.8954079795391,0 92.03811692430939,23.89545739969731,0 92.03811766342464,23.89551410862432,0 92.03825841487885,23.89567805822656,0 92.0382908390757,23.89574356957311,0 92.03833068001968,23.89578763088287,0 92.03853312100206,23.89580390974185,0 92.03858296900771,23.89589275352651,0 92.03871621620254,23.89615865459157,0 92.03864801906209,23.89626819794289,0 92.03854675182183,23.89630473745962,0 92.03851656263043,23.89637784456999,0 92.03828886234956,23.89637794038335,0 92.03813182880411,23.89636392038521,0 92.03807693547556,23.89636423626536,0 92.03802189965845,23.89634988341268,0 92.03795897960389,23.89632826323405,0 92.03785679742124,23.89629231698195,0 92.03771521700874,23.89621877005173,0 92.03765246617269,23.89619693181995,0 92.03744081326273,23.896241355291,0 92.03728407869089,23.8963247985907,0 92.03716694427432,23.89637853791888,0 92.03705793179536,23.89643211278819,0 92.03686147766683,23.89657618522915,0 92.03656821536052,23.8966554512,0 92.03628591177905,23.89667659130419,0 92.03597049934191,23.89669481679211,0 92.03577210408569,23.89665173479464,0 92.03575005054445,23.89660653329245,0 92.03569956455667,23.89650040897603,0 92.03567582106014,23.89636329346311,0 92.03576789437915,23.89623670804315,0 92.03586515045973,23.89613438422085,0 92.03597404688081,23.89612130740399,0 92.03611512249608,23.896114394704,0 92.03624301826166,23.8960616384331,0 92.03626799275318,23.89598211414304,0 92.03627791171479,23.8958598072014,0 92.03630651036903,23.89565019061622,0 92.03631672870493,23.8955287146636,0 92.03632617392577,23.89542934018953,0 92.03639745036917,23.89531636060053,0 92.03642190272659,23.89523173003508,0 92.03645514047265,23.89509779278669,0 92.03655011327101,23.89500573130222,0 92.03666698766141,23.89495607598437,0 92.03676092424401,23.89484416169961,0 92.03686253647351,23.89468431745815,0 92.0368645363931,23.89449803074332,0 92.0368732668844,23.89438817607852,0 92.03696544441384,23.89427869649066,0 92.0369739964964,23.89420367207208,0 92.0371788272008,23.8941151587088,0 92.03732283115757,23.89401996996152,0 92.03739847305411,23.89401313963147,0 92.03746654256777,23.89400623001285,0 92.03754979618961,23.89400632542121,0 92.03763303324482,23.89400630982145,0 92.03773124850926,23.8939860882185,0 92.03784460221112,23.89390452470263,0 92.03794991368507,23.89387778643059,0 92.03800181127177,23.89375651359513,0 92.03812861917675,23.89373728764327,0 92.03834497870824,23.89383962093393,0 92.03856086012931,23.89396162757455,0 
					</coordinates>
				</LinearRing>
			</outerBoundaryIs>
		</Polygon>
		<atom:link rel="app" href="https://www.google.com/earth/about/versions/#earth-pro" title="Google Earth Pro 7.3.7.1155"></atom:link>
	</Placemark>
</Document>
</kml>
