<?xml version="1.0" encoding="UTF-8"?>
<kml xmlns="http://www.opengis.net/kml/2.2" xmlns:gx="http://www.google.com/kml/ext/2.2" xmlns:kml="http://www.opengis.net/kml/2.2" xmlns:atom="http://www.w3.org/2005/Atom">
<Document>
	<name>1778065978235.kml</name>
	<StyleMap id="msn_ylw-pushpin">
		<Pair>
			<key>normal</key>
			<styleUrl>#sn_ylw-pushpin</styleUrl>
		</Pair>
		<Pair>
			<key>highlight</key>
			<styleUrl>#sh_ylw-pushpin</styleUrl>
		</Pair>
	</StyleMap>
	<Style id="sh_ylw-pushpin">
		<IconStyle>
			<scale>1.3</scale>
			<Icon>
				<href>http://maps.google.com/mapfiles/kml/pushpin/ylw-pushpin.png</href>
			</Icon>
			<hotSpot x="20" y="2" xunits="pixels" yunits="pixels"/>
		</IconStyle>
		<BalloonStyle>
		</BalloonStyle>
		<PolyStyle>
			<fill>0</fill>
		</PolyStyle>
	</Style>
	<Style id="sn_ylw-pushpin">
		<IconStyle>
			<scale>1.1</scale>
			<Icon>
				<href>http://maps.google.com/mapfiles/kml/pushpin/ylw-pushpin.png</href>
			</Icon>
			<hotSpot x="20" y="2" xunits="pixels" yunits="pixels"/>
		</IconStyle>
		<BalloonStyle>
		</BalloonStyle>
		<PolyStyle>
			<fill>0</fill>
		</PolyStyle>
	</Style>
	<Placemark>
		<name>1778065978235</name>
		<styleUrl>#msn_ylw-pushpin</styleUrl>
		<Polygon>
			<tessellate>1</tessellate>
			<outerBoundaryIs>
				<LinearRing>
					<coordinates>
						91.62050816175625,23.06024265177497,0 91.62042362598667,23.06043219336678,0 91.62042065910805,23.06056594945921,0 91.6203100887417,23.06069119329634,0 91.6202971937707,23.06069554718871,0 91.62028221759975,23.06069400234105,0 91.62026535105787,23.06070365424651,0 91.62024542445425,23.06071302857644,0 91.62023444457046,23.06072337376642,0 91.62021047202659,23.060720682932,0 91.62019764749787,23.06072435476153,0 91.62018777892463,23.06072845678417,0 91.62002066384821,23.06074301755316,0 91.61985090388193,23.06073441563215,0 91.61968262695038,23.06069593439032,0 91.6195465511167,23.06068167021024,0 91.61944606406902,23.06060692765169,0 91.6193729149911,23.06054078639246,0 91.61938154483147,23.06045369706127,0 91.61933563998906,23.06043752789093,0 91.61928572406578,23.06052245587438,0 91.6192140657045,23.0604942383298,0 91.61917690792144,23.06043378514831,0 91.61922746895685,23.06039249830103,0 91.61929220368835,23.0603809463855,0 91.61931141964465,23.06031812280149,0 91.61934836936142,23.06032755317839,0 91.61939148392349,23.06034932026573,0 91.6194361111658,23.06034787514989,0 91.61949665025058,23.06034623379445,0 91.61955752415874,23.06028917517908,0 91.61961182487985,23.06026168184183,0 91.61969690420952,23.06018643483412,0 91.6196882066434,23.06005844329039,0 91.6197319604547,23.05997775612018,0 91.61983368941712,23.05998640596147,0 91.6198988539919,23.0600050765432,0 91.62000239547196,23.05992603539096,0 91.62012332039384,23.05989043220753,0 91.62020962061605,23.05990175813287,0 91.62023025754118,23.05985069678401,0 91.62018500995377,23.05972558860003,0 91.62020867130965,23.05970113953992,0 91.62022203627019,23.05971327663413,0 91.62023837954656,23.05971187735618,0 91.62024471443034,23.05970340332069,0 91.62025307919833,23.05968499489714,0 91.62025926376292,23.0596659724329,0 91.62026405938857,23.05965363469416,0 91.62026871367641,23.05963090655275,0 91.62027534894322,23.05960930391893,0 91.62027993657087,23.05959753805439,0 91.62030973349971,23.05945941628757,0 91.62036434997258,23.05935668751949,0 91.62040458220021,23.05916026307917,0 91.62047695865975,23.05910175767036,0 91.62055537131005,23.05911694406325,0 91.62059747263419,23.05902769269801,0 91.6207688610927,23.05893798833386,0 91.62096711416937,23.05894252150495,0 91.6210514421887,23.05890141070729,0 91.62120030423199,23.05874882915901,0 91.62126859417209,23.05873376782183,0 91.62143340743545,23.05872396052929,0 91.62158192571928,23.05870469405177,0 91.62158974703691,23.05870663041662,0 91.62159657061794,23.05870232965636,0 91.62160626466682,23.05870422689537,0 91.62161069731678,23.05870831635152,0 91.62162452184478,23.05871223553528,0 91.6216402569038,23.05871612764998,0 91.62165414111239,23.05872004643207,0 91.62166617566254,23.05872400791492,0 91.62168120183965,23.05872367160925,0 91.62169247688574,23.05872344244785,0 91.62170939020305,23.05872311694674,0 91.62173004982881,23.05872271921447,0 91.62181709774518,23.05867043911487,0 91.62196426993077,23.05862773720106,0 91.62209235506658,23.05865908077912,0 91.62220524206893,23.05869659622199,0 91.62236377928576,23.05881319150874,0 91.6223884049998,23.05895427219719,0 91.62241493750004,23.05912540535494,0 91.62235335971572,23.05928558709319,0 91.62229821847967,23.05941830116999,0 91.62217575512076,23.05955013380128,0 91.6221386273988,23.05964604936854,0 91.62213808626834,23.05981083801435,0 91.62206471997129,23.0599661853281,0 91.62193746767883,23.06006937230807,0 91.62173192603061,23.06022883954993,0 91.62153262193367,23.06029396955872,0 91.6212715116352,23.06031755957932,0 91.62104039356852,23.06029579228626,0 91.62088320281758,23.06023853525556,0 91.62054667592324,23.06008878664497,0 91.62050816175625,23.06024265177497,0 
					</coordinates>
				</LinearRing>
			</outerBoundaryIs>
		</Polygon>
		<atom:link rel="app" href="https://www.google.com/earth/about/versions/#earth-pro" title="Google Earth Pro 7.3.7.1155"></atom:link>
	</Placemark>
</Document>
</kml>
