<?xml version="1.0" encoding="UTF-8"?>
<kml xmlns="http://www.opengis.net/kml/2.2" xmlns:gx="http://www.google.com/kml/ext/2.2" xmlns:kml="http://www.opengis.net/kml/2.2" xmlns:atom="http://www.w3.org/2005/Atom">
<Document>
	<name>1778558422260.kml</name>
	<StyleMap id="msn_ylw-pushpin">
		<Pair>
			<key>normal</key>
			<styleUrl>#sn_ylw-pushpin</styleUrl>
		</Pair>
		<Pair>
			<key>highlight</key>
			<styleUrl>#sh_ylw-pushpin</styleUrl>
		</Pair>
	</StyleMap>
	<Style id="sh_ylw-pushpin">
		<IconStyle>
			<scale>1.3</scale>
			<Icon>
				<href>http://maps.google.com/mapfiles/kml/pushpin/ylw-pushpin.png</href>
			</Icon>
			<hotSpot x="20" y="2" xunits="pixels" yunits="pixels"/>
		</IconStyle>
		<BalloonStyle>
		</BalloonStyle>
		<PolyStyle>
			<fill>0</fill>
		</PolyStyle>
	</Style>
	<Style id="sn_ylw-pushpin">
		<IconStyle>
			<scale>1.1</scale>
			<Icon>
				<href>http://maps.google.com/mapfiles/kml/pushpin/ylw-pushpin.png</href>
			</Icon>
			<hotSpot x="20" y="2" xunits="pixels" yunits="pixels"/>
		</IconStyle>
		<BalloonStyle>
		</BalloonStyle>
		<PolyStyle>
			<fill>0</fill>
		</PolyStyle>
	</Style>
	<Placemark>
		<name>1778558422260</name>
		<styleUrl>#msn_ylw-pushpin</styleUrl>
		<Polygon>
			<tessellate>1</tessellate>
			<outerBoundaryIs>
				<LinearRing>
					<coordinates>
						91.93767192119147,23.75433013646848,0 91.93799272352588,23.75425021587089,0 91.93858390270317,23.75384543214374,0 91.93893659834222,23.75364606316658,0 91.9395357563464,23.75351082076724,0 91.9402224273244,23.75357340795215,0 91.94075352509097,23.75365138031287,0 91.94108898666676,23.75378719269136,0 91.94138293932434,23.75384651190281,0 91.94171599038698,23.75369189466898,0 91.94205355990549,23.75346081772601,0 91.94248657059438,23.75323783780864,0 91.94286558048782,23.75321585028981,0 91.94308679099649,23.75331879585893,0 91.94324633932304,23.75361990768278,0 91.94342488241119,23.75384069603557,0 91.94327965633244,23.75408908281148,0 91.94295370121233,23.75422083850251,0 91.94274250304714,23.75439465075434,0 91.94263493970803,23.75478586478866,0 91.94261330719888,23.75512627656603,0 91.94243797914133,23.75556248165113,0 91.94255225543004,23.75593513171318,0 91.94283466747324,23.75612079713664,0 91.94306810381556,23.75629793178041,0 91.94310228117187,23.75656973702236,0 91.94324617783838,23.75691480400532,0 91.94339077935338,23.75710371824638,0 91.94381687617501,23.75713966728406,0 91.94415395451972,23.7572170028587,0 91.94428899074863,23.75740924426537,0 91.94424162965544,23.75772588413458,0 91.94426668524204,23.75798770425768,0 91.94448833656537,23.75825459693106,0 91.94453592490176,23.75847232044985,0 91.94446218929873,23.75864440593152,0 91.94444678875753,23.75867398885151,0 91.94442858332529,23.75875999902446,0 91.94442272528073,23.75879139393463,0 91.94442605277689,23.75883142707365,0 91.94442757969492,23.75884767636076,0 91.94412599478511,23.75870273739693,0 91.94383447779984,23.75863037266694,0 91.94339152242242,23.75866955063989,0 91.94296237883164,23.75855744155494,0 91.94267031663526,23.75826097931242,0 91.9421216704271,23.7579924562324,0 91.94179940830531,23.75805759038792,0 91.94165341399187,23.75805094358261,0 91.94160457727716,23.75794712568039,0 91.9411964761934,23.7579070798996,0 91.94115580361017,23.75790601455236,0 91.9410910509842,23.75790613391948,0 91.94098588971667,23.75790694538288,0 91.9409535463442,23.75790742450276,0 91.94092122079637,23.75790818549695,0 91.94085653063566,23.75790977641033,0 91.94080799391729,23.75789655837569,0 91.94076754165894,23.75788365644545,0 91.94073515525183,23.75788534810555,0 91.94068652630301,23.75788840029987,0 91.94064593344746,23.75789094835906,0 91.94060527647298,23.75789253126373,0 91.94056457824064,23.75790173072262,0 91.94054828549213,23.75790252227673,0 91.94017272314818,23.75786592971804,0 91.93967162092311,23.75795194341329,0 91.93953827581767,23.75801153029182,0 91.93953000309268,23.75801173668918,0 91.93948880884584,23.75799725901486,0 91.93945579588959,23.75799030542457,0 91.93941442866146,23.75797625206769,0 91.93935603776134,23.75796374412879,0 91.93930589917946,23.75795840707924,0 91.93925569675832,23.75795306316057,0 91.93921381296468,23.75794735403855,0 91.93918029203729,23.75794124061017,0 91.93917977142534,23.75797246821895,0 91.93888901152734,23.75811426860111,0 91.93856755694296,23.75798908669856,0 91.93816150208494,23.75805599614377,0 91.93797428948963,23.75802193221405,0 91.93768080402302,23.75803516839341,0 91.9376912285945,23.75790162489253,0 91.9377506895525,23.75775466671757,0 91.93804846245739,23.75748954702019,0 91.93823829528733,23.75710342500733,0 91.93824010900195,23.75706412290395,0 91.93825040541951,23.75701712253352,0 91.93826876238306,23.75697032800788,0 91.93827845220623,23.75693151203239,0 91.93828027533853,23.75688496578814,0 91.93828114069247,23.75686176434388,0 91.93822615482237,23.75658480841099,0 91.93785165300609,23.75649526815358,0 91.93732879821999,23.75667013546636,0 91.93724125554137,23.75655613327474,0 91.93720929903317,23.75640679451295,0 91.9371605656992,23.75637112902459,0 91.93713533349039,23.75635734460628,0 91.93707651421546,23.75630815644308,0 91.93704279899545,23.75628729089252,0 91.93701746637737,23.75625893738666,0 91.93700050461537,23.75623037292308,0 91.93702641404558,23.75620769833628,0 91.93688964123777,23.75617537180218,0 91.93676702784298,23.75625275723696,0 91.93670354124308,23.75642397840034,0 91.93654049127943,23.7566810039368,0 91.93636686099555,23.75674523586279,0 91.93603533770026,23.7567975322145,0 91.9360088538629,23.75641926423377,0 91.93605844309306,23.75598386474496,0 91.93630224110616,23.75556175835283,0 91.93701136969908,23.75503134823325,0 91.93743689900535,23.75470495656914,0 91.93767192119147,23.75433013646848,0 
					</coordinates>
				</LinearRing>
			</outerBoundaryIs>
		</Polygon>
		<atom:link rel="app" href="https://www.google.com/earth/about/versions/#earth-pro" title="Google Earth Pro 7.3.7.1155"></atom:link>
	</Placemark>
</Document>
</kml>
