<?xml version="1.0" encoding="UTF-8"?>
<kml xmlns="http://www.opengis.net/kml/2.2" xmlns:gx="http://www.google.com/kml/ext/2.2" xmlns:kml="http://www.opengis.net/kml/2.2" xmlns:atom="http://www.w3.org/2005/Atom">
<Document>
	<name>1778252447232.kml</name>
	<StyleMap id="msn_ylw-pushpin">
		<Pair>
			<key>normal</key>
			<styleUrl>#sn_ylw-pushpin</styleUrl>
		</Pair>
		<Pair>
			<key>highlight</key>
			<styleUrl>#sh_ylw-pushpin</styleUrl>
		</Pair>
	</StyleMap>
	<Style id="sh_ylw-pushpin">
		<IconStyle>
			<scale>1.3</scale>
			<Icon>
				<href>http://maps.google.com/mapfiles/kml/pushpin/ylw-pushpin.png</href>
			</Icon>
			<hotSpot x="20" y="2" xunits="pixels" yunits="pixels"/>
		</IconStyle>
		<BalloonStyle>
		</BalloonStyle>
		<LineStyle>
			<width>2.5</width>
		</LineStyle>
		<PolyStyle>
			<fill>0</fill>
		</PolyStyle>
	</Style>
	<Style id="sn_ylw-pushpin">
		<IconStyle>
			<scale>1.1</scale>
			<Icon>
				<href>http://maps.google.com/mapfiles/kml/pushpin/ylw-pushpin.png</href>
			</Icon>
			<hotSpot x="20" y="2" xunits="pixels" yunits="pixels"/>
		</IconStyle>
		<BalloonStyle>
		</BalloonStyle>
		<LineStyle>
			<width>2.5</width>
		</LineStyle>
		<PolyStyle>
			<fill>0</fill>
		</PolyStyle>
	</Style>
	<Placemark>
		<name>1778252447232</name>
		<styleUrl>#msn_ylw-pushpin</styleUrl>
		<Polygon>
			<tessellate>1</tessellate>
			<outerBoundaryIs>
				<LinearRing>
					<coordinates>
						92.06798354531631,24.2003035028129,0 92.06802349054435,24.19979415788679,0 92.0682637880293,24.19951004494914,0 92.06867343338934,24.19905866743416,0 92.06895781747194,24.19892007143157,0 92.0692356080303,24.19912822206202,0 92.06969782552552,24.19841772834497,0 92.06962402098301,24.19844615699009,0 92.06958194560647,24.19846130643884,0 92.06953113417229,24.19844281127945,0 92.06946443358083,24.19844580699147,0 92.06940613894321,24.19842127337577,0 92.06936714698558,24.19839564646885,0 92.06929859542443,24.19837415701181,0 92.06923997897474,24.19835131964365,0 92.06920125114999,24.19832582117733,0 92.06912193666241,24.19833613331035,0 92.06904655687025,24.19833466820116,0 92.06898030825765,24.198306777802,0 92.06890172758288,24.19831293896135,0 92.06883243812942,24.19831897587305,0 92.06877372294367,24.19832187718612,0 92.06872500563564,24.19832349415394,0 92.06865758219661,24.19832336956124,0 92.0686267522519,24.19830258516199,0 92.06858572221645,24.19825832784328,0 92.06854592753834,24.19823645851943,0 92.06851577435059,24.1982392626004,0 92.0684799545204,24.19820623806614,0 92.06843550863104,24.19817137045599,0 92.06839118755727,24.19813655527529,0 92.06835095456282,24.19811656835572,0 92.06830642036009,24.19808284174468,0 92.06829378874289,24.19806610901818,0 92.06824841796264,24.19805984961253,0 92.0682004985767,24.19803614166747,0 92.06814532335147,24.19800754174324,0 92.06810242504568,24.19799619644077,0 92.06806658178333,24.19796806349768,0 92.068044585107,24.19792944782893,0 92.06801579686426,24.19790723578722,0 92.06799410323225,24.1978686389599,0 92.0679502080974,24.19783865356166,0 92.0679223854758,24.19779409648661,0 92.06789071779328,24.19778086686561,0 92.06787117891004,24.1977396047189,0 92.06785781250966,24.19768457482718,0 92.06782135238926,24.19764009195971,0 92.06780020976592,24.19758300080424,0 92.06779618534105,24.19755018147798,0 92.0677752630326,24.19749376532115,0 92.06778421705565,24.19745258790264,0 92.06777829150352,24.19740427353889,0 92.06780721721962,24.19735898946312,0 92.0678469126586,24.19733064237189,0 92.06789447147337,24.19728522429543,0 92.06794306350588,24.19723752767236,0 92.06799532225392,24.19718285862032,0 92.06803916855011,24.19712868623207,0 92.06809200837048,24.19705496876839,0 92.06812580260278,24.19696592267604,0 92.06814005122726,24.19688010377643,0 92.06813722899932,24.19681472906761,0 92.06810233161251,24.19679680164652,0 92.06805615502572,24.19681776619503,0 92.06798131187927,24.19685940418438,0 92.06792160854063,24.19688970653439,0 92.06787453153586,24.19689493531463,0 92.06780158762651,24.19693382036024,0 92.06775486432524,24.1969560776821,0 92.06767182546153,24.19697962110852,0 92.06762736684627,24.19699737079353,0 92.067592325844,24.19699667235241,0 92.06752994103701,24.19699776353107,0 92.06752322810135,24.19699355297324,0 92.06747175538679,24.19700703445682,0 92.06742558515786,24.19700900091953,0 92.06738816170682,24.19699425497085,0 92.06737320601829,24.19698836301849,0 92.06732093096024,24.1969677677483,0 92.06728008279987,24.19695867251338,0 92.06723892606416,24.19695003500145,0 92.06721531577404,24.19690902927043,0 92.06720018090692,24.19686974890932,0 92.06718702886687,24.19682780999645,0 92.0671643709787,24.19680325009092,0 92.06711951264901,24.1968008258599,0 92.06707284369662,24.19678445462565,0 92.06703644129166,24.19676671405579,0 92.06698418655851,24.19674501968006,0 92.06696726257202,24.19674252478136,0 92.06692649947641,24.19670183804115,0 92.06687738998113,24.19669213189446,0 92.06683643356683,24.19668406239202,0 92.06680350232442,24.19666201692841,0 92.06676200066627,24.19665468044883,0 92.06673693642327,24.19661926381352,0 92.06670472594075,24.19661223963638,0 92.06666599232571,24.1966013920975,0 92.06663267077843,24.19656509915736,0 92.06660997598838,24.19654267709732,0 92.06658707308802,24.19652067640859,0 92.06656373911318,24.1964994052874,0 92.06653170215169,24.19646244350799,0 92.06651002190361,24.1964543165098,0 92.06647966632852,24.19643051109123,0 92.06645656496877,24.19640948657948,0 92.06641019801734,24.19636801857312,0 92.06638827108243,24.19633139261363,0 92.0663605927066,24.1963195824002,0 92.06633312183155,24.19627887069305,0 92.06631246024162,24.19627006837754,0 92.066298942076,24.19623547139035,0 92.06627887103973,24.19619786734627,0 92.06627431593731,24.1961641784977,0 92.0662650075524,24.19612541283414,0 92.06624010376817,24.19604541285624,0 92.06622265289515,24.19602001285041,0 92.06621259505879,24.1959968049585,0 92.066264181229,24.19573496498351,0 92.06657169825999,24.19535739320307,0 92.06659269293084,24.19542250578684,0 92.06665696787692,24.19539347030504,0 92.06667407441279,24.19544573652104,0 92.06671124784496,24.19554685009216,0 92.06673231766138,24.19559433946093,0 92.06674868158012,24.19569590054775,0 92.06675907635667,24.19569925653562,0 92.06687484800175,24.19564448609282,0 92.06696059876256,24.19564455369061,0 92.06701234133047,24.19559317637768,0 92.06705983341178,24.1955953260413,0 92.06712041918162,24.19554905273354,0 92.06719081570087,24.19555299106946,0 92.06723641744853,24.19560510184716,0 92.06730685232638,24.19560899981362,0 92.06736545848207,24.19561224390579,0 92.06743433476403,24.19557054069993,0 92.06750667742804,24.19554424424517,0 92.06759158926737,24.19546436320867,0 92.06765133309841,24.19546066250596,0 92.06774182201812,24.19544016144315,0 92.06780043980368,24.19543818686399,0 92.06784006513449,24.195426974151,0 92.06792069122793,24.19537509453302,0 92.06799777406265,24.19538234619059,0 92.0680478414,24.19534644101694,0 92.06811638143112,24.19532013446537,0 92.06816472240688,24.19531373535493,0 92.0682239676224,24.1953058161923,0 92.06826558054399,24.19531331988373,0 92.06830828017422,24.19534579997611,0 92.06835113299395,24.19537839376165,0 92.06841138195389,24.19542422086582,0 92.06843018587,24.19543403336193,0 92.06850421615331,24.19547625505262,0 92.06853648139175,24.19550831047156,0 92.06855902680165,24.19559172555433,0 92.06859821940054,24.19569245813594,0 92.06861163779334,24.19580293251919,0 92.06866311796065,24.19582106643102,0 92.06871465293307,24.19583922006494,0 92.06875770506257,24.19584955235093,0 92.06885761530494,24.19580299869767,0 92.0689235303563,24.19578319261676,0 92.06898290741698,24.19571873820217,0 92.06904171767188,24.19565489512707,0 92.06910886172105,24.19550729795455,0 92.06908580048012,24.19541781778055,0 92.0690999194253,24.19531808493386,0 92.06912472367623,24.19521850695051,0 92.06917408794331,24.19517399186383,0 92.06921936227144,24.19517140078672,0 92.06926480504886,24.19516826179949,0 92.06931989830574,24.19516902323634,0 92.06938465438638,24.19517368363296,0 92.06942025172354,24.19516664986083,0 92.06947853293916,24.19519004225421,0 92.0695201738982,24.19519834917802,0 92.06956623394026,24.19516126420856,0 92.06957736767347,24.19506467863245,0 92.06958028880486,24.19493208191395,0 92.06969958371388,24.19454601833954,0 92.06964584766152,24.1945170786304,0 92.06952544593182,24.19455069595739,0 92.06941178715938,24.1945650837689,0 92.06933186187563,24.19457501735943,0 92.06923802064792,24.19456527564526,0 92.0691824108428,24.19454245390084,0 92.06913027632274,24.1945391436755,0 92.06906116413029,24.19449769543798,0 92.06901812158388,24.19447188276381,0 92.06897287517842,24.19445132568321,0 92.06894447071032,24.19441542296857,0 92.06892939881047,24.19434590973056,0 92.06891584462618,24.19429971802484,0 92.06891424718239,24.19419780110904,0 92.06891045414548,24.1941296122906,0 92.06891403199141,24.19406900998765,0 92.06892758457568,24.19398525729384,0 92.06894383494161,24.19389644875243,0 92.06895371172492,24.19375100029519,0 92.06894030828376,24.19370872458461,0 92.06891756269866,24.19364068197642,0 92.06886206891521,24.19364727109767,0 92.06882033802248,24.19359995101938,0 92.06878886917295,24.19357685450298,0 92.06874653291729,24.19353169950571,0 92.06869482075896,24.1935078324175,0 92.0686265236623,24.19349856865026,0 92.06856943141726,24.19348772741611,0 92.06854808760814,24.19344384663492,0 92.06846712423705,24.19339467464901,0 92.06843701889555,24.19339229950381,0 92.06839607554808,24.19336879505457,0 92.0683485670212,24.19333853182829,0 92.06831029922259,24.19331073003394,0 92.06828294299567,24.19330358516975,0 92.06823570739792,24.19327348887341,0 92.0681982992658,24.19322395888917,0 92.06817982546568,24.19319903020121,0 92.06813264234032,24.19316964744279,0 92.06809479982147,24.19314253917948,0 92.06805704868158,24.19311549678736,0 92.06800983639158,24.19306707020367,0 92.06797199165831,24.19302089223011,0 92.0679170466353,24.19298892580711,0 92.06786157896164,24.19293864932696,0 92.06783395054018,24.1929136076342,0 92.06779579791332,24.19286978050213,0 92.06775892123761,24.19286247157581,0 92.06771281959546,24.19285333232719,0 92.0676682454345,24.19284189678283,0 92.06762628897135,24.19280782140018,0 92.06760268037183,24.19275921847791,0 92.06757068630736,24.19270818439475,0 92.06753659796522,24.19269727397047,0 92.06754003523784,24.19263764237455,0 92.06756690652703,24.19255328602799,0 92.06763349836308,24.19252193952832,0 92.06769155831937,24.19250579033872,0 92.06775749997006,24.19247471803966,0 92.06780708396326,24.19247365384449,0 92.06785121772641,24.19246544879057,0 92.06790854245226,24.19245254201772,0 92.06794636341422,24.1924383447113,0 92.06803057159806,24.19244848976275,0 92.06809502455339,24.19242076310855,0 92.06815964372544,24.19241089686692,0 92.06820654150577,24.19241573483143,0 92.06826298780382,24.19242126172695,0 92.06831936118257,24.19242678114124,0 92.06836628420308,24.19243137693709,0 92.0684037876739,24.1924350487698,0 92.06844125943927,24.19243871810206,0 92.06848805460936,24.19244329984904,0 92.06853479991408,24.19244787811753,0 92.06857216081781,24.19245153627586,0 92.06860131034435,24.19247185085106,0 92.06865684154528,24.19247814278156,0 92.068720304705,24.19246784823001,0 92.06878554949493,24.1924540312821,0 92.06881359930557,24.19243643983722,0 92.06886981677953,24.19242066194533,0 92.0689237482146,24.19234861238513,0 92.06890037130356,24.19229638121234,0 92.06887842837192,24.19226175663393,0 92.06885514049326,24.1922103386288,0 92.0688428225133,24.19217639058735,0 92.06885519929286,24.19209239404488,0 92.06884951595066,24.19202639920666,0 92.06882775616324,24.19199342971403,0 92.06880461590683,24.19194447390861,0 92.0687844817986,24.19192786208091,0 92.06875503908714,24.19191100244419,0 92.06873317823053,24.19187914704601,0 92.06870245152986,24.19184651769182,0 92.0686906115906,24.19181428221199,0 92.06864512802008,24.1918111686752,0 92.06861524764271,24.19177779652596,0 92.06855155237321,24.1917734051274,0 92.0684877342615,24.19176900649814,0 92.06846034534892,24.19176711860174,0 92.06841422855669,24.19176456156481,0 92.068367429527,24.1917629060523,0 92.06833144218561,24.191759405562,0 92.06827984125293,24.19175046900922,0 92.06823682316032,24.19174301829056,0 92.06820239850435,24.1917370552235,0 92.06818513363842,24.19173416098167,0 92.06814306124393,24.19172533837001,0 92.06807863076426,24.19170710102944,0 92.06802535033131,24.19173375037986,0 92.06799257059919,24.19172523122249,0 92.06795230012543,24.19173024997455,0 92.06791451429464,24.19171521941059,0 92.06789297892088,24.19170469446179,0 92.06783224976147,24.19172729890921,0 92.0677918883801,24.19174849624239,0 92.06773674094616,24.19176303089048,0 92.06769278523345,24.19174300556212,0 92.06768162280019,24.19168644524577,0 92.06767470637824,24.19162492110397,0 92.06767299936834,24.19157000154719,0 92.06773362924538,24.19145040100119,0 92.06776197330353,24.19139191099109,0 92.0678098392919,24.19131766207424,0 92.06787816188356,24.19120519459864,0 92.06792421007231,24.19114285639092,0 92.06796189231383,24.19109432290919,0 92.06801305438097,24.19103740591737,0 92.0680684206627,24.19098686723354,0 92.06810719130455,24.1909784836268,0 92.06818070847038,24.19096679156793,0 92.06823987022796,24.19092253126803,0 92.06857158283103,24.19075975032455,0 92.06883845141178,24.19057398585486,0 92.06944669828525,24.19060212309397,0 92.06921921747613,24.19128998611516,0 92.06927138529947,24.19146558149157,0 92.06951895180509,24.1914648887186,0 92.07026411679624,24.19141153821067,0 92.07016780453013,24.19136229642847,0 92.07029762326984,24.19102708132714,0 92.07038500259058,24.19108390263875,0 92.07063049858463,24.19152269821934,0 92.07079602454537,24.19150534312825,0 92.0712682941173,24.19120652798974,0 92.07126388725131,24.19117764530826,0 92.07125513322808,24.19112026686433,0 92.07126183720206,24.19106624047733,0 92.07127425570229,24.19099955640895,0 92.07130202761449,24.19093585343202,0 92.07133094390633,24.19086790667873,0 92.07144540282636,24.19088661404381,0 92.07145302792139,24.19088786079501,0 92.07147846548489,24.19090493644982,0 92.07150898066371,24.19090992119539,0 92.07152947948296,24.19093917954404,0 92.07155271727029,24.19098203634698,0 92.07158336626979,24.19098703131294,0 92.07162974501344,24.19099360822765,0 92.07165885465744,24.19102310376717,0 92.07168509176913,24.19103946740347,0 92.07170790948825,24.19108504226548,0 92.07173627707857,24.19111720195423,0 92.07176188161061,24.19117807677538,0 92.071806164565,24.1912129920559,0 92.07182930621104,24.19126053206282,0 92.07190512280117,24.19134556565202,0 92.07192870304716,24.191349024844,0 92.07217224790648,24.19124776274942,0 92.07216341237394,24.19082211389793,0 92.07215543656081,24.19082222558893,0 92.07213293222705,24.19079700557061,0 92.07210588169404,24.19078435437058,0 92.07207571855453,24.19075888345584,0 92.07201369633141,24.19075543905336,0 92.07196489751371,24.1907381360703,0 92.07192628845735,24.19073538308976,0 92.07186220923855,24.19067670532955,0 92.07183416740808,24.1906478468342,0 92.07147409138237,24.1905571349808,0 92.07144353864379,24.19055385424438,0 92.07142077110849,24.19055113883967,0 92.07135999522625,24.19054389017527,0 92.07135239132099,24.19054298309633,0 92.07131987744658,24.19052628752229,0 92.07128808082429,24.19050839228767,0 92.07126543378908,24.1905053715131,0 92.07124139633035,24.19048828314424,0 92.07115081999319,24.19046002693485,0 92.07110495432377,24.19043889189257,0 92.07106995284862,24.19042929516355,0 92.07102208581196,24.1904140456662,0 92.07086086418175,24.19035807208592,0 92.07081506353687,24.19034017905674,0 92.07078933653086,24.19032935176272,0 92.07070206178236,24.18992964943789,0 92.07073213171866,24.18987954999957,0 92.07074606427418,24.1898190358917,0 92.07079293417206,24.18974321681575,0 92.07089482925635,24.18967442813004,0 92.07094639700698,24.18965068856724,0 92.0710346074717,24.18956647232672,0 92.07111404398576,24.18953141697115,0 92.07114120716754,24.18953330414723,0 92.07143069189904,24.18973803535611,0 92.07142995686793,24.18975386437521,0 92.07146884739737,24.18982176513573,0 92.07152346520441,24.18982986204709,0 92.07162574592094,24.18982968536961,0 92.07166279873499,24.18984422385426,0 92.07174796406267,24.18986518628508,0 92.07180488164111,24.18988510210766,0 92.07191902419872,24.18992523895175,0 92.07202004531619,24.18996281294601,0 92.07206859044619,24.1899688428973,0 92.07228725549737,24.19045630562903,0 92.07259051931256,24.19024953170973,0 92.07261811665029,24.18982901028436,0 92.07227490666118,24.1894658486415,0 92.07192337240811,24.18926380497534,0 92.0720366603035,24.18894482847831,0 92.07235329403753,24.18888376661825,0 92.07237554901636,24.1888946625063,0 92.0724206787033,24.18893197718879,0 92.07246227516038,24.18896173187569,0 92.07250749892683,24.18900153872268,0 92.0725325568058,24.18902439221847,0 92.07257060613114,24.18904851896994,0 92.0725916980001,24.18906422059568,0 92.07278037731044,24.18957366010194,0 92.07305958943122,24.18971139938752,0 92.07312970301936,24.18975320973473,0 92.07323479982462,24.18977163089309,0 92.07333843251729,24.18979422631299,0 92.07341648417953,24.18980948582492,0 92.07365059581318,24.18971797234089,0 92.07397446692067,24.18926432213496,0 92.07392712019393,24.18882853585964,0 92.07373198519785,24.18873465841373,0 92.07343250863218,24.18861074636058,0 92.07304674952309,24.1887341672581,0 92.07228835016045,24.18842878432366,0 92.07194802548921,24.18816610207788,0 92.07528751907662,24.18813818031347,0 92.07541777051331,24.1882500093199,0 92.07521281515079,24.18879404268215,0 92.07509478452675,24.18960807250023,0 92.07505599913429,24.1904520023472,0 92.07520401129986,24.19104082812628,0 92.07535382262289,24.1916404984775,0 92.07552551163198,24.19213774093244,0 92.07607038776726,24.19283281303802,0 92.07642547327487,24.19305247188069,0 92.07721261926909,24.19329533343161,0 92.07831364761815,24.19280573268714,0 92.07951604373973,24.19213899643981,0 92.08037216216289,24.19222549251436,0 92.08111776994588,24.19243920189702,0 92.08126242110849,24.19289254006594,0 92.08124939017883,24.19290058556143,0 92.08123113539907,24.19292705459793,0 92.08121905439319,24.19296987572164,0 92.08121026063411,24.19300102767146,0 92.08120495021676,24.19301984056133,0 92.08119425050604,24.19305774362626,0 92.08117762418644,24.19309728850804,0 92.08115876022885,24.19316427160077,0 92.08112545248265,24.19326290451249,0 92.08107762425087,24.19339232624743,0 92.08104383776266,24.19349133966197,0 92.08101941812787,24.19357732228418,0 92.08101143299736,24.19360535263091,0 92.08044710388407,24.1943261863262,0 92.08008848627023,24.19486939666825,0 92.07983073689323,24.19530308517972,0 92.07959560843068,24.19608425508315,0 92.07942648620059,24.19658807099752,0 92.07945011126542,24.19716882823335,0 92.07970957772709,24.19763414284029,0 92.07990106009404,24.19774871441605,0 92.08051642738637,24.19786291234413,0 92.08234442023814,24.19656073613884,0 92.08372283319612,24.19592370399675,0 92.08538864253686,24.19603591586351,0 92.08616143298805,24.19637326209667,0 92.08614470997009,24.19671349463253,0 92.08608829171557,24.20063318664411,0 92.08617790344469,24.20093269177893,0 92.08190105829451,24.20117880968092,0 92.08013779424421,24.20083558168126,0 92.07996127797877,24.20077794533031,0 92.07828398935146,24.20092265182923,0 92.07671400868854,24.20079008723441,0 92.07518740328938,24.20072787084226,0 92.07412273695748,24.20081054600119,0 92.07251569386595,24.20065725705662,0 92.07151971261688,24.20074202311833,0 92.07090315247322,24.20086040366612,0 92.07046210525679,24.20073124504501,0 92.07019139339359,24.20069638097937,0 92.06957514975251,24.20068228877818,0 92.06879843971606,24.20067304500735,0 92.06857134140887,24.20066859207576,0 92.06822369511407,24.20067613010299,0 92.06790302085197,24.20062451127455,0 92.06798354531631,24.2003035028129,0 
					</coordinates>
				</LinearRing>
			</outerBoundaryIs>
		</Polygon>
		<atom:link rel="app" href="https://www.google.com/earth/about/versions/#earth-pro" title="Google Earth Pro 7.3.7.1155"></atom:link>
	</Placemark>
</Document>
</kml>
