<?xml version="1.0" encoding="UTF-8"?>
<kml xmlns="http://www.opengis.net/kml/2.2" xmlns:gx="http://www.google.com/kml/ext/2.2" xmlns:kml="http://www.opengis.net/kml/2.2" xmlns:atom="http://www.w3.org/2005/Atom">
<Document>
	<name>Pre Survey Map of KML Shape File over 11.50 Ha at Bishmani Para ANR Bamboo.kml</name>
	<Style id="s_ylw-pushpin_hl">
		<IconStyle>
			<scale>1.3</scale>
			<Icon>
				<href>https://maps.google.com/mapfiles/kml/pushpin/ylw-pushpin.png</href>
			</Icon>
			<hotSpot x="20" y="2" xunits="pixels" yunits="pixels"/>
		</IconStyle>
		<PolyStyle>
			<fill>0</fill>
		</PolyStyle>
	</Style>
	<Style id="s_ylw-pushpin">
		<IconStyle>
			<scale>1.1</scale>
			<Icon>
				<href>https://maps.google.com/mapfiles/kml/pushpin/ylw-pushpin.png</href>
			</Icon>
			<hotSpot x="20" y="2" xunits="pixels" yunits="pixels"/>
		</IconStyle>
		<PolyStyle>
			<fill>0</fill>
		</PolyStyle>
	</Style>
	<StyleMap id="m_ylw-pushpin">
		<Pair>
			<key>normal</key>
			<styleUrl>#s_ylw-pushpin</styleUrl>
		</Pair>
		<Pair>
			<key>highlight</key>
			<styleUrl>#s_ylw-pushpin_hl</styleUrl>
		</Pair>
	</StyleMap>
	<Placemark id="019544ADE33F3AE2DF82">
		<name>Untitled Polygon</name>
		<styleUrl>#m_ylw-pushpin</styleUrl>
		<Polygon>
			<tessellate>1</tessellate>
			<outerBoundaryIs>
				<LinearRing>
					<coordinates>
						92.21510544190485,23.77378251779906,0 92.21507716336573,23.77381991474449,0 92.21505724737196,23.7738574982304,0 92.21503539747195,23.77388265780631,0 92.21501529419743,23.77392055460918,0 92.21498293374435,23.77393322824484,0 92.21495051930954,23.77394592303854,0 92.21491805078256,23.77395863922606,0 92.2148752510878,23.7739586381133,0 92.21482389160738,23.77395863680844,0 92.21480677178842,23.77395863638085,0 92.21475541235466,23.77395863512024,0 92.21469549315835,23.77395863369149,0 92.21466125358057,23.77395863289536,0 92.21460281505063,23.77397136967257,0 92.21456142740676,23.773984128168,0 92.21451997031093,23.77399690822642,0 92.21448842243066,23.77402253340221,0 92.2144567684917,23.77404824486752,0 92.21442500801957,23.77407404268842,0 92.21438581294363,23.77411290300041,0 92.21435508746403,23.7741519606704,0 92.21432167556934,23.77416502345566,0 92.21428697248894,23.77416502278856,0 92.21424359365488,23.77416502197675,0 92.21419789851457,23.77413891635249,0 92.21415459301782,23.77413891559576,0 92.2141112875377,23.77413891486339,0 92.21406798207369,23.77413891415537,0 92.21402467662517,23.7741389134717,0 92.21398137119169,23.7741389128124,0 92.21393806577269,23.77413891217743,0 92.2139043296137,23.77415195304913,0 92.21386186062153,23.77416501589142,0 92.21381848193838,23.77416501532019,0 92.2137924547345,23.77416501498923,0 92.21373096163214,23.77415195082204,0 92.21369555566753,23.77413890907179,0 92.21365155572389,23.77412588908095,0 92.21361627648088,23.77411289135654,0 92.21358169066838,23.77411289101303,0 92.21353845841121,23.77411289060536,0 92.21349635119745,23.77413890709206,0 92.21346224160629,23.77415194814325,0 92.21341989828849,23.77417809695394,0 92.21337694671794,23.77419120436857,0 92.21334218501723,23.77419120412767,0 92.21331694030555,23.7742174864077,0 92.21327379172668,23.77423066078068,0 92.21323928973669,23.77424385763876,0 92.2132047290019,23.77425707698418,0 92.2131788442273,23.77427031910464,0 92.21312719625644,23.7743101809953,0 92.21309261695102,23.77433686919342,0 92.21305811509909,23.77437707350411,0 92.21301461768765,23.77441748531667,0 92.21298816519722,23.77441748525521,0 92.21294407771467,23.77441748517396,0 92.21289999023364,23.77441748511914,0 92.21284708525756,23.77441748508828,0 92.21281181527375,23.77441748508886,0 92.21277663614829,23.77439052061797,0 92.21274142673651,23.77439052065215,0 92.212697301494,23.77440399147192,0 92.21266177360701,23.77443100225164,0 92.21264380377872,23.77445810637903,0 92.21259920510404,23.77448530406222,0 92.21257241629922,23.77449893840253,0 92.21250982087889,23.7745262776211,0 92.21246479621261,23.77455371188984,0 92.2124199709103,23.77456746479908,0 92.21237427645042,23.7746088669741,0 92.21233772026298,23.77463658872739,0 92.21229254922551,23.77465048631244,0 92.21226521159895,23.77466440806916,0 92.21220251836122,23.77466440859888,0 92.21217564982582,23.77466440884294,0 92.21211295656404,23.77466440945218,0 92.21206817565131,23.77466440992142,0 92.21203304674744,23.77465048876088,0 92.21198977089422,23.77462271935592,0 92.21195556286808,23.77459504610038,0 92.21190447338309,23.77455371692569,0 92.2118625201004,23.77451260207211,0 92.21182078407321,23.77447170017912,0 92.21176161337702,23.7744310098506,0 92.21171939908072,23.77440399973515,0 92.21167732965517,23.77437708214543,0 92.21164418411931,23.77435025665781,0 92.21161010935626,23.77433687873557,0 92.21157716358366,23.77431019091106,0 92.21153558785808,23.77428359410234,0 92.21149301587322,23.77427033018131,0 92.21146681116981,23.77427033065136,0 92.21142433397486,23.77425708916103,0 92.2113831593071,23.77423067330633,0 92.21136201030311,23.77417810878572,0 92.21133974652301,23.77413891864988,0 92.21130895609537,23.77409992686437,0 92.21128823398989,23.77404824317539,0 92.21127493069079,23.77400970766563,0 92.21123599302545,23.7739713659074,0 92.21119588831358,23.77394591160788,0 92.21116584135959,23.77390788853695,0 92.21112601976783,23.77388264567452,0 92.21110476714361,23.77384493731557,0 92.2110736933265,23.77381990272072,0 92.2110456691464,23.77377008074619,0 92.21100790566102,23.77373292977674,0 92.21097032828573,23.77369596174359,0 92.21093978016211,23.77367141759639,0 92.21088417729315,23.77364695416281,0 92.21086224088758,23.77362257005313,0 92.21082202418449,23.77361040835856,0 92.21080694571134,23.77359826608241,0 92.21076185744754,23.77356195759197,0 92.21072188583348,23.77354989477456,0 92.21069203813832,23.77352582647623,0 92.21064568031554,23.77350183675443,0 92.21062434225223,23.7734779238421,0 92.21061313914703,23.77344219872043,0 92.21058729464929,23.77339483368747,0 92.21057624358525,23.77335950914186,0 92.21056067313833,23.77330101126311,0 92.21055157179073,23.77325454829564,0 92.21055880547246,23.77320837985992,0 92.21058399601708,23.77315107990304,0 92.21061531858066,23.77310556486761,0 92.21064010921397,23.77304907344454,0 92.21065498773633,23.77300419874854,0 92.21067145698578,23.77294849910823,0 92.21068779849612,23.77289323206945,0 92.21069608265712,23.77283839278089,0 92.21070593941518,23.77277314312065,0 92.21071408405786,23.77271922719432,0 92.21073783413763,23.77266572296508,0 92.21079732952593,23.77263381532894,0 92.21080514553789,23.77263381517616,0 92.21086435148423,23.77260205330231,0 92.2109077273367,23.77257043631924,0 92.21095090591179,23.77253896301255,0 92.21097345806676,23.77248682499065,0 92.21100988187749,23.77244539663307,0 92.21102936349872,23.77241448868159,0 92.21105775960527,23.77237349388667,0 92.21107069241434,23.77233274401535,0 92.21109117244141,23.77229223644044,0 92.21109632804551,23.77225196939438,0 92.21110145315029,23.77221194050477,0 92.21111536820744,23.77216223602553,0 92.21112165768938,23.77211289637411,0 92.21114165881653,23.77207368440586,0 92.21116154319459,23.77203470131335,0 92.21119741443754,23.77198629109865,0 92.211218175301,23.77193823173172,0 92.21123138775897,23.77189051930788,0 92.21123598758493,23.77185259665117,0 92.21125018343035,23.77179612015337,0 92.21125582094257,23.77174942609445,0 92.21127092892675,23.77168461161175,0 92.21127644510378,23.77163870887049,0 92.21129023964333,23.77158405260706,0 92.21129564536133,23.77153885770144,0 92.21131430431683,23.77150292953961,0 92.21133285899793,23.7714672021761,0 92.21135028000238,23.77144053732695,0 92.21137677991672,23.77139634291698,0 92.21140309655468,23.77135245442687,0 92.21142923148246,23.77130886869028,0 92.21144013678207,23.77127421609871,0 92.21145098206279,23.771239753686,0 92.21146878185391,23.7712054797674,0 92.21148041024072,23.77116290040108,0 92.21149105018661,23.77112904537389,0 92.21151126593784,23.77107024006272,0 92.21153041611724,23.77102027710031,0 92.21154080001071,23.77098719240994,0 92.21155885270497,23.7709460858265,0 92.21156825551626,23.77092155379424,0 92.21157928898288,23.77088088508585,0 92.21158942562404,23.77084854473044,0 92.21160549254353,23.77082440198836,0 92.2116418544974,23.77080035499888,0 92.21167883242333,23.77076844070025,0 92.2117028563011,23.77072878406877,0 92.21171999863101,23.77068938768431,0 92.21173631431537,23.77065805597648,0 92.21174656245859,23.7706191213871,0 92.21176201938002,23.77059588214989,0 92.2117847530133,23.77056503730468,0 92.21180736890626,23.77053435220452,0 92.21184247022504,23.77051144235036,0 92.21187082449829,23.77048862117616,0 92.2119044770898,23.77048103365465,0 92.21193808633683,23.7704734558039,0 92.2119848492186,23.77046588776832,0 92.21201784149478,23.77046588763683,0 92.21205743221836,23.77046588748593,0 92.2120894719705,23.7704810329083,0 92.21211497893832,23.77049621733893,0 92.21214805634764,23.77049621722618,0 92.21218113375203,23.77049621711878,0 92.21222082663101,23.7704962169969,0 92.21224728854678,23.77049621691991,0 92.21227965640769,23.77051144069906,0 92.21230513623135,23.77053435029301,0 92.21232373739539,23.77056503520093,0 92.21234275209768,23.77058815365741,0 92.21237549718884,23.77060361601868,0 92.21240220031976,23.77060361595827,0 92.21243557923054,23.77060361588788,0 92.21246825255483,23.77062688525339,0 92.21247401381854,23.77065805317471,0 92.21247980530615,23.77068938473894,0 92.21248562726282,23.77072088101191,0 92.2124914799263,23.77075254341004,0 92.21249714386666,23.77079235706226,0 92.21250964966529,23.77083243493855,0 92.21252305485241,23.77084048239994,0 92.21254991871163,23.77085660949296,0 92.21259066697368,23.77086468912799,0 92.2126111341119,23.7708646891011,0 92.21264524600761,23.77086468906159,0 92.21265900419004,23.77085660935237,0 92.21270689208737,23.77084048217536,0 92.21274790726571,23.77081637164392,0 92.21278191500605,23.77080835605043,0 92.21280909147369,23.77080035107564,0 92.21283623647621,23.77080035107425,0 92.21287014079512,23.7707923567567,0 92.21290400028889,23.77078437295746,0 92.21293117665049,23.77079235677988,0 92.21295160273887,23.77080035111389,0 92.21297243472196,23.77084048218699,0 92.21299989626229,23.77085660934767,0 92.21300695018486,23.77087277950542,0 92.21302795970067,23.77090524927004,0 92.21304908173886,23.7709378929362,0 92.21307719912193,23.77097071197404,0 92.2131050968455,23.77098718766691,0 92.21311907385409,23.77099544210841,0 92.21316825602287,23.77102857139322,0 92.21318972819486,23.77105353585969,0 92.21321154635721,23.77108697965414,0 92.21322651703476,23.77112060522955,0 92.21324185029599,23.77116289513763,0 92.21325728845913,23.77120547436543,0 92.21327252844196,23.77123974810405,0 92.21329490463557,23.77127421041881,0 92.21331639663212,23.77128285567084,0 92.21334462542526,23.77128285576405,0 92.21337285422112,23.77128285586253,0 92.213401476787,23.77129151312592,0 92.21342266297205,23.77129151320756,0 92.21346547346847,23.77130018244451,0 92.21349374119512,23.77130018256644,0 92.21352907585843,23.77130018272636,0 92.21355684218807,23.77129151379374,0 92.21357751308706,23.77128285673428,0 92.21361226025708,23.77127421172141,0 92.21364695965779,23.77126557853904,0 92.2136804422166,23.77123974981973,0 92.21371439307512,23.77122258964164,0 92.21374699559765,23.77118840989907,0 92.2137737220618,23.7711713900498,0 92.21379602483896,23.77118841019433,0 92.21379867351487,23.77122259014707,0 92.21380905236221,23.77126557949509,0 92.21381813882203,23.77129151527821,0 92.21382292930029,23.77135245084514,0 92.21382637959798,23.77139633904677,0 92.21382270819312,23.7714405331051,0 92.21381184036753,23.77148503622825,0 92.2138002148819,23.77152086346108,0 92.21379709633696,23.77157498291665,0 92.21379258874131,23.77161131741423,0 92.21378873513511,23.77165702530291,0 92.21379077952109,23.77168460592173,0 92.21378689749551,23.77173083573551,0 92.21377700868358,23.77179611392124,0 92.21378041550209,23.77184314361998,0 92.21379124535119,23.77189051277738,0 92.21382370921839,23.77192865513667,0 92.21385561675491,23.77195740722597,0 92.21388843325956,23.77199593849518,0 92.21391396190123,23.7720346946133,0 92.21391554667011,23.77205415750762,0 92.21392785221933,23.77211288909135,0 92.21390169330397,23.772162228313,0 92.21388214170827,23.77220196209551,0 92.21385563878154,23.7722519607908,0 92.2138434433699,23.77229222755958,0 92.21383042855476,23.77232258514371,0 92.21382575786947,23.77236327389296,0 92.21382874607939,23.77240420678992,0 92.21383401881261,23.77247643325363,0 92.21383705687276,23.77251804884832,0 92.21384866063916,23.77257042368134,0 92.21386816270056,23.77262319760811,0 92.21387997416117,23.77267637505424,0 92.21389269252516,23.77274072722244,0 92.21392051131832,23.77279480921214,0 92.21395648237053,23.77284931002922,0 92.21399888290426,23.77288221380536,0 92.21403257159426,23.77290423495725,0 92.21407434531666,23.77292632479677,0 92.2141082567604,23.77294848344514,0 92.21415234521923,23.77299300850365,0 92.21417956569594,23.77302658538737,0 92.2142171507692,23.77308289923106,0 92.21424805378622,23.77315106351001,0 92.21427110647963,23.77321987760569,0 92.21428735993429,23.77330099440543,0 92.21430846781229,23.77334775573678,0 92.21433795472345,23.77339481804323,0 92.21437465525614,23.77343031424855,0 92.21442110302129,23.77347791037424,0 92.21447350147223,23.773501824746,0 92.21450807448724,23.77351381110251,0 92.21454962476558,23.77351381192043,0 92.21459117525818,23.77351381275837,0 92.21463272557669,23.77351381361632,0 92.21464934574881,23.7735138139651,0 92.21469920628543,23.77351381503068,0 92.21474075685349,23.77351381594067,0 92.21479380223326,23.77353784711078,0 92.2148319745433,23.77357403957887,0 92.2148703337316,23.77361040909351,0 92.21490548508919,23.77362257259226,0 92.21495080555205,23.77364695835456,0 92.21497771749452,23.77365918147628,0 92.21502326794329,23.77368368731936,0 92.21506238276484,23.7737205966096,0 92.21510169100166,23.7737576884221,0 92.21511013819021,23.77375768865534,0 92.21510544190485,23.77378251779906,0 
					</coordinates>
				</LinearRing>
			</outerBoundaryIs>
		</Polygon>
		<atom:link rel="app" href="https://www.google.com/earth/about/versions/#earth-pro" title="Google Earth Pro 7.3.7.1155"></atom:link>
	</Placemark>
</Document>
</kml>
