<?xml version="1.0" encoding="UTF-8"?>
<kml xmlns="http://www.opengis.net/kml/2.2" xmlns:gx="http://www.google.com/kml/ext/2.2" xmlns:kml="http://www.opengis.net/kml/2.2" xmlns:atom="http://www.w3.org/2005/Atom">
<Document>
	<name>Pre Survey Map of KML Shape File over 11.20 Ha at Baganbari ANR Bamboo.kml</name>
	<Style id="s_ylw-pushpin_hl">
		<IconStyle>
			<scale>1.3</scale>
			<Icon>
				<href>https://maps.google.com/mapfiles/kml/pushpin/ylw-pushpin.png</href>
			</Icon>
			<hotSpot x="20" y="2" xunits="pixels" yunits="pixels"/>
		</IconStyle>
		<PolyStyle>
			<fill>0</fill>
		</PolyStyle>
	</Style>
	<Style id="s_ylw-pushpin">
		<IconStyle>
			<scale>1.1</scale>
			<Icon>
				<href>https://maps.google.com/mapfiles/kml/pushpin/ylw-pushpin.png</href>
			</Icon>
			<hotSpot x="20" y="2" xunits="pixels" yunits="pixels"/>
		</IconStyle>
		<PolyStyle>
			<fill>0</fill>
		</PolyStyle>
	</Style>
	<StyleMap id="m_ylw-pushpin">
		<Pair>
			<key>normal</key>
			<styleUrl>#s_ylw-pushpin</styleUrl>
		</Pair>
		<Pair>
			<key>highlight</key>
			<styleUrl>#s_ylw-pushpin_hl</styleUrl>
		</Pair>
	</StyleMap>
	<Placemark id="0E88DCDBB63F396A5466">
		<name>Untitled Polygon</name>
		<styleUrl>#m_ylw-pushpin</styleUrl>
		<Polygon>
			<tessellate>1</tessellate>
			<outerBoundaryIs>
				<LinearRing>
					<coordinates>
						92.24285114998695,23.94735757910895,0 92.24279276101433,23.94740888643498,0 92.2427587576787,23.94746043884342,0 92.24272459176576,23.94751223763737,0 92.24266728413801,23.94759912174836,0 92.2426566633938,23.94763407061039,0 92.24259875976128,23.94772193414448,0 92.24255046566023,23.94775727771224,0 92.24251374909925,23.94777499200424,0 92.24246370477624,23.94777499148485,0 92.24237680386261,23.9477927340616,0 92.2423392403426,23.94779273372455,0 92.24227723128155,23.94781050515571,0 92.24224077308656,23.9478461353162,0 92.24219056683734,23.94784613494124,0 92.24214133716619,23.94788188030586,0 92.24204116984032,23.94789979629465,0 92.2419663723621,23.94793571593866,0 92.24190335965581,23.94793571565972,0 92.24185294949537,23.94793571546846,0 92.24175247787474,23.94797175238708,0 92.24170238727767,23.94802602847091,0 92.24166452876494,23.94804417947247,0 92.2416013628801,23.94809881113369,0 92.24153788604943,23.94811708126913,0 92.24148697959359,23.94815371180835,0 92.24143590579774,23.94819046253413,0 92.24138478985427,23.94820888355725,0 92.24133342145194,23.94824581609109,0 92.2412818834886,23.94828287083719,0 92.24124275246911,23.9483386826586,0 92.24120287107871,23.94843232032261,0 92.24116328196192,23.94848887742809,0 92.24112349453493,23.94854571787565,0 92.24109759505821,23.94854571800883,0 92.24100650325583,23.94856472853361,0 92.24094120188072,23.94858377104095,0 92.24087634486672,23.94858377153419,0 92.24079851643374,23.94858377219317,0 92.24070841022484,23.94856473097984,0 92.24064435393986,23.94854572164598,0 92.24058120253247,23.94850779714624,0 92.24048042118376,23.9484511471793,0 92.24044627108586,23.94835735457714,0 92.240411473797,23.94828287784658,0 92.24036027313905,23.94828287853382,0 92.24030805761939,23.94830145236376,0 92.24025681464828,23.94830145311508,0 92.2402172917614,23.94832005752187,0 92.24013920761683,23.94833869362336,0 92.24006221590608,23.94833869492158,0 92.23998906792988,23.94828288442981,0 92.23995588918228,23.94820889786683,0 92.23995096238257,23.94809882544394,0 92.23995871709847,23.94798982862996,0 92.23996766897467,23.94786400457939,0 92.2399727388902,23.94779274360848,0 92.23997903041506,23.94770431188811,0 92.23994800865698,23.94761658893572,0 92.23991334739583,23.94758169653664,0 92.23981826276666,23.94752956738507,0 92.23973310201525,23.94751224737026,0 92.23964958041118,23.94747768860633,0 92.23958942099293,23.94746045089584,0 92.23952935713081,23.94744324048111,0 92.23942181791959,23.94740890149982,0 92.23939001996132,23.94735759399133,0 92.23937061712247,23.94730652921819,0 92.23935474430493,23.94722195628453,0 92.23934771389408,23.94717153100067,0 92.23929741971817,23.94707138963344,0 92.23926817551592,23.94700514831485,0 92.2392529211822,23.94692292389171,0 92.23924799601296,23.94685760168408,0 92.2392568107802,23.94677651459093,0 92.23922809519497,23.94671209363889,0 92.23916394596309,23.94664806793092,0 92.2390665727271,23.94656858520977,0 92.23898768834222,23.94653696240822,0 92.23896993849227,23.94648970609246,0 92.23898158532705,23.94639583531938,0 92.23897760057208,23.94633372668985,0 92.23897556470605,23.94625661548756,0 92.23898323680169,23.94619534188998,0 92.2389618982092,23.94608899223175,0 92.23896185578026,23.94599871348104,0 92.23895036450209,23.94590923455529,0 92.23892949241267,23.94580583908558,0 92.23893713080659,23.94574723135487,0 92.23891649307275,23.94564549027486,0 92.23891474694207,23.94557345068806,0 92.23892044550453,23.94553047717399,0 92.2389746611878,23.94545926726331,0 92.2390137045122,23.94541678729513,0 92.23906372461974,23.94537449025481,0 92.23911352955112,23.94533237515154,0 92.23916481820005,23.9452765030292,0 92.23926166706326,23.94520711004007,0 92.2393216512769,23.94516571098626,0 92.23941438789579,23.94512448769436,0 92.23947233106982,23.94509710286884,0 92.23954108180716,23.945069795441,0 92.23962059429982,23.9450425650515,0 92.23966574049724,23.94502897858379,0 92.23972304342301,23.94500186365249,0 92.23975835012089,23.94497482534331,0 92.23982866615981,23.94492097645831,0 92.23988773219028,23.94486742911448,0 92.23992481640877,23.94481418107389,0 92.23997139992122,23.94477443948765,0 92.2400059437218,23.94474803722754,0 92.24004246852842,23.94469545276316,0 92.2400680625817,23.94464315924476,0 92.24008281633391,23.94459115444149,0 92.24008781655664,23.94452655061231,0 92.24009179204904,23.94447518639607,0 92.24009574580317,23.94442410295614,0 92.24010456314987,23.94431018043711,0 92.24011038171118,23.94423500280641,0 92.24013517067054,23.94418522254001,0 92.2401684229374,23.94416043274461,0 92.24022246543568,23.94413570953035,0 92.24027466479023,23.94413570915201,0 92.24032686412977,23.94413570878901,0 92.24035976931235,23.94411105240443,0 92.24040375914288,23.94407419172236,0 92.24046012039931,23.94400091378519,0 92.24051535133209,23.9439402961267,0 92.24054765579795,23.94391616176009,0 92.24060047688486,23.94389209139797,0 92.24066344539426,23.94386808502334,0 92.24071542851156,23.94385610561807,0 92.24076683215398,23.94385610540452,0 92.24079718349407,23.94386808445829,0 92.24083600654427,23.94392821944401,0 92.24085528763476,23.94396449294578,0 92.24089494278792,23.94401308380566,0 92.24092400125164,23.94407418920724,0 92.24097451405078,23.94412336919678,0 92.24099464905341,23.94414805865044,0 92.2410350822028,23.94419763742848,0 92.2410652308925,23.94424748477182,0 92.24111603449103,23.94432276406795,0 92.24115666472781,23.9443986600989,0 92.24116649368857,23.94443684174247,0 92.24120803608426,23.94448799489454,0 92.24127114623104,23.94453942946264,0 92.2413242002726,23.94456525308643,0 92.24135625314152,23.9445652530469,0 92.24137751127054,23.94457819147816,0 92.24142027788064,23.94457819144096,0 92.24146304448976,23.94457819141523,0 92.24153788605447,23.94457819139778,0 92.24155929887294,23.94460412197452,0 92.24155938790713,23.94468234506918,0 92.2415595228557,23.94480090696344,0 92.2415596442406,23.94490755175305,0 92.24153788605391,23.94498832384773,0 92.24151589655921,23.94511077011081,0 92.24149375066497,23.94517947317737,0 92.24148255941375,23.94523478847418,0 92.24147125645807,23.94530437804649,0 92.24147092090644,23.94540264452773,0 92.24149304907658,23.94548766412726,0 92.24153788605307,23.94555907897689,0 92.241583049363,23.94563101362281,0 92.24162834434892,23.94565993430638,0 92.24169665095917,23.94571802940824,0 92.24175366819638,23.94574720460522,0 92.24179967097061,23.94579112790512,0 92.24185775418414,23.94586476467648,0 92.24189280987984,23.94590920762182,0 92.24191654659332,23.94595384779319,0 92.24191795222444,23.94602868985556,0 92.24191965282331,23.94611923706499,0 92.24193239834474,23.94618005346464,0 92.24196914370023,23.94627196354236,0 92.24200551597377,23.94633369875605,0 92.24204210820443,23.94639580734872,0 92.24204363740144,23.94645829252526,0 92.24204556199408,23.94653693395113,0 92.24203564977567,23.94661617621216,0 92.24203794201695,23.94671206982308,0 92.24205182037933,23.94679265852062,0 92.24206580609055,23.94687387056111,0 92.24207990040163,23.94695571320772,0 92.24210575364778,23.94702164634693,0 92.24215600861265,23.94708799189468,0 92.24219236878537,23.94708799212411,0 92.24221660890255,23.94708799228435,0 92.24226508914234,23.9470879926223,0 92.24236204964464,23.94708799336811,0 92.24241189566763,23.94712132212516,0 92.24249837217543,23.94715475574808,0 92.24254858877151,23.94718829406231,0 92.24262250316843,23.94720510333664,0 92.24267214118325,23.94722193869988,0 92.24272278968512,23.94725568869995,0 92.24277165179669,23.9472556893003,0 92.2428205139211,23.94725568992488,0 92.24285820023613,23.94727260490767,0 92.24285114998695,23.94735757910895,0 
					</coordinates>
				</LinearRing>
			</outerBoundaryIs>
		</Polygon>
		<atom:link rel="app" href="https://www.google.com/earth/about/versions/#earth-pro" title="Google Earth Pro 7.3.7.1155"></atom:link>
	</Placemark>
</Document>
</kml>
