<?xml version="1.0" encoding="UTF-8"?>
<kml xmlns="http://www.opengis.net/kml/2.2" xmlns:gx="http://www.google.com/kml/ext/2.2" xmlns:kml="http://www.opengis.net/kml/2.2" xmlns:atom="http://www.w3.org/2005/Atom">
<Document>
	<name>Pre Survey Kml file over 11.00 Ha AR Bamboo at Kalagang under Vanghmun Beat under Element.kml</name>
	<Style id="s_ylw-pushpin_hl">
		<IconStyle>
			<scale>1.3</scale>
			<Icon>
				<href>https://maps.google.com/mapfiles/kml/pushpin/ylw-pushpin.png</href>
			</Icon>
			<hotSpot x="20" y="2" xunits="pixels" yunits="pixels"/>
		</IconStyle>
	</Style>
	<Style id="s_ylw-pushpin">
		<IconStyle>
			<scale>1.1</scale>
			<Icon>
				<href>https://maps.google.com/mapfiles/kml/pushpin/ylw-pushpin.png</href>
			</Icon>
			<hotSpot x="20" y="2" xunits="pixels" yunits="pixels"/>
		</IconStyle>
	</Style>
	<StyleMap id="m_ylw-pushpin">
		<Pair>
			<key>normal</key>
			<styleUrl>#s_ylw-pushpin</styleUrl>
		</Pair>
		<Pair>
			<key>highlight</key>
			<styleUrl>#s_ylw-pushpin_hl</styleUrl>
		</Pair>
	</StyleMap>
	<Placemark id="06B7A3D5213F3AE9B964">
		<name>Untitled Polygon</name>
		<styleUrl>#m_ylw-pushpin</styleUrl>
		<Polygon>
			<tessellate>1</tessellate>
			<outerBoundaryIs>
				<LinearRing>
					<coordinates>
						92.30173331075636,23.99843674921257,0 92.30171108306712,23.99846829273706,0 92.30168366689283,23.99851237812835,0 92.3016736822012,23.99854379091476,0 92.30166904296611,23.99856520375698,0 92.30164044738461,23.99859367688835,0 92.30161656922461,23.99860141664814,0 92.30158589111259,23.9985972109582,0 92.30151855877317,23.9985879826316,0 92.30147582374885,23.99858212484263,0 92.30145761644175,23.99858068761286,0 92.30143349969407,23.99858080199736,0 92.30137303509194,23.99857834480708,0 92.30134886359578,23.99857736233919,0 92.3013307406944,23.99857662570567,0 92.30130683213414,23.99858529245088,0 92.30127128752001,23.99861417478091,0 92.30122329503163,23.99863468031029,0 92.30116879944136,23.99863617529713,0 92.30107784314139,23.99861724598219,0 92.30102333587244,23.99863768841941,0 92.30099291125342,23.99865334468508,0 92.30096842939632,23.99867726416561,0 92.30093170173861,23.99868540872638,0 92.30087597535874,23.99872890407595,0 92.30082605728269,23.99876200114794,0 92.30078217894821,23.99878444174537,0 92.30071888374178,23.99881287100326,0 92.30067399144757,23.99884143860899,0 92.30063558522752,23.99885651085943,0 92.30057728858753,23.99888835216768,0 92.30053869412639,23.99889958407984,0 92.30050617215839,23.99891667273543,0 92.30044768483756,23.99893968749637,0 92.3003893098392,23.99895838461532,0 92.30035664873874,23.99897201002867,0 92.30030413196582,23.99899636999461,0 92.30025929869588,23.99900354100034,0 92.30022053080573,23.99901762216384,0 92.30019479166532,23.9990243896122,0 92.30015050293824,23.99902216811314,0 92.30009369179504,23.99901875107209,0 92.30003694410989,23.9990153383995,0 92.30000042842637,23.9989957340011,0 92.29994040504548,23.9989567582448,0 92.29989937820227,23.99892459227585,0 92.29985983163236,23.99888141267919,0 92.29981380038951,23.99884597711685,0 92.29976451210614,23.99878403497893,0 92.29974901699106,23.99875506632405,0 92.29973391834812,23.99872479930101,0 92.29972811301839,23.99872302863439,0 92.29970737200429,23.99869102703834,0 92.29969827567996,23.998662704212,0 92.29967237106138,23.99862776269454,0 92.2996301070572,23.99858101552631,0 92.29960390657499,23.99854968946141,0 92.29956191754077,23.99850519449714,0 92.29954199821726,23.99847497526335,0 92.29949015327456,23.99842541220004,0 92.29946116547217,23.9983821598018,0 92.29943600821748,23.99835660654509,0 92.29939422248461,23.99833216043668,0 92.2993741844043,23.99831530017788,0 92.2993169608002,23.9982898636934,0 92.29929628447667,23.99828067298843,0 92.29924392465946,23.99826525464921,0 92.29919123462001,23.99824758461027,0 92.29913836885872,23.99823149494855,0 92.29907534579088,23.99821231427297,0 92.29902270157305,23.99819329157319,0 92.29899125441474,23.99818014155954,0 92.29896003145596,23.99816673008801,0 92.29887102884379,23.99813532817689,0 92.29883376468771,23.99809251366029,0 92.29879081320902,23.9980288101826,0 92.2987870587709,23.99802001147372,0 92.29875058852204,23.99798235225755,0 92.29872878248239,23.99795495039287,0 92.29870154999317,23.99792750582287,0 92.29865491536893,23.99784060846412,0 92.29860531404515,23.99777129377557,0 92.29856494721763,23.99771205492278,0 92.29851150097775,23.99764391083868,0 92.29848347231493,23.99760394923816,0 92.29844619436685,23.99753957234608,0 92.29842658528941,23.99751388077672,0 92.29840095179331,23.99745037372735,0 92.29834741973565,23.99733935760941,0 92.29828661085567,23.99724819609263,0 92.29823548670464,23.99718977910324,0 92.29819589209106,23.99716304917227,0 92.29813593134948,23.99714452057345,0 92.29807840178837,23.99711947936464,0 92.29800340550862,23.99702139092721,0 92.29799556969623,23.99697464722898,0 92.29800719506321,23.99691116618392,0 92.29801834157021,23.99687731311693,0 92.29803070425197,23.99684198419174,0 92.29804623025684,23.99680915292675,0 92.29806505031712,23.99679256559947,0 92.29808504505422,23.99674642993137,0 92.29811395883263,23.99667399825206,0 92.29813372220119,23.99661508513854,0 92.29815125574275,23.99654967794734,0 92.29816360870493,23.99649873780585,0 92.29817545711958,23.99646203801843,0 92.29818134434812,23.99644380188069,0 92.29821216425387,23.99641317807248,0 92.29822158818494,23.99640961048928,0 92.29823663048523,23.99640131269297,0 92.29829055818334,23.99635680176032,0 92.29830071799161,23.99634868201397,0 92.29833000355268,23.99632942508435,0 92.29842117156585,23.99626010219253,0 92.29842608557141,23.99625624045184,0 92.29845483420304,23.99624117515355,0 92.29849820161743,23.99621824798903,0 92.29853092889496,23.99620411731222,0 92.29855518590999,23.99620580954692,0 92.29860669243931,23.99619823057675,0 92.298624660239,23.99619226227308,0 92.29866063621488,23.99618031246824,0 92.29867617681161,23.99618499685018,0 92.29868130141075,23.99618083179335,0 92.29871628819178,23.99616010523702,0 92.29872924589654,23.99615822123104,0 92.29875967138146,23.99611967842578,0 92.29877429078508,23.99609430385574,0 92.29879577692762,23.99606226296201,0 92.29881419203591,23.99604173741296,0 92.29884681061253,23.99601377094294,0 92.29887375073227,23.99600816371755,0 92.2989055069357,23.99598841425571,0 92.29895393096885,23.99596789173948,0 92.29898247532316,23.99594224032406,0 92.29900655613906,23.99593383367849,0 92.2990301689411,23.99591199992197,0 92.29906759987912,23.99588661488185,0 92.29910147370343,23.99587361734881,0 92.29912743565981,23.99585850764831,0 92.29915511415763,23.99585139937523,0 92.29919776282966,23.99583539395893,0 92.29920610378635,23.99583679168888,0 92.29926060021393,23.99580931816739,0 92.29927453040708,23.99580556182705,0 92.29930080153663,23.99578598055345,0 92.29930210941023,23.99578028551534,0 92.29931395162745,23.99574716820558,0 92.29933211797851,23.99570426789054,0 92.29936186021878,23.99566478422609,0 92.29939053625245,23.99562700198363,0 92.29940770731362,23.9956036693153,0 92.29941964590213,23.99558499421121,0 92.29942533198391,23.99555498766042,0 92.29942778858779,23.99551971621589,0 92.29942268856298,23.99546911403995,0 92.299410240304,23.99544055742962,0 92.29940987741868,23.99541403897224,0 92.29941532292833,23.99537541863488,0 92.29943245820417,23.99533919246738,0 92.2994375588049,23.99532807024526,0 92.29946192559038,23.99528422394659,0 92.29947136770379,23.99526981902123,0 92.29948080128858,23.99525542724862,0 92.29950244523249,23.99519917074738,0 92.29956647166313,23.99504880934388,0 92.29959715873393,23.9949693399298,0 92.29960755241369,23.99494375540606,0 92.29961853823802,23.99491078544822,0 92.29964674853345,23.99487124645353,0 92.29967428637573,23.99484247621917,0 92.29969290009558,23.99482073162465,0 92.29972153921665,23.99478378566637,0 92.29978127824181,23.99473842022039,0 92.29981615981848,23.99473066479213,0 92.29985540211206,23.99472267196701,0 92.29989536148946,23.99470695437221,0 92.29991428196917,23.99468761450976,0 92.29994613427831,23.99466782876267,0 92.29996900776494,23.99465202970297,0 92.30002778083826,23.99461948951894,0 92.30003203785824,23.99461939801967,0 92.30006388753993,23.99459585183122,0 92.30010434131515,23.99456850792766,0 92.30015305038728,23.99454421080305,0 92.30021750353059,23.99452441168406,0 92.30027695049442,23.99451540135069,0 92.30031509340397,23.99451362243281,0 92.30035750309248,23.99450818611585,0 92.3003743521986,23.99450748229127,0 92.30041660232747,23.99450206444907,0 92.30045491122286,23.99448950777319,0 92.30049673081076,23.99448781849608,0 92.30051715676569,23.99449783135668,0 92.30052909606468,23.99451182162653,0 92.30056195366085,23.99452497122649,0 92.30058687172414,23.99452756712479,0 92.30063648518484,23.99453663253244,0 92.30064873727223,23.99454348178319,0 92.30068990282231,23.99455661928665,0 92.30073533788823,23.99456596624337,0 92.30077254235053,23.99457195444122,0 92.30079698397957,23.99459642439339,0 92.30080894382245,23.99462518204408,0 92.30084110920353,23.99469470995853,0 92.30086558991486,23.99473544504373,0 92.30089846754488,23.9947912778584,0 92.30091074227899,23.99482527117735,0 92.30091470538103,23.99484879397602,0 92.30092707457618,23.9948800729261,0 92.3009436959728,23.99491936879102,0 92.30096898930303,23.99495090205487,0 92.30098591657881,23.99497481194346,0 92.30100292523051,23.99499474530588,0 92.30100715576586,23.99501210547914,0 92.30102426161733,23.99504309579615,0 92.3010414973498,23.99507432139595,0 92.30105017117734,23.99509230575725,0 92.30105457298609,23.99511856007432,0 92.30105897839593,23.9951401136835,0 92.30105912896238,23.99518386279513,0 92.30105920036802,23.99520224145018,0 92.30105052976059,23.99522950220944,0 92.30103739856349,23.99525203970713,0 92.30101979186355,23.99528598614631,0 92.30098444594832,23.99531342874998,0 92.30096227895592,23.99533342071802,0 92.30093995613764,23.9953630488651,0 92.30092631493599,23.99539867139085,0 92.30091687272818,23.99544875991013,0 92.30091666274359,23.99546734278548,0 92.30091650467595,23.99548132672708,0 92.30091554012499,23.9955628039561,0 92.30091981532698,23.9955829367047,0 92.30091969801255,23.99559283503702,0 92.30092776110254,23.99568407673504,0 92.30091798036672,23.9957349731102,0 92.30084314901512,23.99600320569541,0 92.30085051325889,23.99611174817798,0 92.30086373293634,23.99617722227458,0 92.30088257464253,23.99621661221542,0 92.30091580705319,23.99630377014296,0 92.3010637990636,23.99650620516235,0 92.30115525025694,23.99668512536806,0 92.30116157362781,23.99679903199051,0 92.30114719966443,23.99688825332246,0 92.30112724822473,23.99696006476693,0 92.30112739651842,23.99697791910739,0 92.30112779415151,23.99702578892238,0 92.30112794406395,23.99704383739152,0 92.3011334231134,23.99707433409919,0 92.30114408807984,23.99709824093188,0 92.30115485724563,23.99712834637491,0 92.30117620221735,23.99715893175897,0 92.30119749920223,23.99717775438812,0 92.30121896674079,23.99720296991848,0 92.30124041084767,23.99722193201917,0 92.30126798943542,23.9972671123998,0 92.30128505792555,23.99730685633234,0 92.30131856171818,23.99735429136401,0 92.30133571369768,23.99738622486919,0 92.30136443629071,23.99743955637502,0 92.30138712029142,23.99746940003958,0 92.30142652373958,23.99750663672638,0 92.30147825931168,23.99756827426614,0 92.30149684811686,23.99761505667257,0 92.30154415251685,23.99767907412609,0 92.30158002920128,23.99772762656738,0 92.30161523464432,23.99775967715878,0 92.30164602341313,23.9978081357233,0 92.3016656988644,23.99785170471381,0 92.30168466893568,23.99788033222206,0 92.30171762211354,23.99794494015789,0 92.30173111137357,23.99797321568354,0 92.30175833473058,23.99803027860239,0 92.30178795970481,23.9981154859331,0 92.3018039361891,23.99816745143437,0 92.30181313350666,23.9982080649045,0 92.30181819708405,23.99827379522694,0 92.30181491590832,23.99830969808018,0 92.30178947899266,23.99837523228955,0 92.30176659039253,23.99839526669519,0 92.30175581773744,23.99841281942562,0 92.30174568991866,23.99844021080773,0 92.30172347789389,23.99847178227245,0 92.30173331075636,23.99843674921257,0 
					</coordinates>
				</LinearRing>
			</outerBoundaryIs>
		</Polygon>
		<atom:link rel="app" href="https://www.google.com/earth/about/versions/#earth-pro" title="Google Earth Pro 7.3.7.1155"></atom:link>
	</Placemark>
</Document>
</kml>
