<?xml version="1.0" encoding="UTF-8"?>
<kml xmlns="http://www.opengis.net/kml/2.2" xmlns:gx="http://www.google.com/kml/ext/2.2" xmlns:kml="http://www.opengis.net/kml/2.2" xmlns:atom="http://www.w3.org/2005/Atom">
<Document>
	<name>5 HA AR PLANTATION OF SUKHTARA JFMC  DALUCHERRA BEAT UNE ELEMET PROJECT.kml</name>
	<StyleMap id="m_ylw-pushpin">
		<Pair>
			<key>normal</key>
			<styleUrl>#s_ylw-pushpin</styleUrl>
		</Pair>
		<Pair>
			<key>highlight</key>
			<styleUrl>#s_ylw-pushpin_hl</styleUrl>
		</Pair>
	</StyleMap>
	<Style id="s_ylw-pushpin">
		<IconStyle>
			<scale>1.1</scale>
			<Icon>
				<href>http://maps.google.com/mapfiles/kml/pushpin/ylw-pushpin.png</href>
			</Icon>
			<hotSpot x="20" y="2" xunits="pixels" yunits="pixels"/>
		</IconStyle>
		<LineStyle>
			<color>ffffaa00</color>
			<width>5</width>
		</LineStyle>
		<PolyStyle>
			<fill>0</fill>
		</PolyStyle>
	</Style>
	<Style id="s_ylw-pushpin_hl">
		<IconStyle>
			<scale>1.3</scale>
			<Icon>
				<href>http://maps.google.com/mapfiles/kml/pushpin/ylw-pushpin.png</href>
			</Icon>
			<hotSpot x="20" y="2" xunits="pixels" yunits="pixels"/>
		</IconStyle>
		<LineStyle>
			<color>ffffaa00</color>
			<width>5</width>
		</LineStyle>
		<PolyStyle>
			<fill>0</fill>
		</PolyStyle>
	</Style>
	<Placemark>
		<name>5 HA AR PLANTATION OF SUKHTARA JFMC  DALUCHERRA BEAT UNE ELEMET PROJECT</name>
		<styleUrl>#m_ylw-pushpin</styleUrl>
		<Polygon>
			<tessellate>1</tessellate>
			<outerBoundaryIs>
				<LinearRing>
					<coordinates>
						92.0693250552693,23.93399677066039,0 92.06934730710948,23.93406455338519,0 92.06932845307239,23.93412232976371,0 92.06934851032281,23.9341568603094,0 92.06941381839104,23.93423250312554,0 92.06944845452315,23.93424923682411,0 92.06948587023993,23.93426922013609,0 92.0695195824643,23.93430423013446,0 92.06955089307576,23.93433956200127,0 92.06960887496417,23.93436585572618,0 92.06969035284177,23.93439749011393,0 92.0697518890902,23.93444942023019,0 92.06979422914866,23.93449449129862,0 92.06982065900564,23.93449741856731,0 92.06990586858191,23.93453562070246,0 92.0699324821266,23.93456057685873,0 92.0699532208459,23.93459717614206,0 92.06998316218763,23.93467915029417,0 92.07011956573696,23.93475913399849,0 92.07022380672664,23.93478877353606,0 92.0703861326876,23.93480507955484,0 92.07046459227047,23.93483365069959,0 92.07056343796913,23.93490378234427,0 92.07066164357006,23.93494214981524,0 92.0707527726637,23.93499234842276,0 92.07084349699147,23.93507945670852,0 92.0708998288128,23.93512132008899,0 92.07095048729452,23.9351423629885,0 92.07105685315057,23.93518604970697,0 92.07111822622559,23.9352241644923,0 92.07116532590882,23.93525937706197,0 92.07122303804501,23.93530771875439,0 92.07130435389627,23.93538416598957,0 92.07132820988865,23.93539835208268,0 92.07137664540755,23.93546411384773,0 92.07140487987297,23.93551599914847,0 92.07143487938816,23.93559279278248,0 92.07141655586634,23.93567004334664,0 92.07130257065363,23.93575692196038,0 92.0712450860392,23.93583493192904,0 92.07121603087553,23.93590415901926,0 92.07115880053938,23.93596479062596,0 92.07097730548364,23.93604215394155,0 92.07091037216587,23.93609374518451,0 92.07075761972941,23.93608409353611,0 92.07058580370527,23.93609971512173,0 92.07049033467428,23.93613276469685,0 92.07043323300636,23.9361491014709,0 92.07031940545961,23.93619023383019,0 92.07016835419448,23.93617028502572,0 92.07013074620679,23.93624652752548,0 92.07000898673357,23.93622718115872,0 92.0699903095086,23.936337653702,0 92.06992505401055,23.93640451221431,0 92.06985994831085,23.93645438638891,0 92.06979494577133,23.9364959402908,0 92.0697022337406,23.93663056964765,0 92.06967436758362,23.93673245705426,0 92.06961864493604,23.93680034404838,0 92.06947928746884,23.93683443420237,0 92.06933958874404,23.93684382669336,0 92.06920842777333,23.93677786567793,0 92.06911392660884,23.93668655838209,0 92.06908513965504,23.93656841082457,0 92.06907539892779,23.936458047453,0 92.06899033923325,23.93637381213047,0 92.06894307148906,23.93628888911153,0 92.06892481212384,23.93621159689739,0 92.06893493389522,23.93615972448623,0 92.06886160037637,23.93605638868408,0 92.06884662049566,23.93590959480838,0 92.06880958716096,23.9358840288995,0 92.06879301878388,23.93578132459114,0 92.06870924173046,23.9356880930555,0 92.06866283647315,23.93550145748187,0 92.06867247885576,23.9353826781953,0 92.06868214821455,23.93525549047027,0 92.06867359963211,23.93511996674792,0 92.06869247846605,23.93500989433739,0 92.06869213851286,23.93490811659279,0 92.06867159132779,23.93477163477321,0 92.06866991653725,23.93466039381033,0 92.06870647815829,23.93458351935437,0 92.06873307499787,23.9344720424111,0 92.06876973704742,23.93439495491334,0 92.06880528507982,23.93425706407731,0 92.06885176290201,23.93417158893457,0 92.06892606102006,23.9340943704871,0 92.06909466123281,23.9340013811603,0 92.06924443877175,23.93398529382423,0 92.06930985068212,23.93396857415785,0 92.0693250552693,23.93399677066039,0 
					</coordinates>
				</LinearRing>
			</outerBoundaryIs>
		</Polygon>
		<atom:link rel="app" href="https://www.google.com/earth/about/versions/#earth-pro" title="Google Earth Pro 7.3.7.1155"></atom:link>
	</Placemark>
</Document>
</kml>
