<?xml version="1.0" encoding="UTF-8"?>
<kml xmlns="http://www.opengis.net/kml/2.2" xmlns:gx="http://www.google.com/kml/ext/2.2" xmlns:kml="http://www.opengis.net/kml/2.2" xmlns:atom="http://www.w3.org/2005/Atom">
<Document>
	<name>1778577619468.kml</name>
	<StyleMap id="msn_ylw-pushpin">
		<Pair>
			<key>normal</key>
			<styleUrl>#sn_ylw-pushpin</styleUrl>
		</Pair>
		<Pair>
			<key>highlight</key>
			<styleUrl>#sh_ylw-pushpin</styleUrl>
		</Pair>
	</StyleMap>
	<Style id="sh_ylw-pushpin">
		<IconStyle>
			<scale>1.3</scale>
			<Icon>
				<href>http://maps.google.com/mapfiles/kml/pushpin/ylw-pushpin.png</href>
			</Icon>
			<hotSpot x="20" y="2" xunits="pixels" yunits="pixels"/>
		</IconStyle>
		<BalloonStyle>
		</BalloonStyle>
		<PolyStyle>
			<fill>0</fill>
		</PolyStyle>
	</Style>
	<Style id="sn_ylw-pushpin">
		<IconStyle>
			<scale>1.1</scale>
			<Icon>
				<href>http://maps.google.com/mapfiles/kml/pushpin/ylw-pushpin.png</href>
			</Icon>
			<hotSpot x="20" y="2" xunits="pixels" yunits="pixels"/>
		</IconStyle>
		<BalloonStyle>
		</BalloonStyle>
		<PolyStyle>
			<fill>0</fill>
		</PolyStyle>
	</Style>
	<Placemark>
		<name>1778577619468</name>
		<styleUrl>#msn_ylw-pushpin</styleUrl>
		<Polygon>
			<tessellate>1</tessellate>
			<outerBoundaryIs>
				<LinearRing>
					<coordinates>
						91.91135631157054,23.60945015853168,0 91.91104271868799,23.60930522257358,0 91.91062093478371,23.609147406927,0 91.91046909697123,23.60921509060912,0 91.91037737588586,23.60930489200136,0 91.91000699567704,23.60948476766822,0 91.90967369940422,23.60958499635426,0 91.90940306263303,23.6095902522885,0 91.90915883401021,23.6094444804457,0 91.90910692725356,23.60923944727876,0 91.90943155749135,23.60894654475901,0 91.90934981611359,23.60875528174543,0 91.90929994948377,23.60859756827137,0 91.90897505718078,23.60838240990688,0 91.90884618902392,23.60824927027003,0 91.90970455794131,23.60811702904187,0 91.90985934547402,23.60805388796094,0 91.91009780153539,23.60786852262513,0 91.91081928385181,23.60802007917292,0 91.91101869646614,23.60813259818956,0 91.91165784124793,23.60807202592023,0 91.91233378479838,23.60773665094151,0 91.913289647261,23.60798992784825,0 91.91355385951967,23.60798295426267,0 91.91362016701684,23.60806437859562,0 91.91365865647946,23.60822212119906,0 91.91373960234128,23.60843949935196,0 91.91400792171888,23.60856031257545,0 91.91417872569343,23.6085488411588,0 91.9142927032788,23.60861363749833,0 91.91441363513557,23.60872110772433,0 91.91474543382553,23.60884177502833,0 91.91498984744752,23.60902982234917,0 91.91497389138456,23.60926726659348,0 91.91477205883137,23.60939095489716,0 91.91484009789332,23.60977767643347,0 91.91443646366432,23.60987900416587,0 91.91409425799611,23.60986152113179,0 91.91357124895868,23.61019486115166,0 91.91309512755078,23.61011063947502,0 91.91279723032486,23.610195062777,0 91.91201603022417,23.60977954823316,0 91.91188999734179,23.60938053640898,0 91.91179062777363,23.60938924214665,0 91.91135631157054,23.60945015853168,0 
					</coordinates>
				</LinearRing>
			</outerBoundaryIs>
		</Polygon>
		<atom:link rel="app" href="https://www.google.com/earth/about/versions/#earth-pro" title="Google Earth Pro 7.3.7.1155"></atom:link>
	</Placemark>
</Document>
</kml>
