<?xml version="1.0" encoding="UTF-8"?>
<kml xmlns="http://www.opengis.net/kml/2.2" xmlns:gx="http://www.google.com/kml/ext/2.2" xmlns:kml="http://www.opengis.net/kml/2.2" xmlns:atom="http://www.w3.org/2005/Atom">
<Document>
	<name>5 ha ANR BAMBOO  SUKHTARA  JFMC OF DALUCHERRA BEAT UNDER ELEMENT PROJECT.kml</name>
	<StyleMap id="m_ylw-pushpin">
		<Pair>
			<key>normal</key>
			<styleUrl>#s_ylw-pushpin</styleUrl>
		</Pair>
		<Pair>
			<key>highlight</key>
			<styleUrl>#s_ylw-pushpin_hl</styleUrl>
		</Pair>
	</StyleMap>
	<Style id="s_ylw-pushpin">
		<IconStyle>
			<scale>1.1</scale>
			<Icon>
				<href>http://maps.google.com/mapfiles/kml/pushpin/ylw-pushpin.png</href>
			</Icon>
			<hotSpot x="20" y="2" xunits="pixels" yunits="pixels"/>
		</IconStyle>
		<LineStyle>
			<color>ffffaa00</color>
			<width>5</width>
		</LineStyle>
		<PolyStyle>
			<fill>0</fill>
		</PolyStyle>
	</Style>
	<Style id="s_ylw-pushpin_hl">
		<IconStyle>
			<scale>1.3</scale>
			<Icon>
				<href>http://maps.google.com/mapfiles/kml/pushpin/ylw-pushpin.png</href>
			</Icon>
			<hotSpot x="20" y="2" xunits="pixels" yunits="pixels"/>
		</IconStyle>
		<LineStyle>
			<color>ffffaa00</color>
			<width>5</width>
		</LineStyle>
		<PolyStyle>
			<fill>0</fill>
		</PolyStyle>
	</Style>
	<Placemark>
		<name>5 ha ANR BAMBOO  SUKHTARA  JFMC OF DALUCHERRA BEAT UNDER ELEMENT PROJECT</name>
		<styleUrl>#m_ylw-pushpin</styleUrl>
		<Polygon>
			<tessellate>1</tessellate>
			<outerBoundaryIs>
				<LinearRing>
					<coordinates>
						92.0724374087682,23.9307395629403,0 92.07245911648538,23.93078565690363,0 92.07249629251794,23.93089218047166,0 92.07253390860308,23.93101919067011,0 92.0725269022204,23.93105937003043,0 92.0724761951094,23.9311265632804,0 92.07241070018317,23.93118717937313,0 92.07235952366347,23.93120750808829,0 92.07230110225687,23.93124805887549,0 92.07228682948595,23.93132209348479,0 92.07222838301004,23.93138959015517,0 92.07219193190068,23.931483771475,0 92.07215526649249,23.9315775468372,0 92.07216265577516,23.93163092816098,0 92.07211122983965,23.93168479781772,0 92.07205979157447,23.9317121190743,0 92.07201564922894,23.93173926333909,0 92.07194943785171,23.93180031158329,0 92.07187580793415,23.93184171885551,0 92.07181699359876,23.93196513824427,0 92.07172836442412,23.93204234304469,0 92.07158749864512,23.93214555132193,0 92.07140219915252,23.93219102096923,0 92.07131378381611,23.93218746196019,0 92.07116742856643,23.93217989663858,0 92.0710008580333,23.93222936317915,0 92.07086519731908,23.93221854132868,0 92.07070971751541,23.93218648690926,0 92.07048557400321,23.93214477467224,0 92.07043119646838,23.93206733009225,0 92.07035539590292,23.93199709158699,0 92.07026543608012,23.93194696639365,0 92.0701416968258,23.93184356277419,0 92.07013640728975,23.93178974588859,0 92.07017444923754,23.93172246517918,0 92.07023469851495,23.93164778547206,0 92.07027776280584,23.93157661589468,0 92.07028598858787,23.93148553066519,0 92.07029387985843,23.93142056168358,0 92.07029494194292,23.93135540849948,0 92.07029662052778,23.93126418135584,0 92.07029058234032,23.93121847974339,0 92.07025687510296,23.93116598669161,0 92.07023019854064,23.93110093776441,0 92.07019625756529,23.93103623256337,0 92.0701489539796,23.93095213072921,0 92.07012938674177,23.93090667066283,0 92.07010329109377,23.93084835158636,0 92.07005515412828,23.93082878926245,0 92.06994469300258,23.93081525142188,0 92.06990326869797,23.93081496267938,0 92.06979800228309,23.93081505054613,0 92.06969356791339,23.93080211767607,0 92.06958401755564,23.9307568573834,0 92.06957318413116,23.9307051622307,0 92.06955458951508,23.93066650227649,0 92.06955728627493,23.9306215202418,0 92.06956022744473,23.93055141704316,0 92.06955567851085,23.93049420612477,0 92.06957375781579,23.93036145958296,0 92.06957584116479,23.930285892453,0 92.06957081251139,23.93016666414091,0 92.06963933680359,23.93019803650366,0 92.06974926854893,23.93019186696456,0 92.06980305895954,23.93017950475678,0 92.0698904214433,23.93015467990624,0 92.06995735763066,23.93006056855646,0 92.07005041561638,23.93002922330252,0 92.07012271439326,23.93001669101152,0 92.0702288022552,23.93000409829207,0 92.07033576220553,23.92999778172928,0 92.07049148713573,23.93001065503096,0 92.07069891672987,23.92999787320245,0 92.07078995117165,23.92999789204449,0 92.0708742440672,23.93001085255253,0 92.07100857099741,23.93001090705259,0 92.07112213817692,23.93001095669535,0 92.0712220312807,23.92995886790137,0 92.07125777239006,23.92990015985649,0 92.07133651013766,23.92976936416659,0 92.07147319152686,23.92986043647842,0 92.07155990508603,23.92997833239578,0 92.07160338836437,23.93002433020752,0 92.07158155951524,23.93014928444146,0 92.07162512738783,23.93026814675488,0 92.07165426032846,23.93030786728117,0 92.07167613274025,23.93040033781486,0 92.07178572391359,23.930414270585,0 92.07182965753681,23.93041454247872,0 92.07204253702581,23.93046858482765,0 92.07208665967487,23.93050854283485,0 92.07212354886776,23.93058177049794,0 92.07226997033807,23.93066110560665,0 92.07243758130198,23.93066688967674,0 92.0724374087682,23.9307395629403,0 
					</coordinates>
				</LinearRing>
			</outerBoundaryIs>
		</Polygon>
		<atom:link rel="app" href="https://www.google.com/earth/about/versions/#earth-pro" title="Google Earth Pro 7.3.7.1155"></atom:link>
	</Placemark>
</Document>
</kml>
