<?xml version="1.0" encoding="UTF-8"?>
<kml xmlns="http://www.opengis.net/kml/2.2" xmlns:gx="http://www.google.com/kml/ext/2.2" xmlns:kml="http://www.opengis.net/kml/2.2" xmlns:atom="http://www.w3.org/2005/Atom">
<Document>
	<name>AR Bamboo 25 ha Element project.kml</name>
	<StyleMap id="m_ylw-pushpin">
		<Pair>
			<key>normal</key>
			<styleUrl>#s_ylw-pushpin</styleUrl>
		</Pair>
		<Pair>
			<key>highlight</key>
			<styleUrl>#s_ylw-pushpin_hl</styleUrl>
		</Pair>
	</StyleMap>
	<Style id="s_ylw-pushpin">
		<IconStyle>
			<scale>1.1</scale>
			<Icon>
				<href>http://maps.google.com/mapfiles/kml/pushpin/ylw-pushpin.png</href>
			</Icon>
			<hotSpot x="20" y="2" xunits="pixels" yunits="pixels"/>
		</IconStyle>
		<LineStyle>
			<color>ff7fff55</color>
			<width>2</width>
		</LineStyle>
		<PolyStyle>
			<fill>0</fill>
		</PolyStyle>
	</Style>
	<Style id="s_ylw-pushpin_hl">
		<IconStyle>
			<scale>1.3</scale>
			<Icon>
				<href>http://maps.google.com/mapfiles/kml/pushpin/ylw-pushpin.png</href>
			</Icon>
			<hotSpot x="20" y="2" xunits="pixels" yunits="pixels"/>
		</IconStyle>
		<LineStyle>
			<color>ff7fff55</color>
			<width>2</width>
		</LineStyle>
		<PolyStyle>
			<fill>0</fill>
		</PolyStyle>
	</Style>
	<Placemark>
		<name>AR Bamboo 25 ha Element project</name>
		<styleUrl>#m_ylw-pushpin</styleUrl>
		<Polygon>
			<tessellate>1</tessellate>
			<outerBoundaryIs>
				<LinearRing>
					<coordinates>
						91.74407995860636,24.12164752347556,0 91.74358785131078,24.12131048220305,0 91.74344884324069,24.1210100245217,0 91.74333406621381,24.12066213529041,0 91.74348422429262,24.12038996963219,0 91.74348293023635,24.11998132695661,0 91.74349015137392,24.11977971096126,0 91.74315493940897,24.11937910723895,0 91.74301716699198,24.11919909291842,0 91.74304613793186,24.11891259048528,0 91.74313057152922,24.11874776508446,0 91.7431926269491,24.11853259212593,0 91.74320768134891,24.11798210316606,0 91.7439258417933,24.11792437098262,0 91.74456402098743,24.11781812529001,0 91.74565332503012,24.11789040326423,0 91.7462915851701,24.11791315964181,0 91.7470666751471,24.118064551304,0 91.74735302940988,24.11825064889585,0 91.74768883707,24.11851128134048,0 91.74793812667663,24.1188837572461,0 91.74841794969376,24.11929059095884,0 91.748589398447,24.11986672877108,0 91.74883994796863,24.12097874340424,0 91.74861531765221,24.12179808623562,0 91.74861105984047,24.12229385014401,0 91.74815029243152,24.12273542185374,0 91.74780041054777,24.12308203639179,0 91.74721826444117,24.12275636391056,0 91.746525638113,24.12252396550921,0 91.74614632368437,24.12238069545253,0 91.74545557091092,24.12251849741838,0 91.7447030951935,24.12210694824636,0 91.74407995860636,24.12164752347556,0 
					</coordinates>
				</LinearRing>
			</outerBoundaryIs>
		</Polygon>
		<atom:link rel="app" href="https://www.google.com/earth/about/versions/#earth-pro" title="Google Earth Pro 7.3.7.1155"></atom:link>
	</Placemark>
</Document>
</kml>
