<?xml version="1.0" encoding="UTF-8"?>
<kml xmlns="http://www.opengis.net/kml/2.2" xmlns:gx="http://www.google.com/kml/ext/2.2" xmlns:kml="http://www.opengis.net/kml/2.2" xmlns:atom="http://www.w3.org/2005/Atom">
<Document>
	<name>1778054301163.kml</name>
	<StyleMap id="msn_ylw-pushpin">
		<Pair>
			<key>normal</key>
			<styleUrl>#sn_ylw-pushpin</styleUrl>
		</Pair>
		<Pair>
			<key>highlight</key>
			<styleUrl>#sh_ylw-pushpin</styleUrl>
		</Pair>
	</StyleMap>
	<Style id="sh_ylw-pushpin">
		<IconStyle>
			<scale>1.3</scale>
			<Icon>
				<href>http://maps.google.com/mapfiles/kml/pushpin/ylw-pushpin.png</href>
			</Icon>
			<hotSpot x="20" y="2" xunits="pixels" yunits="pixels"/>
		</IconStyle>
		<BalloonStyle>
		</BalloonStyle>
		<PolyStyle>
			<fill>0</fill>
		</PolyStyle>
	</Style>
	<Style id="sn_ylw-pushpin">
		<IconStyle>
			<scale>1.1</scale>
			<Icon>
				<href>http://maps.google.com/mapfiles/kml/pushpin/ylw-pushpin.png</href>
			</Icon>
			<hotSpot x="20" y="2" xunits="pixels" yunits="pixels"/>
		</IconStyle>
		<BalloonStyle>
		</BalloonStyle>
		<PolyStyle>
			<fill>0</fill>
		</PolyStyle>
	</Style>
	<Placemark>
		<name>1778054301163</name>
		<styleUrl>#msn_ylw-pushpin</styleUrl>
		<Polygon>
			<tessellate>1</tessellate>
			<outerBoundaryIs>
				<LinearRing>
					<coordinates>
						91.6881818284329,23.7532300789996,0 91.68790533597198,23.75288905332024,0 91.6878479852115,23.75246318824648,0 91.6877938668076,23.75198652195418,0 91.68797286758819,23.75171721584383,0 91.68827812161197,23.75122320438426,0 91.68838814542863,23.75076958371803,0 91.68842548409806,23.75024351073426,0 91.68825972895209,23.75009707667473,0 91.68830259638358,23.7492618439259,0 91.68817764921313,23.74897473576529,0 91.6881414878744,23.74843840209948,0 91.68837881156031,23.74802998374762,0 91.68863170313699,23.74759516895572,0 91.68890920445646,23.74715053528368,0 91.6892888532193,23.74706145790212,0 91.68957911182093,23.74735765721306,0 91.69069198201157,23.74813024535181,0 91.69065961448436,23.74852047504861,0 91.69143766637183,23.74971256574899,0 91.69173297019195,23.75075247146159,0 91.69175694067422,23.7512129774402,0 91.69174163653327,23.75180267367692,0 91.69179681489156,23.75203855231348,0 91.69212893738714,23.75241090631517,0 91.69207119184415,23.7525227670456,0 91.69185207560828,23.75259366941694,0 91.69174835253834,23.75279603609077,0 91.69147511983432,23.75295236366791,0 91.69095537482313,23.75303451621208,0 91.69065417617543,23.75293650396856,0 91.69039784149547,23.75305425673751,0 91.69017029547985,23.75332416875547,0 91.68977462990973,23.7533644855386,0 91.68948229154162,23.75311913765109,0 91.68925159339331,23.75305890290145,0 91.6889380233816,23.75315208411839,0 91.68874971343088,23.75329736377996,0 91.68861109781693,23.75346569577009,0 91.6881818284329,23.7532300789996,0 
					</coordinates>
				</LinearRing>
			</outerBoundaryIs>
		</Polygon>
		<atom:link rel="app" href="https://www.google.com/earth/about/versions/#earth-pro" title="Google Earth Pro 7.3.7.1155"></atom:link>
	</Placemark>
</Document>
</kml>
