<?xml version="1.0" encoding="UTF-8"?>
<kml xmlns="http://www.opengis.net/kml/2.2" xmlns:gx="http://www.google.com/kml/ext/2.2" xmlns:kml="http://www.opengis.net/kml/2.2" xmlns:atom="http://www.w3.org/2005/Atom">
<Document>
	<name>Pre Survey Map of KML at Sananda Para under Kanchancherra Beat of Element AR Bamboo 11.30 Ha.kml</name>
	<Style id="s_ylw-pushpin_hl">
		<IconStyle>
			<scale>1.3</scale>
			<Icon>
				<href>https://maps.google.com/mapfiles/kml/pushpin/ylw-pushpin.png</href>
			</Icon>
			<hotSpot x="20" y="2" xunits="pixels" yunits="pixels"/>
		</IconStyle>
	</Style>
	<Style id="s_ylw-pushpin">
		<IconStyle>
			<scale>1.1</scale>
			<Icon>
				<href>https://maps.google.com/mapfiles/kml/pushpin/ylw-pushpin.png</href>
			</Icon>
			<hotSpot x="20" y="2" xunits="pixels" yunits="pixels"/>
		</IconStyle>
	</Style>
	<StyleMap id="m_ylw-pushpin">
		<Pair>
			<key>normal</key>
			<styleUrl>#s_ylw-pushpin</styleUrl>
		</Pair>
		<Pair>
			<key>highlight</key>
			<styleUrl>#s_ylw-pushpin_hl</styleUrl>
		</Pair>
	</StyleMap>
	<Placemark id="0564519BDB3F3AE52B1F">
		<name>Untitled Polygon</name>
		<styleUrl>#m_ylw-pushpin</styleUrl>
		<Polygon>
			<tessellate>1</tessellate>
			<outerBoundaryIs>
				<LinearRing>
					<coordinates>
						92.12626716282372,24.01550756857858,0 92.12619872272573,24.01535522286275,0 92.12611110027257,24.01517625526285,0 92.12601315302693,24.0150597418984,0 92.12596400791391,24.01504183112912,0 92.12590514947146,24.01502404034342,0 92.12585608126616,24.0150152127916,0 92.12575842024542,24.0149980633289,0 92.12566071220972,24.01498106093165,0 92.12558245094644,24.01498200581235,0 92.12552366558003,24.01498277316936,0 92.12545511116589,24.01500207462935,0 92.12535681321698,24.01503109575716,0 92.12528770675223,24.01505052567398,0 92.12520844352669,24.01505192234696,0 92.12515876113989,24.01505278798228,0 92.12507903607194,24.01505410256269,0 92.12500906418902,24.01505528520795,0 92.12495896133591,24.01505590502864,0 92.12490879682963,24.01505634269168,0 92.12485857373207,24.01503847043115,0 92.12479822535698,24.01500233715547,0 92.1247075745504,24.0149479509675,0 92.1246369922,24.014911616232,0 92.12459659365433,24.01487512413354,0 92.12454601456501,24.01482031203467,0 92.12448519134144,24.0147379249051,0 92.1244650762992,24.0146918566141,0 92.12443490186413,24.01463658014309,0 92.12440471606763,24.01459053028482,0 92.1243341112223,24.01453534226004,0 92.12420261822636,24.01442500148842,0 92.12417224298731,24.01441581669038,0 92.12404053836136,24.01434217081562,0 92.12391915781143,24.01432375586176,0 92.12383831922584,24.01430532406938,0 92.12372697685072,24.01428689038285,0 92.12365616281168,24.01426844558278,0 92.12354481429441,24.01421309291135,0 92.12351460130421,24.01420386888951,0 92.12341431215211,24.01413933647753,0 92.12335436423236,24.01409329036858,0 92.12333458062972,24.01405646748787,0 92.12327612692448,24.01398307132948,0 92.12322833939692,24.01390993823358,0 92.12319049995477,24.01383696994342,0 92.12315292686861,24.01375507875936,0 92.12307573618205,24.01369181919495,0 92.12301772989339,24.01366499710501,0 92.12297912018525,24.01364714306747,0 92.12289280603294,24.01359349954861,0 92.12285486250749,24.01355767667131,0 92.12283652229391,24.01347628003817,0 92.12283737486064,24.01341289081293,0 92.12283859186905,24.01334971543109,0 92.12282986222849,24.01327751485933,0 92.12282028650723,24.0132504234924,0 92.12279148412971,24.01317824121778,0 92.12279196171336,24.01313307474731,0 92.12281213521626,24.0130878308711,0 92.12282209048732,24.01307876240998,0 92.12288204225307,24.01303355140518,0 92.12297145087466,24.01296090550292,0 92.1231118206609,24.01289825164014,0 92.12318293576541,24.01286319571165,0 92.12320310271784,24.012863446696,0 92.12326427912906,24.0128376259269,0 92.12330503439733,24.01282046294436,0 92.1233853648103,24.01279432352555,0 92.12341633479647,24.01276841267993,0 92.123497489992,24.01272535212816,0 92.12358861358207,24.01266475366238,0 92.12364892171425,24.01263012601225,0 92.12373767530408,24.01260324719491,0 92.12379633737308,24.01259362317386,0 92.12383591857899,24.01256685628103,0 92.12384586081923,24.01255798840237,0 92.12387561176621,24.01252228783752,0 92.1239243514067,24.01247642888398,0 92.12394378569691,24.01242191588692,0 92.12397285222079,24.01237592944865,0 92.12403071954395,24.01233722498842,0 92.12406931800631,24.01232626495773,0 92.12418568869623,24.01229353703047,0 92.12424412408687,24.01225440787767,0 92.1243028064418,24.01224263996649,0 92.12437156131548,24.0122397994464,0 92.12445037633647,24.01223654398697,0 92.12449976906933,24.01223452081142,0 92.1246088803308,24.01220318518682,0 92.12469847543861,24.01216334415046,0 92.12475836356467,24.01213366567887,0 92.1248584441493,24.01210217072629,0 92.12495889672954,24.01207938612287,0 92.12507993655147,24.01205657694715,0 92.12512038694274,24.01203672316517,0 92.12519128489018,24.01201592897309,0 92.12530294780589,24.01201257361312,0 92.12544535538039,24.01199995222462,0 92.12551667433564,24.01198918547341,0 92.12562856195794,24.01197884509124,0 92.12570998633933,24.0119595622971,0 92.12575079076181,24.0119125980388,0 92.12581189700236,24.0118564270309,0 92.12587284530821,24.01176361798196,0 92.12595396619301,24.01163408042217,0 92.1260145971645,24.01156064361676,0 92.1260448589142,24.01146840808263,0 92.12610484925042,24.01137800268415,0 92.12615496935881,24.01131461724857,0 92.1262249908074,24.01125204818671,0 92.12633624952716,24.01123390181428,0 92.12640746542687,24.01123322840302,0 92.12647886598744,24.01124150993889,0 92.12655057798023,24.01124929145514,0 92.12662228518755,24.01129428714715,0 92.12665319159628,24.01133978744046,0 92.12669424835403,24.01137607210332,0 92.1267148850343,24.01141260286679,0 92.1267658421237,24.01147719897472,0 92.12677619642891,24.01151398770155,0 92.12677675409775,24.01159664080594,0 92.12677710644769,24.01165179962995,0 92.12677677788531,24.01171721786566,0 92.1267764176808,24.01179192378592,0 92.12675596451892,24.01186632430708,0 92.12672543058099,24.01194062152249,0 92.12671514438365,24.01199645537586,0 92.12670489419907,24.01208931526298,0 92.12670481409231,24.01215432911253,0 92.12670546209752,24.01224629182215,0 92.12670591107158,24.01230144579029,0 92.12670620882484,24.01233824481187,0 92.12670723110737,24.01242069355894,0 92.12670814081162,24.01249406277759,0 92.12670840193793,24.01254023917116,0 92.12669846358966,24.01262364691074,0 92.12668830022292,24.01267011933161,0 92.12667813142519,24.01272586851263,0 92.12667834478088,24.0127814410311,0 92.12666819537741,24.01285578727053,0 92.12666838603913,24.01290210967359,0 92.12666865269655,24.01296697822141,0 92.12666896925541,24.01305043299558,0 92.12666894145497,24.01310624725797,0 92.12667935991578,24.01318047740001,0 92.12671994300891,24.01325496411336,0 92.1267396060573,24.01329253808563,0 92.12674938636094,24.01332063162232,0 92.12678842186281,24.01338647695989,0 92.12682670566426,24.01345249652427,0 92.12683620042205,24.01347131692089,0 92.12688453334435,24.0135185848968,0 92.12691356208916,24.01354685762573,0 92.12696219767344,24.01359377821529,0 92.12700114051795,24.01362197982376,0 92.12704938844571,24.01368725362139,0 92.1271083978544,24.01374298356146,0 92.12712819389408,24.01378915148977,0 92.12712759961011,24.0138445636872,0 92.12712753258955,24.0139182869504,0 92.12710768171046,24.01397352963505,0 92.12707742648537,24.01400117467938,0 92.12703726452122,24.0140472343531,0 92.1270072008746,24.01408408171437,0 92.12696714251153,24.01411171164723,0 92.12693671979771,24.01413937363777,0 92.12687569585161,24.01417626259616,0 92.12682490852495,24.01423156306082,0 92.12681420478225,24.01428683361881,0 92.12680222682523,24.01436960009984,0 92.1268102554681,24.01445218428838,0 92.12683968444408,24.01449803763076,0 92.12686955552209,24.01452555438388,0 92.12691049299478,24.01454403386251,0 92.12696211152854,24.01457181335429,0 92.12701375588934,24.01461802671329,0 92.12706570666685,24.01466434484042,0 92.12712950112592,24.01472031428452,0 92.12718202450606,24.01480382505557,0 92.12720260202474,24.01485930730563,0 92.12722322819096,24.01491482099454,0 92.12723267195788,24.01497000974853,0 92.12724121941039,24.0150617611279,0 92.12723919746135,24.01514398961611,0 92.12723755238011,24.01521702121216,0 92.12723635929628,24.01527173754278,0 92.12723551681759,24.015326566961,0 92.12724448685339,24.01540881729697,0 92.12724363446367,24.01546354615433,0 92.1271800200184,24.01552603256475,0 92.12713749925528,24.01556134726947,0 92.12707424119658,24.01558693531258,0 92.12702145563114,24.01561264046035,0 92.12697928582301,24.01565687797703,0 92.12693748917528,24.0157012315943,0 92.1268540483523,24.01578052369398,0 92.12671740070151,24.01576534106917,0 92.12664410213189,24.01574383057318,0 92.12659198370979,24.01573243257712,0 92.126468242542,24.01570047220005,0 92.1263861472962,24.01565225902098,0 92.12633600041927,24.01561535885023,0 92.12628670819336,24.01555235956826,0 92.12627701169572,24.01551656560876,0 92.12627710546892,24.01549868988831,0 92.12626716282372,24.01550756857858,0 
					</coordinates>
				</LinearRing>
			</outerBoundaryIs>
		</Polygon>
		<atom:link rel="app" href="https://www.google.com/earth/about/versions/#earth-pro" title="Google Earth Pro 7.3.7.1155"></atom:link>
	</Placemark>
</Document>
</kml>
