<?xml version="1.0" encoding="UTF-8"?>
<kml xmlns="http://www.opengis.net/kml/2.2" xmlns:gx="http://www.google.com/kml/ext/2.2" xmlns:kml="http://www.opengis.net/kml/2.2" xmlns:atom="http://www.w3.org/2005/Atom">
<Document>
	<name>10 ha AR Jatindra para JFMC.kml</name>
	<StyleMap id="m_ylw-pushpin">
		<Pair>
			<key>normal</key>
			<styleUrl>#s_ylw-pushpin</styleUrl>
		</Pair>
		<Pair>
			<key>highlight</key>
			<styleUrl>#s_ylw-pushpin_hl</styleUrl>
		</Pair>
	</StyleMap>
	<Style id="s_ylw-pushpin">
		<IconStyle>
			<scale>1.1</scale>
			<Icon>
				<href>http://maps.google.com/mapfiles/kml/pushpin/ylw-pushpin.png</href>
			</Icon>
			<hotSpot x="20" y="2" xunits="pixels" yunits="pixels"/>
		</IconStyle>
	</Style>
	<Style id="s_ylw-pushpin_hl">
		<IconStyle>
			<scale>1.3</scale>
			<Icon>
				<href>http://maps.google.com/mapfiles/kml/pushpin/ylw-pushpin.png</href>
			</Icon>
			<hotSpot x="20" y="2" xunits="pixels" yunits="pixels"/>
		</IconStyle>
	</Style>
	<Placemark>
		<name>10 ha AR Jatindra para JFMC</name>
		<styleUrl>#m_ylw-pushpin</styleUrl>
		<Polygon>
			<tessellate>1</tessellate>
			<outerBoundaryIs>
				<LinearRing>
					<coordinates>
						91.95919922176073,23.75156616808648,0 91.95924374194767,23.75162011621028,0 91.9591699073667,23.75164975626792,0 91.95911114792922,23.75166672148668,0 91.9590372776925,23.75166958714906,0 91.95903727497435,23.75158765177115,0 91.95905234362675,23.75151997821498,0 91.95906721617831,23.7514105427066,0 91.95906787268871,23.75135843663058,0 91.95908318205876,23.75130520973126,0 91.9590986995421,23.75123899926942,0 91.95911412219594,23.7511860179516,0 91.95915950034637,23.75109207658268,0 91.95919029312898,23.75101282789487,0 91.95928111105296,23.7508789365101,0 91.95922372928862,23.75081795105641,0 91.95910675581015,23.75077287800679,0 91.95903307653683,23.75073674706305,0 91.95898859835282,23.75072541881996,0 91.95895929564655,23.75068703930667,0 91.95894555687956,23.75059521558359,0 91.95894690140376,23.7504893305428,0 91.95891821310147,23.75034242867883,0 91.95885895046371,23.75022224097922,0 91.95879888856302,23.75008554030411,0 91.95875364717287,23.74996154401162,0 91.95869333321755,23.74985184148778,0 91.95861775377074,23.74972803225045,0 91.95855709085717,23.74957545996181,0 91.95849632097844,23.74947803778673,0 91.95845070130231,23.74935265964343,0 91.95842031043526,23.74929695496349,0 91.95835956219733,23.74918568469328,0 91.95832919314574,23.74913006795911,0 91.95825335408084,23.74900538365584,0 91.9581926813474,23.74892238710373,0 91.9581471623505,23.74883926373221,0 91.95808636458057,23.74874153620698,0 91.95798003969679,23.74861589172434,0 91.95796485831767,23.74856026545274,0 91.95794967806575,23.74849078846392,0 91.95794967603065,23.74843519107571,0 91.95794967383009,23.74835181488506,0 91.9579496794392,23.74829635820109,0 91.95796488458066,23.74819952754888,0 91.95796493254869,23.74811675218069,0 91.95796496391441,23.7480476249227,0 91.95796503257708,23.74793716656133,0 91.95793466323356,23.74788214098376,0 91.95793468292669,23.74785457868619,0 91.95787382109623,23.74777158523155,0 91.95781289643675,23.74766045169559,0 91.95776717633433,23.74759097441631,0 91.95770628042186,23.7475209968163,0 91.95766065197355,23.747478926147,0 91.95766068067836,23.74742307525669,0 91.95770635952874,23.74738123360307,0 91.95776724599972,23.74732552199145,0 91.95782813435872,23.74729773637232,0 91.95790425933592,23.74721409940603,0 91.95791948258331,23.7472001527818,0 91.95796514199556,23.7471443547602,0 91.95801078571644,23.74710249213633,0 91.95810209880266,23.74706068623395,0 91.95820865143612,23.74701890280167,0 91.95826960915008,23.74699108839767,0 91.95830009845409,23.74697717782248,0 91.958376313557,23.74696328482608,0 91.95848306098821,23.74696334237168,0 91.95854403331876,23.74696335881326,0 91.95862026214849,23.7469633786179,0 91.95868111008885,23.74696335056525,0 91.95875713656667,23.74696331380585,0 91.95883314818887,23.74696327899007,0 91.95887870831024,23.74697718591067,0 91.9589849799514,23.74700498015225,0 91.95903049577842,23.74701887424468,0 91.95910623640775,23.74706056940818,0 91.95915157245119,23.74710225709355,0 91.95925799514961,23.74715793177034,0 91.95930359328895,23.74719968744978,0 91.95936439112376,23.74725536058953,0 91.95939468319641,23.74731099958264,0 91.95944011247259,23.74739443997396,0 91.95948575120602,23.74742228519223,0 91.95957709079332,23.74746408247878,0 91.95962285498064,23.74746413987483,0 91.95969850341575,23.74749181422814,0 91.95974272625654,23.74754687657215,0 91.95983171638932,23.74761543052267,0 91.95986123241374,23.74764282801213,0 91.95990537470317,23.74768384293608,0 91.95997927845077,23.74772457431321,0 91.96002347020935,23.7477517082838,0 91.96006647524703,23.74780595319448,0 91.9600949281143,23.74784657734948,0 91.96012298297593,23.747900773418,0 91.96015062712786,23.74796847487425,0 91.9602370871422,23.74807660613823,0 91.96026562336783,23.74813080028749,0 91.9603236149833,23.7482258581552,0 91.9603527582527,23.74828031119148,0 91.96033868392959,23.7483909700645,0 91.96031004391683,23.7484745352849,0 91.96029478492301,23.74865331435735,0 91.96029388963341,23.748776440247,0 91.96029225171635,23.74885755644198,0 91.96029080485181,23.74892499790638,0 91.96032017675756,23.74895188713186,0 91.96046866015905,23.74899169770677,0 91.96061604179866,23.74898953721886,0 91.96070371878514,23.74898775183497,0 91.96071835983651,23.7490148965673,0 91.9607622421628,23.7490825746476,0 91.96079136846733,23.74913670530614,0 91.96083198206789,23.74925631989403,0 91.96089963199631,23.74938689342954,0 91.9609803415304,23.74955633807525,0 91.96097751932246,23.74962174401853,0 91.96094603094268,23.74967441251775,0 91.96090044503634,23.74974129743758,0 91.96085477190307,23.74982158467715,0 91.96082399885884,23.74986114066004,0 91.96079396426398,23.74994215093659,0 91.96076276202167,23.74999468153935,0 91.96073441620426,23.75013182764393,0 91.96072307774844,23.75025823426506,0 91.96068551546125,23.75048484458877,0 91.9606727620976,23.75055582648817,0 91.96070636311525,23.75061556018327,0 91.96074010993091,23.75067553141993,0 91.96082242878161,23.75076798243889,0 91.96088858494683,23.7508450242828,0 91.96096833375371,23.75092007464515,0 91.96105048431835,23.75103958339216,0 91.96105173427884,23.75108263144448,0 91.96088645097907,23.75120728775767,0 91.96052142226897,23.75136663862171,0 91.95993412485615,23.75149594374334,0 91.95959957889106,23.75150664784789,0 91.95918440992601,23.75155283944326,0 91.95919922176073,23.75156616808648,0 
					</coordinates>
				</LinearRing>
			</outerBoundaryIs>
		</Polygon>
		<atom:link rel="app" href="https://www.google.com/earth/about/versions/#earth-pro" title="Google Earth Pro 7.3.7.1155"></atom:link>
	</Placemark>
</Document>
</kml>
