<?xml version="1.0" encoding="UTF-8"?>
<kml xmlns="http://www.opengis.net/kml/2.2" xmlns:gx="http://www.google.com/kml/ext/2.2" xmlns:kml="http://www.opengis.net/kml/2.2" xmlns:atom="http://www.w3.org/2005/Atom">
<Document>
	<name>Pre-Survey Map of ANR Bamboo plantation (P-II) (ELEMENT Project) over 5.0 ha at  Tulakona Beat under Champakpaknagar Range durin.kml</name>
	<StyleMap id="msn_ylw-pushpin">
		<Pair>
			<key>normal</key>
			<styleUrl>#sn_ylw-pushpin</styleUrl>
		</Pair>
		<Pair>
			<key>highlight</key>
			<styleUrl>#sh_ylw-pushpin</styleUrl>
		</Pair>
	</StyleMap>
	<Style id="sh_ylw-pushpin">
		<IconStyle>
			<scale>1.3</scale>
			<Icon>
				<href>http://maps.google.com/mapfiles/kml/pushpin/ylw-pushpin.png</href>
			</Icon>
			<hotSpot x="20" y="2" xunits="pixels" yunits="pixels"/>
		</IconStyle>
		<BalloonStyle>
		</BalloonStyle>
		<LineStyle>
			<width>2.5</width>
		</LineStyle>
		<PolyStyle>
			<fill>0</fill>
		</PolyStyle>
	</Style>
	<Style id="sn_ylw-pushpin">
		<IconStyle>
			<scale>1.1</scale>
			<Icon>
				<href>http://maps.google.com/mapfiles/kml/pushpin/ylw-pushpin.png</href>
			</Icon>
			<hotSpot x="20" y="2" xunits="pixels" yunits="pixels"/>
		</IconStyle>
		<BalloonStyle>
		</BalloonStyle>
		<LineStyle>
			<width>2.5</width>
		</LineStyle>
		<PolyStyle>
			<fill>0</fill>
		</PolyStyle>
	</Style>
	<Placemark>
		<name>Pre-Survey Map of ANR Bamboo plantation (P-II) (ELEMENT Project) over 5.0 ha at  Tulakona Beat under Champakpaknagar Range during the financial Year 2026-27.-15_34_5</name>
		<styleUrl>#msn_ylw-pushpin</styleUrl>
		<Polygon>
			<tessellate>1</tessellate>
			<outerBoundaryIs>
				<LinearRing>
					<coordinates>
						91.34401180235223,23.79259652869717,0 91.34403580361709,23.79234080591332,0 91.34384210303243,23.79205092734267,0 91.3439426002967,23.79177346618308,0 91.34383116433943,23.79157813903845,0 91.34398961062074,23.79136483140422,0 91.34396302425623,23.79099853327167,0 91.34416649813693,23.79071209148428,0 91.3444302035555,23.79074394538669,0 91.34494824519825,23.79070603489273,0 91.34523200769227,23.79042038927255,0 91.3455437939933,23.79035270013096,0 91.34584263116942,23.79057588877712,0 91.34606324717601,23.79084342226789,0 91.34600821290974,23.79132513558623,0 91.34588381365688,23.79178324386348,0 91.34575324473208,23.79199051474374,0 91.34552562238967,23.79289411124711,0 91.34542908368716,23.79290021325337,0 91.34522613485547,23.79291310805713,0 91.34494528320589,23.79292644988867,0 91.34467762936703,23.79291070168813,0 91.34435349203373,23.7929396772466,0 91.3441120209168,23.79293288356499,0 91.34385826626166,23.79276158964086,0 91.34401180235223,23.79259652869717,0 
					</coordinates>
				</LinearRing>
			</outerBoundaryIs>
		</Polygon>
		<atom:link rel="app" href="https://www.google.com/earth/about/versions/#earth-pro" title="Google Earth Pro 7.3.7.1155"></atom:link>
	</Placemark>
</Document>
</kml>
