<?xml version="1.0" encoding="UTF-8"?>
<kml xmlns="http://www.opengis.net/kml/2.2" xmlns:gx="http://www.google.com/kml/ext/2.2" xmlns:kml="http://www.opengis.net/kml/2.2" xmlns:atom="http://www.w3.org/2005/Atom">
<Document>
	<name>1778147855883.kml</name>
	<StyleMap id="msn_ylw-pushpin">
		<Pair>
			<key>normal</key>
			<styleUrl>#sn_ylw-pushpin</styleUrl>
		</Pair>
		<Pair>
			<key>highlight</key>
			<styleUrl>#sh_ylw-pushpin</styleUrl>
		</Pair>
	</StyleMap>
	<Style id="sh_ylw-pushpin">
		<IconStyle>
			<scale>1.3</scale>
			<Icon>
				<href>http://maps.google.com/mapfiles/kml/pushpin/ylw-pushpin.png</href>
			</Icon>
			<hotSpot x="20" y="2" xunits="pixels" yunits="pixels"/>
		</IconStyle>
		<BalloonStyle>
		</BalloonStyle>
		<PolyStyle>
			<fill>0</fill>
		</PolyStyle>
	</Style>
	<Style id="sn_ylw-pushpin">
		<IconStyle>
			<scale>1.1</scale>
			<Icon>
				<href>http://maps.google.com/mapfiles/kml/pushpin/ylw-pushpin.png</href>
			</Icon>
			<hotSpot x="20" y="2" xunits="pixels" yunits="pixels"/>
		</IconStyle>
		<BalloonStyle>
		</BalloonStyle>
		<PolyStyle>
			<fill>0</fill>
		</PolyStyle>
	</Style>
	<Placemark>
		<name>1778147855883</name>
		<styleUrl>#msn_ylw-pushpin</styleUrl>
		<Polygon>
			<tessellate>1</tessellate>
			<outerBoundaryIs>
				<LinearRing>
					<coordinates>
						91.54236699802848,23.11322830755094,0 91.54226840597228,23.11326403591532,0 91.54217559934193,23.11335897031356,0 91.54201770529274,23.11330302242868,0 91.54180622615905,23.11338329362306,0 91.5417410072109,23.11352096343936,0 91.54181810859089,23.11369591500269,0 91.54171690859124,23.11377070967011,0 91.54170298444132,23.11381315177578,0 91.54158874105789,23.11390942300028,0 91.54138667355041,23.1141668442037,0 91.54118722397483,23.1141093136246,0 91.54108312634375,23.11392586884222,0 91.54105093600455,23.11374439370536,0 91.54147568398798,23.11243801792447,0 91.54167526039714,23.11252625968364,0 91.54169842373878,23.11245751943635,0 91.54167590087961,23.11234180829452,0 91.54168993755958,23.11223899907067,0 91.541664715281,23.1120510537577,0 91.54169641229777,23.1120249581015,0 91.5418085877013,23.11203281069573,0 91.54190794688043,23.11206401203192,0 91.54201792950715,23.11211837482503,0 91.54207698930017,23.11201265249307,0 91.54234337295561,23.11195256376455,0 91.54340912313413,23.11266572557107,0 91.54346817079497,23.11281656052686,0 91.54335337671353,23.11305861825407,0 91.54340767195427,23.11312010051197,0 91.54345003088811,23.11318513586907,0 91.54353874413231,23.11308496437043,0 91.54388648337398,23.11319258737263,0 91.54389385013938,23.11326143103346,0 91.54403208055342,23.11339148043112,0 91.54423456506282,23.1132357712434,0 91.54423962644645,23.11308644524143,0 91.54435627742241,23.11288862672283,0 91.54481362545297,23.11300597014251,0 91.54482096644902,23.11330283740357,0 91.54473525911276,23.11334152484188,0 91.54469582152863,23.11348575111444,0 91.54469029378185,23.11360667620524,0 91.54458370269039,23.11363826852617,0 91.54457844257333,23.11373553298771,0 91.54439429531077,23.11393066077135,0 91.54420326536918,23.11399414548535,0 91.5442044889965,23.11417679234133,0 91.54412558906307,23.11434592385412,0 91.54394713952397,23.11431489180954,0 91.54386869679422,23.11445723710539,0 91.54379024568924,23.11444019252073,0 91.54376716751051,23.11424622081672,0 91.54359076346438,23.11411612188273,0 91.54343459182743,23.11411550011195,0 91.54310550367424,23.11440614401879,0 91.5430238989248,23.11465729990779,0 91.54272676847091,23.11457276992709,0 91.54226564296606,23.11446940025299,0 91.54206002034181,23.1144881043423,0 91.5420463073561,23.11437106507501,0 91.54229189582338,23.11385570576394,0 91.54230160983626,23.11383822180953,0 91.54231561151663,23.11382478131336,0 91.54232529286428,23.11380733345928,0 91.542339591629,23.113789183364,0 91.54234936304829,23.11377138486504,0 91.54236846052085,23.11374446072561,0 91.54238279773786,23.11372230443008,0 91.54239205331903,23.11371336252766,0 91.54240625876146,23.11369518338878,0 91.54242091617162,23.11367177642441,0 91.54243113491448,23.11364854930059,0 91.54244105935891,23.11362990283664,0 91.54245563739437,23.11360651853304,0 91.54247001223852,23.11358734584969,0 91.54248958653702,23.11355416522602,0 91.54249970723602,23.11353091748129,0 91.54250518735846,23.11351240728197,0 91.54251490564607,23.11349768609129,0 91.54253491870332,23.11345883537623,0 91.54254487597453,23.11343948094419,0 91.54255041467866,23.11342063556333,0 91.54256054144616,23.11339700835765,0 91.54255762645168,23.11337449802699,0 91.54255533174646,23.11334287566059,0 91.54255271475024,23.1133196554001,0 91.54255441344091,23.11329621630722,0 91.54255972268675,23.1132818807944,0 91.54256106177638,23.11326328000517,0 91.54254922348431,23.113250355307,0 91.54252953561483,23.11322892794098,0 91.54250100183904,23.1132128302584,0 91.54236699802848,23.11322830755094,0 
					</coordinates>
				</LinearRing>
			</outerBoundaryIs>
		</Polygon>
		<atom:link rel="app" href="https://www.google.com/earth/about/versions/#earth-pro" title="Google Earth Pro 7.3.7.1155"></atom:link>
	</Placemark>
</Document>
</kml>
