<?xml version="1.0" encoding="UTF-8"?>
<kml xmlns="http://www.opengis.net/kml/2.2" xmlns:gx="http://www.google.com/kml/ext/2.2" xmlns:kml="http://www.opengis.net/kml/2.2" xmlns:atom="http://www.w3.org/2005/Atom">
<Document>
	<name>1778074455701.kml</name>
	<StyleMap id="msn_ylw-pushpin">
		<Pair>
			<key>normal</key>
			<styleUrl>#sn_ylw-pushpin</styleUrl>
		</Pair>
		<Pair>
			<key>highlight</key>
			<styleUrl>#sh_ylw-pushpin</styleUrl>
		</Pair>
	</StyleMap>
	<Style id="sh_ylw-pushpin">
		<IconStyle>
			<scale>1.3</scale>
			<Icon>
				<href>http://maps.google.com/mapfiles/kml/pushpin/ylw-pushpin.png</href>
			</Icon>
			<hotSpot x="20" y="2" xunits="pixels" yunits="pixels"/>
		</IconStyle>
		<BalloonStyle>
		</BalloonStyle>
		<PolyStyle>
			<fill>0</fill>
		</PolyStyle>
	</Style>
	<Style id="sn_ylw-pushpin">
		<IconStyle>
			<scale>1.1</scale>
			<Icon>
				<href>http://maps.google.com/mapfiles/kml/pushpin/ylw-pushpin.png</href>
			</Icon>
			<hotSpot x="20" y="2" xunits="pixels" yunits="pixels"/>
		</IconStyle>
		<BalloonStyle>
		</BalloonStyle>
		<PolyStyle>
			<fill>0</fill>
		</PolyStyle>
	</Style>
	<Placemark>
		<name>1778074455701</name>
		<styleUrl>#msn_ylw-pushpin</styleUrl>
		<Polygon>
			<tessellate>1</tessellate>
			<outerBoundaryIs>
				<LinearRing>
					<coordinates>
						91.6653939964782,23.63162799031908,0 91.66544711271305,23.63167793610488,0 91.66544179916613,23.6317597491687,0 91.66542746040415,23.63180767180218,0 91.66553158864234,23.63185033322039,0 91.66562367956946,23.63193331490395,0 91.66567760408867,23.63200979142461,0 91.66568445383724,23.6320214231291,0 91.66569484295313,23.63204467424194,0 91.66570530321179,23.63206808458561,0 91.66571924137162,23.6320917924946,0 91.66572986604676,23.63211568765501,0 91.66574042749176,23.63213203808399,0 91.66575447852185,23.63214861284058,0 91.66575456290451,23.63215262603664,0 91.66586065005994,23.63223384536339,0 91.66588931641998,23.63234571677309,0 91.66589584235325,23.63253222123526,0 91.66587529863857,23.63269370686237,0 91.66587211549793,23.6328371689141,0 91.66580498974801,23.63300886428335,0 91.66572698740143,23.63315391808286,0 91.66567794360562,23.63332102782255,0 91.66567847079239,23.63338465810353,0 91.66587212015781,23.63347326547752,0 91.66604865958485,23.633475795812,0 91.66612123055388,23.63348365404998,0 91.66614803166853,23.63352696347627,0 91.66616093745516,23.63353855632891,0 91.66617870424908,23.63356154624978,0 91.66620144562143,23.63359612362411,0 91.66621863864783,23.63360806291478,0 91.66624125412672,23.63363730864291,0 91.66625859257492,23.63364936948215,0 91.66629776600766,23.63367496317228,0 91.66632786600982,23.63368849125826,0 91.66634255746555,23.63371375424867,0 91.66635259094049,23.63373274742423,0 91.66638050790347,23.63376698642918,0 91.66654194485167,23.63390132998285,0 91.66666663824114,23.6340125859528,0 91.66670900397138,23.63402459772408,0 91.66692283981502,23.63402068656369,0 91.6672197624881,23.63413549605765,0 91.66712949727183,23.63439205774447,0 91.66697107448607,23.63450225126497,0 91.66694921974812,23.63474080621627,0 91.66690246567487,23.63497740296687,0 91.66693081582893,23.63516651763077,0 91.66700051339865,23.6352949189222,0 91.66699793204073,23.63536601034642,0 91.66690696314055,23.63553537167647,0 91.6668060731474,23.63571479718738,0 91.66679178826188,23.63590983952073,0 91.66676800730028,23.63602691486951,0 91.66664310950026,23.6361310387564,0 91.66642627750262,23.63620901603872,0 91.66617750374986,23.63622948503802,0 91.66600015368846,23.63611651707466,0 91.66583685070776,23.63607094694486,0 91.66568276609001,23.63598633345149,0 91.665574663185,23.63603596918324,0 91.66541989037243,23.63613300938987,0 91.66532169606167,23.636278926459,0 91.66517786776336,23.63625646384571,0 91.66514111919636,23.63624719788525,0 91.66508812857623,23.6362335775175,0 91.6650552807461,23.63622996137431,0 91.66503112795777,23.63622011303089,0 91.66499003329785,23.63621695304352,0 91.66497384832194,23.63621226466972,0 91.66494566579323,23.63620264566747,0 91.66492119501757,23.63619865289755,0 91.66490503213966,23.63619415939374,0 91.66489814219833,23.63617764444473,0 91.66488346701058,23.63615616525907,0 91.66487250587463,23.63614012146039,0 91.66486521964497,23.63612945742668,0 91.66484658057271,23.63610848111501,0 91.66482802628781,23.63608759954356,0 91.66481724341541,23.6360717950825,0 91.66481169250387,23.63604446696799,0 91.66481334035029,23.63602753135125,0 91.66480793065645,23.6360000090149,0 91.6648077113344,23.63596129421634,0 91.66480291230204,23.63592870426484,0 91.66479809535511,23.63589663196286,0 91.66479230419172,23.63587522440815,0 91.66478732171393,23.63584751759656,0 91.66478117105919,23.63583113458945,0 91.6647756513017,23.63580927543284,0 91.66476275106461,23.63578291371155,0 91.66475999371063,23.63577225659601,0 91.66474925900607,23.63576243123014,0 91.66474380179211,23.63574125441141,0 91.66472709263604,23.63571592797661,0 91.66471711028302,23.63570083292064,0 91.66469989631173,23.63568119252328,0 91.6646900034014,23.63566623349374,0 91.66467552963906,23.63565705868554,0 91.66466570903113,23.63564218618518,0 91.66464735839884,23.63563344152512,0 91.66463761567125,23.63561865191694,0 91.66462327401236,23.63560957572432,0 91.66460967422762,23.6355952451782,0 91.66459931551401,23.63558587427868,0 91.66457701250924,23.63557829238076,0 91.6645586977493,23.63557022740799,0 91.66454040957105,23.63556217364668,0 91.66453006838026,23.6355531541352,0 91.66451183215398,23.63554512665009,0 91.66449762374025,23.63553648972765,0 91.6644835091342,23.63552766470222,0 91.66446723192786,23.63550856704239,0 91.6644619847271,23.63549343493804,0 91.66445764652963,23.63547302611155,0 91.6644454760269,23.63545370545389,0 91.66444031058826,23.63543879348881,0 91.66443125007943,23.63542442236103,0 91.66441846403785,23.63541016232388,0 91.66439806457869,23.63539649312061,0 91.66438157776514,23.6353825522947,0 91.66436421624879,23.63537381205841,0 91.66434687238461,23.63536513079866,0 91.66432860572218,23.63536160708924,0 91.66431513051195,23.63535270835413,0 91.66430263427488,23.63533878117293,0 91.6642882664338,23.6353349682805,0 91.66427007757609,23.63533146394416,0 91.66425197728307,23.63532777514884,0 91.66423409177271,23.63532361377339,0 91.66420867917293,23.63531978831162,0 91.66419465270862,23.63531534542454,0 91.66418162678517,23.63530601074626,0 91.6641676410872,23.63530158110414,0 91.66415266794448,23.63530203967272,0 91.6641339454104,23.63530261272878,0 91.66412270855115,23.63530295695093,0 91.66410022759234,23.63530364502873,0 91.6640815385246,23.63530410869528,0 91.66405934746869,23.63530417172176,0 91.66404825145786,23.63530420309602,0 91.66402499884958,23.63530910529875,0 91.66400671842936,23.63530870829047,0 91.66399004068985,23.63531784898773,0 91.66397174537627,23.63531745065979,0 91.66395345488907,23.63531705236695,0 91.66393882550344,23.63531673374766,0 91.66384818584534,23.63513236599942,0 91.66386574548565,23.63483117685011,0 91.66385152679054,23.63468299693663,0 91.6639783303219,23.63446442722663,0 91.66401957332523,23.63428650514453,0 91.66397836818905,23.6340896044614,0 91.66396668986123,23.63393388341785,0 91.66390141687413,23.63386147650587,0 91.66409135064116,23.63350570466444,0 91.6643518255032,23.63317190833337,0 91.6645502506292,23.63302285307854,0 91.66484870986338,23.63262234856502,0 91.6648433910796,23.63248361429606,0 91.66479827316208,23.63236244959721,0 91.66490512160014,23.63224988679299,0 91.66492882229183,23.63209641735826,0 91.66487323177172,23.63199266745899,0 91.66483738689026,23.63186910846445,0 91.66482590499962,23.63173709228473,0 91.66485388995658,23.63167857318146,0 91.66487219717216,23.6316210009237,0 91.6652157573254,23.63156158013767,0 91.6653939964782,23.63162799031908,0 
					</coordinates>
				</LinearRing>
			</outerBoundaryIs>
		</Polygon>
		<atom:link rel="app" href="https://www.google.com/earth/about/versions/#earth-pro" title="Google Earth Pro 7.3.7.1155"></atom:link>
	</Placemark>
</Document>
</kml>
