<?xml version="1.0" encoding="UTF-8"?>
<kml xmlns="http://www.opengis.net/kml/2.2" xmlns:gx="http://www.google.com/kml/ext/2.2" xmlns:kml="http://www.opengis.net/kml/2.2" xmlns:atom="http://www.w3.org/2005/Atom">
<Document>
	<name>10 HA ANR ADAM UNNAYAN JFMC OF MADHYA CHAILENGTA .kml</name>
	<StyleMap id="m_ylw-pushpin">
		<Pair>
			<key>normal</key>
			<styleUrl>#s_ylw-pushpin</styleUrl>
		</Pair>
		<Pair>
			<key>highlight</key>
			<styleUrl>#s_ylw-pushpin_hl</styleUrl>
		</Pair>
	</StyleMap>
	<Style id="s_ylw-pushpin">
		<IconStyle>
			<scale>1.1</scale>
			<Icon>
				<href>http://maps.google.com/mapfiles/kml/pushpin/ylw-pushpin.png</href>
			</Icon>
			<hotSpot x="20" y="2" xunits="pixels" yunits="pixels"/>
		</IconStyle>
		<LineStyle>
			<color>ffffaa00</color>
			<width>5</width>
		</LineStyle>
		<PolyStyle>
			<fill>0</fill>
		</PolyStyle>
	</Style>
	<Style id="s_ylw-pushpin_hl">
		<IconStyle>
			<scale>1.3</scale>
			<Icon>
				<href>http://maps.google.com/mapfiles/kml/pushpin/ylw-pushpin.png</href>
			</Icon>
			<hotSpot x="20" y="2" xunits="pixels" yunits="pixels"/>
		</IconStyle>
		<LineStyle>
			<color>ffffaa00</color>
			<width>5</width>
		</LineStyle>
		<PolyStyle>
			<fill>0</fill>
		</PolyStyle>
	</Style>
	<Placemark>
		<name>10 HA ANR ADAM UNNAYAN JFMC OF MADHYA CHAILENGTA </name>
		<styleUrl>#m_ylw-pushpin</styleUrl>
		<Polygon>
			<tessellate>1</tessellate>
			<outerBoundaryIs>
				<LinearRing>
					<coordinates>
						91.96617528222698,23.92322491682987,0 91.96631539400245,23.92313550912792,0 91.96651890892855,23.92307607739365,0 91.96667878021269,23.92308749902429,0 91.96691377725644,23.92314029847652,0 91.9670209900828,23.92316156432701,0 91.96723588254692,23.92313493699839,0 91.96744046119053,23.92308841309409,0 91.96763555235628,23.92314110216425,0 91.96772285937654,23.92318264322348,0 91.96789992598283,23.92325013258789,0 91.96798753279995,23.92316377096125,0 91.96822966868649,23.92305109046534,0 91.96838302173387,23.92305230928148,0 91.96865536858775,23.92305237738031,0 91.96896108299889,23.92301378190149,0 91.96920171835812,23.92294576925768,0 91.9694866862686,23.92284855080642,0 91.96973666977952,23.92279498538502,0 91.97003163295709,23.92272087328584,0 91.97026322797345,23.92269157869874,0 91.97032885287345,23.92274093075994,0 91.97068801033818,23.92282316541275,0 91.97076171688457,23.92292557086105,0 91.97073738251173,23.92306875026417,0 91.97072968409654,23.92315005548463,0 91.97080837733415,23.92335596068943,0 91.97082558864197,23.92345935996075,0 91.97083421389483,23.9235946529911,0 91.97079787136569,23.92370017696447,0 91.97078912339842,23.92385004884756,0 91.97078752831547,23.92394755356869,0 91.97080730777559,23.9241239960867,0 91.97078336135969,23.92428434910084,0 91.97072041677691,23.92443131481259,0 91.97066450856053,23.92459544469994,0 91.9706418752083,23.92465678173745,0 91.97059759675284,23.92481108115548,0 91.97054266946908,23.92494576526485,0 91.9704055522686,23.92516969611221,0 91.97032928833023,23.92535751939021,0 91.97021841015692,23.92546331993652,0 91.97010616921565,23.92549598377152,0 91.96987779050288,23.92549471967077,0 91.96967059511398,23.92549083124352,0 91.96942375809999,23.9253850023557,0 91.96930691475008,23.92535832663922,0 91.96916573410091,23.92529737244924,0 91.96909615951323,23.9252633354597,0 91.96882086366011,23.92516178443937,0 91.96868450120506,23.92515835276539,0 91.96854788259984,23.9251234034013,0 91.96845673160084,23.92508941559871,0 91.96826326023935,23.92502012420354,0 91.96813907468707,23.92497590963264,0 91.96790294229271,23.92491901010628,0 91.9677122902757,23.9249130229667,0 91.96753315493095,23.92487562330239,0 91.96737714036119,23.9248703380769,0 91.96726568312364,23.9248230033132,0 91.96714375025552,23.92474799660642,0 91.96700012354503,23.92465161187711,0 91.96684625957802,23.92453151548392,0 91.96680300124895,23.92436139600103,0 91.96661779257954,23.92422669547139,0 91.96644470257989,23.92410038737758,0 91.96636967232021,23.92403634680977,0 91.96630690024779,23.92389984059582,0 91.96619044798156,23.92377464249747,0 91.96609624133679,23.92362128513964,0 91.96606618871796,23.92341280215762,0 91.96617528222698,23.92322491682987,0 
					</coordinates>
				</LinearRing>
			</outerBoundaryIs>
		</Polygon>
		<atom:link rel="app" href="https://www.google.com/earth/about/versions/#earth-pro" title="Google Earth Pro 7.3.7.1155"></atom:link>
	</Placemark>
</Document>
</kml>
