<?xml version="1.0" encoding="UTF-8"?>
<kml xmlns="http://www.opengis.net/kml/2.2" xmlns:gx="http://www.google.com/kml/ext/2.2" xmlns:kml="http://www.opengis.net/kml/2.2" xmlns:atom="http://www.w3.org/2005/Atom">
<Document>
	<name>1778166784465.kml</name>
	<StyleMap id="msn_ylw-pushpin">
		<Pair>
			<key>normal</key>
			<styleUrl>#sn_ylw-pushpin</styleUrl>
		</Pair>
		<Pair>
			<key>highlight</key>
			<styleUrl>#sh_ylw-pushpin</styleUrl>
		</Pair>
	</StyleMap>
	<Style id="sh_ylw-pushpin">
		<IconStyle>
			<scale>1.3</scale>
			<Icon>
				<href>http://maps.google.com/mapfiles/kml/pushpin/ylw-pushpin.png</href>
			</Icon>
			<hotSpot x="20" y="2" xunits="pixels" yunits="pixels"/>
		</IconStyle>
		<BalloonStyle>
		</BalloonStyle>
		<LineStyle>
			<width>2.5</width>
		</LineStyle>
		<PolyStyle>
			<fill>0</fill>
		</PolyStyle>
	</Style>
	<Style id="sn_ylw-pushpin">
		<IconStyle>
			<scale>1.1</scale>
			<Icon>
				<href>http://maps.google.com/mapfiles/kml/pushpin/ylw-pushpin.png</href>
			</Icon>
			<hotSpot x="20" y="2" xunits="pixels" yunits="pixels"/>
		</IconStyle>
		<BalloonStyle>
		</BalloonStyle>
		<LineStyle>
			<width>2.5</width>
		</LineStyle>
		<PolyStyle>
			<fill>0</fill>
		</PolyStyle>
	</Style>
	<Placemark>
		<name>1778166784465</name>
		<styleUrl>#msn_ylw-pushpin</styleUrl>
		<Polygon>
			<tessellate>1</tessellate>
			<outerBoundaryIs>
				<LinearRing>
					<coordinates>
						92.09332732256398,24.04793481384929,0 92.09333707605407,24.04777641778666,0 92.09366856351564,24.04740549929441,0 92.09396091483379,24.04718038617969,0 92.09398524177948,24.04715073243165,0 92.09400673187699,24.04713242804954,0 92.09401737898222,24.04712335922584,0 92.09402567508155,24.04712506101863,0 92.09404027500554,24.04711604741895,0 92.09404741111325,24.04712023664567,0 92.09405627593556,24.04711967139596,0 92.09406683286792,24.04711435127808,0 92.09407761567954,24.04712064010535,0 92.09408649854046,24.04712007416655,0 92.09409720882012,24.04712052579178,0 92.09410847657193,24.04712081241994,0 92.09411950621538,24.04711537206211,0 92.09413300990438,24.04711571478706,0 92.09414398150673,24.04711029169871,0 92.09415521953443,24.0471105761198,0 92.09416421196568,24.04711080410986,0 92.0941777033909,24.04711114612383,0 92.09418480660743,24.04711702983276,0 92.09420360834335,24.04710016478628,0 92.09420935086833,24.0470884432435,0 92.0942212106433,24.04707827706752,0 92.09422976503122,24.04707169396714,0 92.0942497138156,24.04706357094062,0 92.09426254016182,24.04704955783351,0 92.09428712569775,24.04702592857773,0 92.09430638118735,24.0469984001868,0 92.0943276694457,24.0469729274503,0 92.09434034605974,24.04695357434671,0 92.09436095158424,24.04693587697914,0 92.09438608706549,24.04691504637098,0 92.09443463096375,24.04689151527022,0 92.0946020098246,24.04663311594783,0 92.09477630419741,24.04645982644285,0 92.09495806034583,24.04642893373121,0 92.09518490902431,24.04637498648401,0 92.0952751663789,24.04636692720179,0 92.09541072687205,24.04643391697824,0 92.09555323735678,24.04634036147419,0 92.09542000891634,24.04628951475181,0 92.09539075944789,24.04619705753296,0 92.09540857945927,24.04609392957127,0 92.0954448054375,24.0460665912688,0 92.09547372162766,24.04600400148073,0 92.09550883135546,24.04590090020989,0 92.09568655191185,24.04579220298096,0 92.09581638793803,24.04571717742802,0 92.09594661887206,24.04569553865279,0 92.09607073795723,24.04566518825166,0 92.09616520364148,24.04563781318268,0 92.09625332357095,24.04565248392726,0 92.09635363409751,24.04554855765957,0 92.09646889207802,24.04547103095228,0 92.09655345215185,24.04544284554231,0 92.09665779953067,24.04542263911767,0 92.09682678377894,24.04537904640258,0 92.09694177016695,24.04537621484489,0 92.09702091276311,24.0453519329238,0 92.09711105170526,24.04536822196382,0 92.09726512102509,24.04539855099296,0 92.09739395999078,24.04536148149651,0 92.09745835964966,24.04536386066088,0 92.09767472443207,24.04534073271036,0 92.09767539981902,24.0453417730841,0 92.09768024395756,24.04534142830121,0 92.09768354313761,24.04534337385846,0 92.09768879103859,24.04534518548553,0 92.09769113788307,24.04534721009829,0 92.09769446314147,24.04534917027679,0 92.09770044055483,24.04535204961096,0 92.09770414530669,24.04535268249148,0 92.09771011880311,24.04535610570689,0 92.09771408401586,24.0453598900535,0 92.09771983035115,24.04536451399257,0 92.0977261444787,24.04536680729124,0 92.09773602071732,24.04537075897472,0 92.09774135465985,24.04537324436183,0 92.09785086663466,24.04536506514566,0 92.09788842357773,24.04536232935249,0 92.0980268823856,24.04535189923399,0 92.09809231873689,24.04539327961241,0 92.09812403890002,24.04538001951724,0 92.09821849097347,24.04540265995518,0 92.09830511567816,24.04544632925321,0 92.09844311818894,24.04556688009462,0 92.09846857088225,24.04559004756717,0 92.09847963461034,24.0456667993718,0 92.09850909898448,24.0456784398876,0 92.0985227175958,24.04567123275415,0 92.09857239164479,24.04570412580451,0 92.09862003203236,24.04576828629213,0 92.0986432298031,24.04576526212686,0 92.09867195144297,24.04578566794959,0 92.09870545620417,24.04584368039728,0 92.09880797893751,24.04591565200369,0 92.09885755755856,24.04598594639357,0 92.09887137537481,24.0460499457975,0 92.09888521228555,24.04607972515428,0 92.09888189801924,24.04613406698591,0 92.09888113384901,24.04623007497717,0 92.09890178123784,24.04640369282701,0 92.09895231220852,24.0464864086156,0 92.09904107034001,24.0465588023651,0 92.09916836797501,24.04661880796885,0 92.09921489628729,24.04672436574797,0 92.09930685313819,24.04677297619231,0 92.09922467363785,24.04690364894921,0 92.09911476767368,24.04695367938063,0 92.09896983508487,24.04702588755178,0 92.09891246102737,24.04707285277428,0 92.09886548368192,24.04714422575802,0 92.09882810854948,24.04720062935652,0 92.09885817018132,24.04722195766396,0 92.09887358682136,24.04731619262991,0 92.09883565229428,24.04732878872836,0 92.09885502791398,24.04737413759441,0 92.09882250840786,24.04743231933772,0 92.09884819525763,24.04748688267958,0 92.09883390033782,24.04753557744408,0 92.09881640867937,24.04758286868643,0 92.09881977555123,24.04765809975369,0 92.09881601190052,24.04769070702619,0 92.09879574682563,24.04771399400218,0 92.09877560194978,24.04771670272958,0 92.0987443527237,24.04772227559228,0 92.09870780605196,24.04774453151795,0 92.09870617820866,24.04781546881991,0 92.09868659518199,24.04786525620118,0 92.09869510682474,24.04790357088795,0 92.09871533247596,24.04793465713336,0 92.09872684370465,24.04797879227965,0 92.09870892083859,24.04806107111125,0 92.09848597724476,24.04818151221379,0 92.0984088224576,24.04817035345039,0 92.09836595089031,24.04819277518285,0 92.09809261197776,24.04806688787499,0 92.09805662702274,24.04801126724832,0 92.09806170123956,24.047930283037,0 92.0980469989391,24.04787474405389,0 92.0980009164243,24.04783913647897,0 92.09795716088834,24.04786818122244,0 92.09780393256875,24.04786027429795,0 92.09779265696437,24.04791180016035,0 92.09772950513573,24.0478801463272,0 92.09756177707649,24.04796217384348,0 92.09747336023516,24.04797370707881,0 92.09715678463495,24.04793894246799,0 92.09709754441941,24.0480061916106,0 92.0968242419486,24.04807280955688,0 92.09671062970574,24.04805619774377,0 92.09632899011005,24.04812699932175,0 92.0961282792187,24.04816320221382,0 92.09592036739348,24.04826692462997,0 92.0957899764711,24.04829464902679,0 92.09522208053322,24.04832454010621,0 92.09514127357265,24.04845736995621,0 92.09465157508137,24.04851688482781,0 92.09453682120166,24.04850702797414,0 92.09422588928246,24.04851327036042,0 92.09398393289464,24.04853730912802,0 92.09385190096837,24.04859880508559,0 92.09380072559391,24.0485431953649,0 92.09371605750414,24.04847114141446,0 92.09372683927545,24.04833865325993,0 92.09375812708323,24.04826051456171,0 92.09362006533188,24.04803494820568,0 92.09359461458129,24.04801917567661,0 92.09332732256398,24.04793481384929,0 
					</coordinates>
				</LinearRing>
			</outerBoundaryIs>
		</Polygon>
		<atom:link rel="app" href="https://www.google.com/earth/about/versions/#earth-pro" title="Google Earth Pro 7.3.7.1155"></atom:link>
	</Placemark>
</Document>
</kml>
