<?xml version="1.0" encoding="UTF-8"?>
<kml xmlns="http://www.opengis.net/kml/2.2" xmlns:gx="http://www.google.com/kml/ext/2.2" xmlns:kml="http://www.opengis.net/kml/2.2" xmlns:atom="http://www.w3.org/2005/Atom">
<Document>
	<name>3 HA ANR THOUCHA JFMC.kml</name>
	<StyleMap id="m_ylw-pushpin">
		<Pair>
			<key>normal</key>
			<styleUrl>#s_ylw-pushpin</styleUrl>
		</Pair>
		<Pair>
			<key>highlight</key>
			<styleUrl>#s_ylw-pushpin_hl</styleUrl>
		</Pair>
	</StyleMap>
	<Style id="s_ylw-pushpin">
		<IconStyle>
			<scale>1.1</scale>
			<Icon>
				<href>http://maps.google.com/mapfiles/kml/pushpin/ylw-pushpin.png</href>
			</Icon>
			<hotSpot x="20" y="2" xunits="pixels" yunits="pixels"/>
		</IconStyle>
		<LineStyle>
			<color>ffffaa00</color>
			<width>5</width>
		</LineStyle>
		<PolyStyle>
			<fill>0</fill>
		</PolyStyle>
	</Style>
	<Style id="s_ylw-pushpin_hl">
		<IconStyle>
			<scale>1.3</scale>
			<Icon>
				<href>http://maps.google.com/mapfiles/kml/pushpin/ylw-pushpin.png</href>
			</Icon>
			<hotSpot x="20" y="2" xunits="pixels" yunits="pixels"/>
		</IconStyle>
		<LineStyle>
			<color>ffffaa00</color>
			<width>5</width>
		</LineStyle>
		<PolyStyle>
			<fill>0</fill>
		</PolyStyle>
	</Style>
	<Placemark>
		<name>3 HA ANR THOUCHA JFMC</name>
		<styleUrl>#m_ylw-pushpin</styleUrl>
		<Polygon>
			<tessellate>1</tessellate>
			<outerBoundaryIs>
				<LinearRing>
					<coordinates>
						92.11446758367669,23.91645317163179,0 92.11444882386425,23.9164213919159,0 92.11441274724049,23.91640320305605,0 92.11438166945614,23.91637894113948,0 92.11434758461064,23.91634741737004,0 92.11433338488787,23.91633903640652,0 92.11431921060989,23.91633067039495,0 92.11424723627272,23.9162745150862,0 92.1142114971893,23.91614218204926,0 92.11417030266847,23.91602691631489,0 92.11412641982,23.91592862408858,0 92.11414111805838,23.91583336957275,0 92.11415661618116,23.91580192757512,0 92.11416562099933,23.91569019739267,0 92.11416246006367,23.91568694168358,0 92.11411058993107,23.91564577358805,0 92.1140600923667,23.91559778336142,0 92.11400385330674,23.91554373273119,0 92.11390658223085,23.91546507832443,0 92.11389938346323,23.91546561250908,0 92.11388484383814,23.91534584355438,0 92.11385145534156,23.91524505841178,0 92.11392874028085,23.91515504697075,0 92.11394236563662,23.91513535323811,0 92.11398701662449,23.91508723953802,0 92.11409301847894,23.91504182612184,0 92.11413354204105,23.91503225890821,0 92.11417227999797,23.9150107381038,0 92.11418533489021,23.9150105515111,0 92.11422099303672,23.91501037540288,0 92.1142922513977,23.91501007820452,0 92.114311681087,23.91500999715447,0 92.11442085591541,23.91502334452588,0 92.11447116577925,23.91504314407241,0 92.1145246530639,23.91506592830991,0 92.11456325946398,23.91507396335387,0 92.11457613521355,23.91507664289787,0 92.11458597212859,23.91507641093255,0 92.11459861779312,23.91508208154495,0 92.1146458965961,23.91510768274552,0 92.11468457993124,23.91511843239938,0 92.11469095797062,23.91512124216952,0 92.11470354819116,23.91512980409463,0 92.11475168057224,23.91515166776507,0 92.11488096782472,23.91520055451922,0 92.11492687884761,23.91527160961277,0 92.11499837182718,23.91523166594355,0 92.11508440689099,23.91521978351516,0 92.1151548898618,23.91528125516286,0 92.11524985591024,23.91531163209914,0 92.11531220258341,23.91533307408738,0 92.11532205801325,23.91533961610313,0 92.11536163929023,23.91536896953363,0 92.11541134311491,23.91538263917034,0 92.11544145400858,23.91540435210282,0 92.11555581857991,23.91545613542255,0 92.11559946465147,23.91553469383545,0 92.11561845080428,23.91557962096226,0 92.11565213765239,23.91563782937513,0 92.11566322151054,23.91565099360724,0 92.11568984058212,23.91569365256254,0 92.11571624443131,23.91572511725032,0 92.11576040691034,23.91574543224215,0 92.11578991629364,23.91575540054891,0 92.1158736612521,23.91585719991596,0 92.11592169631874,23.91591157948876,0 92.11593545291164,23.91595173391927,0 92.11593568709463,23.91595552896745,0 92.11594645415599,23.9160067956351,0 92.11596921572858,23.91606215062648,0 92.11599224838844,23.91611524537748,0 92.11601068155048,23.91615559380343,0 92.11604800478878,23.91623415207948,0 92.1160047481615,23.91639627997878,0 92.11600065498925,23.91649590916173,0 92.11598919034674,23.91655733725254,0 92.11600220704574,23.91661582189254,0 92.11600855009331,23.916692602245,0 92.11600105461319,23.91675179319309,0 92.11600314281924,23.91687271956389,0 92.11592213546497,23.91692081549011,0 92.11587123356811,23.91691280753119,0 92.11575502358369,23.91691029868336,0 92.11572189511304,23.91690455918311,0 92.11558285477659,23.91687301528121,0 92.11545523961,23.91685184704926,0 92.1153364771441,23.91689047315264,0 92.11523230517604,23.91692409272674,0 92.11512658101134,23.91695354787491,0 92.11504076236807,23.91695755098118,0 92.11497174977035,23.91694412347463,0 92.11490803981656,23.91690774695621,0 92.11482432171515,23.91681254150766,0 92.11477254963141,23.9167452151356,0 92.11472158737452,23.91668152268593,0 92.11462436616958,23.91661598864282,0 92.11454906292263,23.91654702780118,0 92.11446758367669,23.91645317163179,0 
					</coordinates>
				</LinearRing>
			</outerBoundaryIs>
		</Polygon>
		<atom:link rel="app" href="https://www.google.com/earth/about/versions/#earth-pro" title="Google Earth Pro 7.3.7.1155"></atom:link>
	</Placemark>
</Document>
</kml>
