<?xml version="1.0" encoding="UTF-8"?>
<kml xmlns="http://www.opengis.net/kml/2.2" xmlns:gx="http://www.google.com/kml/ext/2.2" xmlns:kml="http://www.opengis.net/kml/2.2" xmlns:atom="http://www.w3.org/2005/Atom">
<Document>
	<name>2 HA AR BAMBOO GARIA JFMC OF EAST GOBINDABARI VC.kml</name>
	<StyleMap id="m_ylw-pushpin">
		<Pair>
			<key>normal</key>
			<styleUrl>#s_ylw-pushpin</styleUrl>
		</Pair>
		<Pair>
			<key>highlight</key>
			<styleUrl>#s_ylw-pushpin_hl</styleUrl>
		</Pair>
	</StyleMap>
	<Style id="s_ylw-pushpin">
		<IconStyle>
			<scale>1.1</scale>
			<Icon>
				<href>http://maps.google.com/mapfiles/kml/pushpin/ylw-pushpin.png</href>
			</Icon>
			<hotSpot x="20" y="2" xunits="pixels" yunits="pixels"/>
		</IconStyle>
		<LineStyle>
			<color>ffffaa00</color>
			<width>5</width>
		</LineStyle>
		<PolyStyle>
			<fill>0</fill>
		</PolyStyle>
	</Style>
	<Style id="s_ylw-pushpin_hl">
		<IconStyle>
			<scale>1.3</scale>
			<Icon>
				<href>http://maps.google.com/mapfiles/kml/pushpin/ylw-pushpin.png</href>
			</Icon>
			<hotSpot x="20" y="2" xunits="pixels" yunits="pixels"/>
		</IconStyle>
		<LineStyle>
			<color>ffffaa00</color>
			<width>5</width>
		</LineStyle>
		<PolyStyle>
			<fill>0</fill>
		</PolyStyle>
	</Style>
	<Placemark>
		<name>2 HA AR BAMBOO GARIA JFMC OF EAST GOBINDABARI VC</name>
		<visibility>0</visibility>
		<styleUrl>#m_ylw-pushpin</styleUrl>
		<Polygon>
			<tessellate>1</tessellate>
			<outerBoundaryIs>
				<LinearRing>
					<coordinates>
						92.06225625828192,23.72705844547991,0 92.06220151448865,23.72712860551612,0 92.0620046389862,23.72707764449837,0 92.06188259578597,23.72705799056651,0 92.06161211749149,23.72704216634773,0 92.06136355835834,23.72704288555214,0 92.0612431465791,23.72702755411012,0 92.06112239060988,23.72702563144069,0 92.06090996200054,23.72709174451661,0 92.06082253767644,23.72708459023443,0 92.06075153969263,23.72704858080276,0 92.06063534693936,23.72695195758427,0 92.06054108714912,23.72686182316843,0 92.06045892865522,23.7267815030637,0 92.0603669098363,23.7266810954503,0 92.06026379642761,23.72655152732593,0 92.06012982182224,23.72636782035513,0 92.06027578059334,23.72633066544438,0 92.060372459936,23.72626653006484,0 92.06035581627435,23.72617996855138,0 92.06036740423494,23.72604421225867,0 92.06037000018476,23.72598840653281,0 92.0603616057321,23.72588943656921,0 92.06037734277206,23.72583389793371,0 92.06038261937844,23.72568169444863,0 92.06037891349641,23.72560277542089,0 92.06038042991123,23.72556035181532,0 92.06038404144424,23.72546349863632,0 92.06038773776268,23.7253668855635,0 92.06038029915383,23.72521076387337,0 92.06047232772835,23.72515114504711,0 92.06053051562078,23.72513346515025,0 92.06060783807978,23.72511589975923,0 92.06068344716489,23.72509918554122,0 92.06078432665305,23.72508282310692,0 92.06090776826694,23.72509795236434,0 92.0609512178269,23.72509909358696,0 92.06105667114161,23.72510215894738,0 92.06115666691292,23.72509899529209,0 92.06126347509645,23.72510199250729,0 92.06135999007495,23.72506746233362,0 92.06137031183422,23.72521340712355,0 92.06138880217956,23.72526847540554,0 92.06141337331258,23.72536623016326,0 92.06145121644188,23.72545220923732,0 92.06146918898737,23.72553856213465,0 92.06140941623443,23.72561718451636,0 92.06134472635581,23.72563365010306,0 92.0613420479155,23.72574520395385,0 92.0613334553428,23.72583209866084,0 92.06133251006288,23.72591790689693,0 92.06134468058119,23.72598589664819,0 92.06134370503027,23.72607198170752,0 92.0613428481844,23.72615194940308,0 92.06140691203602,23.72621030514876,0 92.06145816453814,23.72627444128934,0 92.06153528658061,23.72635894593817,0 92.06151917625846,23.72649833836856,0 92.06156990450015,23.72657158033044,0 92.0617194499405,23.72671894016724,0 92.06176576258569,23.72675840735405,0 92.06185889552989,23.7268244877309,0 92.06195968529251,23.7268579187382,0 92.06203240237942,23.72701339508402,0 92.06225625828192,23.72705844547991,0 
					</coordinates>
				</LinearRing>
			</outerBoundaryIs>
		</Polygon>
		<atom:link rel="app" href="https://www.google.com/earth/about/versions/#earth-pro" title="Google Earth Pro 7.3.7.1155"></atom:link>
	</Placemark>
</Document>
</kml>
