<?xml version="1.0" encoding="UTF-8"?>
<kml xmlns="http://www.opengis.net/kml/2.2" xmlns:gx="http://www.google.com/kml/ext/2.2" xmlns:kml="http://www.opengis.net/kml/2.2" xmlns:atom="http://www.w3.org/2005/Atom">
<Document>
	<name>1778072838213.kml</name>
	<StyleMap id="msn_ylw-pushpin">
		<Pair>
			<key>normal</key>
			<styleUrl>#sn_ylw-pushpin</styleUrl>
		</Pair>
		<Pair>
			<key>highlight</key>
			<styleUrl>#sh_ylw-pushpin</styleUrl>
		</Pair>
	</StyleMap>
	<Style id="sh_ylw-pushpin">
		<IconStyle>
			<scale>1.3</scale>
			<Icon>
				<href>http://maps.google.com/mapfiles/kml/pushpin/ylw-pushpin.png</href>
			</Icon>
			<hotSpot x="20" y="2" xunits="pixels" yunits="pixels"/>
		</IconStyle>
		<BalloonStyle>
		</BalloonStyle>
		<PolyStyle>
			<fill>0</fill>
		</PolyStyle>
	</Style>
	<Style id="sn_ylw-pushpin">
		<IconStyle>
			<scale>1.1</scale>
			<Icon>
				<href>http://maps.google.com/mapfiles/kml/pushpin/ylw-pushpin.png</href>
			</Icon>
			<hotSpot x="20" y="2" xunits="pixels" yunits="pixels"/>
		</IconStyle>
		<BalloonStyle>
		</BalloonStyle>
		<PolyStyle>
			<fill>0</fill>
		</PolyStyle>
	</Style>
	<Placemark>
		<name>1778072838213</name>
		<styleUrl>#msn_ylw-pushpin</styleUrl>
		<Polygon>
			<tessellate>1</tessellate>
			<outerBoundaryIs>
				<LinearRing>
					<coordinates>
						91.57745668788496,23.00031822232217,0 91.57783631714608,23.00033644389067,0 91.57801565178549,23.00054457791681,0 91.5781547280679,23.00059229588604,0 91.57834518841132,23.0005726083054,0 91.5786071571716,23.00060041828704,0 91.57902850755266,23.00066267878033,0 91.57921814832656,23.00072428398735,0 91.57929864986951,23.00094316191331,0 91.57920412073474,23.00109480229546,0 91.57920449607815,23.00120752825915,0 91.57923857154056,23.00127665810817,0 91.57919658035914,23.00136078027268,0 91.57902522375687,23.00154554100817,0 91.578821836446,23.00146060139729,0 91.57865749324203,23.00147968578338,0 91.57848555153289,23.00123565484737,0 91.5782667561966,23.00133337542354,0 91.57808788339779,23.00117906786137,0 91.57792284466615,23.00119477401893,0 91.57784010236222,23.00118955556196,0 91.57786333422365,23.00104592504482,0 91.57785648914842,23.00104631403338,0 91.57783917139584,23.00105077091051,0 91.5778185744847,23.00105194425606,0 91.57779429256649,23.0010568097272,0 91.57775589871316,23.00106598668843,0 91.57773860707,23.00106695292661,0 91.57771124501099,23.00106763173036,0 91.57769075852504,23.00106801655917,0 91.57768415786103,23.00106469157857,0 91.57760817868559,23.00107648100761,0 91.5774990384587,23.0011751970673,0 91.57749449222695,23.00119209895261,0 91.57749015810269,23.00120565642504,0 91.57748212600194,23.00122268602861,0 91.57748079287857,23.00124306068042,0 91.57748362120495,23.00125317952886,0 91.57748287375551,23.0012665402507,0 91.57738775784522,23.00128482705269,0 91.57720595952537,23.00120327935788,0 91.57704081301918,23.00116459941689,0 91.57706623029047,23.00083397507705,0 91.57736470203714,23.00049287833275,0 91.57745668788496,23.00031822232217,0 
					</coordinates>
				</LinearRing>
			</outerBoundaryIs>
		</Polygon>
		<atom:link rel="app" href="https://www.google.com/earth/about/versions/#earth-pro" title="Google Earth Pro 7.3.7.1155"></atom:link>
	</Placemark>
</Document>
</kml>
