<?xml version="1.0" encoding="UTF-8"?>
<kml xmlns="http://www.opengis.net/kml/2.2" xmlns:gx="http://www.google.com/kml/ext/2.2" xmlns:kml="http://www.opengis.net/kml/2.2" xmlns:atom="http://www.w3.org/2005/Atom">
<Document>
	<name>1778064309017.kml</name>
	<StyleMap id="msn_ylw-pushpin">
		<Pair>
			<key>normal</key>
			<styleUrl>#sn_ylw-pushpin</styleUrl>
		</Pair>
		<Pair>
			<key>highlight</key>
			<styleUrl>#sh_ylw-pushpin</styleUrl>
		</Pair>
	</StyleMap>
	<Style id="sh_ylw-pushpin">
		<IconStyle>
			<scale>1.3</scale>
			<Icon>
				<href>http://maps.google.com/mapfiles/kml/pushpin/ylw-pushpin.png</href>
			</Icon>
			<hotSpot x="20" y="2" xunits="pixels" yunits="pixels"/>
		</IconStyle>
		<BalloonStyle>
		</BalloonStyle>
		<PolyStyle>
			<fill>0</fill>
		</PolyStyle>
	</Style>
	<Style id="sn_ylw-pushpin">
		<IconStyle>
			<scale>1.1</scale>
			<Icon>
				<href>http://maps.google.com/mapfiles/kml/pushpin/ylw-pushpin.png</href>
			</Icon>
			<hotSpot x="20" y="2" xunits="pixels" yunits="pixels"/>
		</IconStyle>
		<BalloonStyle>
		</BalloonStyle>
		<PolyStyle>
			<fill>0</fill>
		</PolyStyle>
	</Style>
	<Placemark>
		<name>1778064309017</name>
		<styleUrl>#msn_ylw-pushpin</styleUrl>
		<Polygon>
			<tessellate>1</tessellate>
			<outerBoundaryIs>
				<LinearRing>
					<coordinates>
						91.68344182937189,23.69532314401481,0 91.6831951496338,23.69493345217094,0 91.68303179596778,23.69450906493464,0 91.68273408210581,23.6938423063852,0 91.6827712041391,23.6935354744282,0 91.68287160445844,23.69349020862976,0 91.68293435918532,23.69339152064314,0 91.68312936724183,23.69336364444554,0 91.68334435620902,23.69334780988906,0 91.6835695537699,23.69327558374096,0 91.68374810868947,23.69339503811437,0 91.68392564873534,23.69341241368228,0 91.68405451758316,23.69340750068556,0 91.68422117047945,23.69333437690932,0 91.68442554661914,23.69330037091724,0 91.6846309204833,23.69330218606189,0 91.68479989385419,23.69332310922224,0 91.68499233242991,23.69335709324289,0 91.68514293814853,23.69341489127545,0 91.68528473570311,23.69318063835828,0 91.68534774518433,23.69314075852399,0 91.68583256734827,23.69301240293048,0 91.68589149938649,23.69307357921546,0 91.6860550862885,23.69308756024508,0 91.68624707103612,23.69311939369277,0 91.68646514660401,23.69314664832619,0 91.68666769347963,23.69323319273532,0 91.68678350870657,23.69331906770395,0 91.68688289519093,23.6934657811428,0 91.68690882366298,23.6936768615999,0 91.68706125553743,23.69375548671815,0 91.68726580504864,23.69379105454883,0 91.68746272801704,23.69371659245023,0 91.68763865151442,23.69369692628226,0 91.68792621058573,23.69369685103377,0 91.68796377560606,23.69381868309701,0 91.68796435657889,23.694040660554,0 91.687768935609,23.69414134117986,0 91.68757336226096,23.6942497808371,0 91.68730625572289,23.69436192989721,0 91.68672083048324,23.6950171041147,0 91.68665372277972,23.69515744047067,0 91.68642875024037,23.69525181716093,0 91.68627825015788,23.6952142512417,0 91.68612115200364,23.69518653161165,0 91.68602933234597,23.69516487211256,0 91.68575560574278,23.69520747209625,0 91.68556084006048,23.69529364411738,0 91.68531075134102,23.6952943010902,0 91.68509291348612,23.69536978915422,0 91.68506972816677,23.69538443316079,0 91.68502745862914,23.69541978990335,0 91.68496211832996,23.6954557309033,0 91.68492390979091,23.69549188859407,0 91.68487208990197,23.69551259233144,0 91.68465519994194,23.6957475099307,0 91.68443663064153,23.69586180131455,0 91.68405511365684,23.69579309431434,0 91.68390519328264,23.69570383406174,0 91.6837993874296,23.69552195932147,0 91.68344182937189,23.69532314401481,0 
					</coordinates>
				</LinearRing>
			</outerBoundaryIs>
		</Polygon>
		<atom:link rel="app" href="https://www.google.com/earth/about/versions/#earth-pro" title="Google Earth Pro 7.3.7.1155"></atom:link>
	</Placemark>
</Document>
</kml>
