<?xml version="1.0" encoding="UTF-8"?>
<kml xmlns="http://www.opengis.net/kml/2.2" xmlns:gx="http://www.google.com/kml/ext/2.2" xmlns:kml="http://www.opengis.net/kml/2.2" xmlns:atom="http://www.w3.org/2005/Atom">
<Document>
	<name>1778069246739.kml</name>
	<StyleMap id="msn_ylw-pushpin">
		<Pair>
			<key>normal</key>
			<styleUrl>#sn_ylw-pushpin</styleUrl>
		</Pair>
		<Pair>
			<key>highlight</key>
			<styleUrl>#sh_ylw-pushpin</styleUrl>
		</Pair>
	</StyleMap>
	<Style id="sh_ylw-pushpin">
		<IconStyle>
			<scale>1.3</scale>
			<Icon>
				<href>http://maps.google.com/mapfiles/kml/pushpin/ylw-pushpin.png</href>
			</Icon>
			<hotSpot x="20" y="2" xunits="pixels" yunits="pixels"/>
		</IconStyle>
		<BalloonStyle>
		</BalloonStyle>
		<PolyStyle>
			<fill>0</fill>
		</PolyStyle>
	</Style>
	<Style id="sn_ylw-pushpin">
		<IconStyle>
			<scale>1.1</scale>
			<Icon>
				<href>http://maps.google.com/mapfiles/kml/pushpin/ylw-pushpin.png</href>
			</Icon>
			<hotSpot x="20" y="2" xunits="pixels" yunits="pixels"/>
		</IconStyle>
		<BalloonStyle>
		</BalloonStyle>
		<PolyStyle>
			<fill>0</fill>
		</PolyStyle>
	</Style>
	<Placemark>
		<name>1778069246739</name>
		<styleUrl>#msn_ylw-pushpin</styleUrl>
		<Polygon>
			<tessellate>1</tessellate>
			<outerBoundaryIs>
				<LinearRing>
					<coordinates>
						91.72586109651532,23.19125142063381,0 91.72582414443016,23.19112336177997,0 91.72574196827625,23.1910158065117,0 91.7257381109703,23.19088875455303,0 91.72576480870735,23.19077839399778,0 91.72572307836401,23.19071828160033,0 91.72559770323637,23.19067532556678,0 91.72548394805926,23.19060159424929,0 91.72540856370098,23.1905023826002,0 91.72541959788751,23.19038954998838,0 91.72545369804727,23.1903311325433,0 91.72545192449394,23.19026556812985,0 91.72553028298364,23.19015264040831,0 91.72556790572443,23.19013534117399,0 91.72558815263366,23.19009802169738,0 91.72563444107267,23.19007497278828,0 91.72599807795284,23.19019807442065,0 91.72621708662624,23.19039532472516,0 91.72625688954231,23.19051590697567,0 91.72657102110611,23.19061995223496,0 91.72680649514254,23.19063793226092,0 91.72681232430742,23.19075440727591,0 91.72679164528748,23.19091890153501,0 91.72681615259043,23.19096813472384,0 91.72682941782753,23.19109884448072,0 91.72687953519736,23.19124176043032,0 91.72693669823909,23.19132175682248,0 91.72700445248634,23.19131046628046,0 91.7270701765638,23.19138750659209,0 91.72712210320402,23.19138557295906,0 91.72715312864405,23.19144342204163,0 91.72712267799444,23.19154499395621,0 91.72704808110051,23.19154355498772,0 91.72707221531417,23.19171092188108,0 91.72697969672626,23.19165637381476,0 91.72686353516133,23.19175824352691,0 91.72676877328578,23.19184799955105,0 91.72665916807397,23.19162306101283,0 91.72675085485182,23.19152032154234,0 91.72667447928026,23.19147311396261,0 91.72661136222088,23.19154728454741,0 91.72658271314904,23.19160361463256,0 91.72650050646639,23.19161372575113,0 91.72618375930205,23.19161049353339,0 91.7260619219546,23.19167115636406,0 91.72597579931026,23.19165010422644,0 91.72591674835773,23.19152477611593,0 91.72584706875453,23.19135389990458,0 91.72586109651532,23.19125142063381,0 
					</coordinates>
				</LinearRing>
			</outerBoundaryIs>
		</Polygon>
		<atom:link rel="app" href="https://www.google.com/earth/about/versions/#earth-pro" title="Google Earth Pro 7.3.7.1155"></atom:link>
	</Placemark>
</Document>
</kml>
