<?xml version="1.0" encoding="UTF-8"?>
<kml xmlns="http://www.opengis.net/kml/2.2" xmlns:gx="http://www.google.com/kml/ext/2.2" xmlns:kml="http://www.opengis.net/kml/2.2" xmlns:atom="http://www.w3.org/2005/Atom">
<Document>
	<name>1778054817941.kml</name>
	<StyleMap id="msn_ylw-pushpin">
		<Pair>
			<key>normal</key>
			<styleUrl>#sn_ylw-pushpin</styleUrl>
		</Pair>
		<Pair>
			<key>highlight</key>
			<styleUrl>#sh_ylw-pushpin</styleUrl>
		</Pair>
	</StyleMap>
	<Style id="sh_ylw-pushpin">
		<IconStyle>
			<scale>1.3</scale>
			<Icon>
				<href>http://maps.google.com/mapfiles/kml/pushpin/ylw-pushpin.png</href>
			</Icon>
			<hotSpot x="20" y="2" xunits="pixels" yunits="pixels"/>
		</IconStyle>
		<BalloonStyle>
		</BalloonStyle>
		<PolyStyle>
			<fill>0</fill>
		</PolyStyle>
	</Style>
	<Style id="sn_ylw-pushpin">
		<IconStyle>
			<scale>1.1</scale>
			<Icon>
				<href>http://maps.google.com/mapfiles/kml/pushpin/ylw-pushpin.png</href>
			</Icon>
			<hotSpot x="20" y="2" xunits="pixels" yunits="pixels"/>
		</IconStyle>
		<BalloonStyle>
		</BalloonStyle>
		<PolyStyle>
			<fill>0</fill>
		</PolyStyle>
	</Style>
	<Placemark>
		<name>1778054817941</name>
		<styleUrl>#msn_ylw-pushpin</styleUrl>
		<Polygon>
			<tessellate>1</tessellate>
			<outerBoundaryIs>
				<LinearRing>
					<coordinates>
						91.68531424468613,23.74584167755291,0 91.68495899811252,23.74581001253679,0 91.68471909783275,23.74564486248641,0 91.68472357112149,23.74562419498651,0 91.68472667505134,23.74560901537418,0 91.68473893137106,23.74558990119307,0 91.68475206685652,23.74556594282759,0 91.68475573490397,23.74554636253368,0 91.68476121046874,23.74551713236692,0 91.6847657495118,23.74549290168611,0 91.68476931735606,23.74547364943348,0 91.68477372342181,23.74544972275972,0 91.6847822992782,23.74542620331034,0 91.6847992063973,23.74540337023127,0 91.68480740185485,23.74538034169785,0 91.68481977923305,23.74535764585305,0 91.68483222694664,23.74533491686222,0 91.68483546074012,23.74531638709661,0 91.68484285689772,23.74529817544917,0 91.68484606090242,23.74527977280996,0 91.68485341508588,23.74526168175592,0 91.6848696776316,23.74523974331232,0 91.68487675444756,23.74522198428749,0 91.68488704351827,23.74520918366338,0 91.68490554883161,23.74519694131512,0 91.68491924803709,23.74518887592827,0 91.6849336023344,23.74517638896366,0 91.68494447836652,23.74515924185337,0 91.68495708274114,23.74513290911475,0 91.68497252402203,23.74511562227337,0 91.68498448173669,23.74509374722436,0 91.68499496111798,23.74508081300702,0 91.68500681820393,23.74505909161783,0 91.68502253104592,23.74503786600415,0 91.68503350812341,23.74502076725573,0 91.68504019960294,23.74500364795231,0 91.68504343350061,23.74498204383057,0 91.68505137042105,23.74495644756364,0 91.68505393022878,23.74493930533209,0 91.68506182844142,23.74491388712908,0 91.68506717943214,23.74490555932428,0 91.68507094950269,23.74488011159734,0 91.68507335963977,23.74486329375992,0 91.68507576245659,23.74484652653769,0 91.68507531635089,23.7448212846984,0 91.68507770704177,23.74480464603201,0 91.68508009031542,23.74478805735922,0 91.68508246650875,23.7447715183099,0 91.68508658169654,23.74474271512974,0 91.68508775326211,23.74473451323405,0 91.68509090609402,23.74471025350298,0 91.6850931076183,23.74468680621958,0 91.68509493748357,23.74466731697186,0 91.6850924072473,23.7446516025822,0 91.68509496360412,23.74462444806177,0 91.68509715389014,23.74460123743373,0 91.68509898020484,23.74458194138671,0 91.68510802459016,23.74457067051975,0 91.68512139657328,23.74455570491189,0 91.68514263527656,23.74454108231624,0 91.68516395189815,23.74452281142663,0 91.68517308790217,23.74450789873519,0 91.68517828716624,23.74449283600545,0 91.68519206860175,23.74447045122116,0 91.68520557715578,23.74439906820896,0 91.68544783431452,23.74426238733054,0 91.68586598227917,23.74425653990959,0 91.68612273120425,23.74436372891131,0 91.68670940048548,23.7443603018297,0 91.68685914841163,23.74438674582837,0 91.68719851829158,23.74440483782156,0 91.68724555768529,23.74444286373396,0 91.68768654920686,23.74443626174269,0 91.68778799824676,23.74448057196794,0 91.68780779483497,23.74455228597227,0 91.68792031905419,23.7445618953926,0 91.68804036416176,23.74472787691717,0 91.6878089727369,23.74511671459328,0 91.6877926974971,23.74512638840279,0 91.68777638132181,23.74513608658292,0 91.68775167738004,23.74515426948073,0 91.68773526338532,23.7451678648437,0 91.68772282862278,23.74517697124311,0 91.68770205603037,23.74519090456011,0 91.68769884637472,23.7452044873325,0 91.68769161489098,23.74522271792026,0 91.68768407144191,23.74524051319237,0 91.68767648601762,23.74526217802315,0 91.68766419944191,23.74527969459008,0 91.68766049636238,23.74529270564685,0 91.68765696835865,23.74530993838084,0 91.68765343356408,23.74532720475331,0 91.68764095903842,23.7453446510392,0 91.68762823276879,23.74535781519912,0 91.68761548547576,23.74537100095982,0 91.68759400426272,23.74538874918126,0 91.68758544242216,23.74539750860544,0 91.68756332951442,23.74540633189513,0 91.68754998712758,23.74541071445634,0 91.68752749780654,23.74541100411379,0 91.68750964056329,23.74541544770429,0 91.68748713525487,23.74541573824626,0 91.68747376220021,23.74542012685292,0 91.68746528282661,23.7454371153277,0 91.68745202521887,23.74544964830132,0 91.68743875578843,23.74546219063494,0 91.6874346530706,23.74547891838909,0 91.68743065461095,23.74549985823707,0 91.68741738809091,23.74551253591982,0 91.68739947443328,23.74552106602708,0 91.68738152365781,23.74552953203731,0 91.68736344250532,23.7455376536042,0 91.68734072398721,23.74554160593464,0 91.68731821654706,23.74555796782662,0 91.68730011685044,23.74556609758726,0 91.68728194525133,23.74557008949437,0 91.68726377227077,23.74557408166077,0 91.68724549326373,23.7455737828297,0 91.6872272617514,23.74557755494338,0 91.68720902954114,23.74558131405966,0 91.68719080003751,23.74558507266411,0 91.68716800576875,23.7455887455054,0 91.68715434900528,23.74559258814067,0 91.68713148000731,23.74558806435043,0 91.68710862431681,23.74558354319688,0 91.68709039038824,23.74558325784893,0 91.68707205101661,23.74557458731086,0 91.6870492416638,23.74557403514745,0 91.68703100285123,23.74557359364837,0 91.68701284702098,23.74558141690954,0 91.68699924696803,23.7455893444027,0 91.68698571356923,23.74560553651536,0 91.68697676447735,23.74562598607482,0 91.68696782341614,23.74564656513686,0 91.68696344053956,23.74566730666218,0 91.68695445712603,23.7456838075228,0 91.68695462646949,23.74570468019051,0 91.68695022969631,23.74572548487714,0 91.68694122755414,23.7457420332778,0 91.68692773149596,23.74576705578822,0 91.68691872676924,23.74578377876999,0 91.68690966256001,23.74579610363832,0 91.68690523764533,23.74581706851929,0 91.68689618733347,23.74583358958938,0 91.68688260017932,23.74585839257031,0 91.68687806800017,23.7458666659419,0 91.68686899132251,23.7458831309876,0 91.68685530824928,23.74589924538599,0 91.68684162083127,23.74591536487325,0 91.68682794415373,23.74593171571964,0 91.68682344825112,23.74594866940229,0 91.68680978152737,23.74596940414431,0 91.68680525004066,23.74598204851422,0 91.68679616638724,23.74600713758245,0 91.68678708897225,23.74603655043962,0 91.68678253737824,23.74604912312616,0 91.68677799863153,23.74606600518972,0 91.68677347084926,23.7460872091349,0 91.68676897685913,23.74610942300459,0 91.68675985904781,23.74612727983806,0 91.6867507512144,23.74614987873498,0 91.68674162824475,23.74617267095313,0 91.68673247512393,23.74619114723061,0 91.68672330428316,23.74620965921607,0 91.68671876610441,23.74623761451557,0 91.68671881796597,23.74625622811868,0 91.68671889210555,23.74628003062282,0 91.68671898472066,23.74630885741214,0 91.68671904666215,23.74632813096792,0 91.68671915538059,23.74636196749552,0 91.68671918652743,23.74637166038226,0 91.6867285868906,23.74639129035912,0 91.6867427085745,23.74641594926917,0 91.68675216686452,23.74643577356283,0 91.68676164862107,23.74645562546788,0 91.68677585409482,23.74647573739498,0 91.68679009753964,23.74649590300992,0 91.68680903350736,23.74651100874223,0 91.68682785409409,23.74651114369807,0 91.68684680968639,23.74652160619465,0 91.68686568894383,23.74652237058429,0 91.68688947920798,23.74653790748744,0 91.68690379135944,23.74654822034356,0 91.68689924543361,23.74656264923636,0 91.68688043245831,23.74657176249086,0 91.68686161983098,23.74657701235905,0 91.68684279275811,23.74658226647089,0 91.68682389670576,23.74658239257603,0 91.68680027449228,23.74658255044058,0 91.68678141484133,23.74658780907216,0 91.68676254064732,23.74659307160521,0 91.68673416013358,23.74659296225525,0 91.68671526254001,23.74659831783635,0 91.68669633777822,23.74659842899709,0 91.68667267982913,23.74659856787737,0 91.68664427235636,23.74660909466791,0 91.68661582660229,23.74661931276384,0 91.6866015896382,23.74662442693933,0 91.68657779573795,23.74663592912934,0 91.68656347040147,23.7466468714451,0 91.6865348665816,23.74665765331051,0 91.68651103412391,23.74666309941944,0 91.68649193991217,23.74666852583954,0 91.68647766374329,23.74666859882412,0 91.68645382706202,23.74666934582204,0 91.68642514478915,23.74667108123786,0 91.68639643669053,23.74667275417179,0 91.68636772722101,23.74667411876189,0 91.68634378390591,23.7466752565959,0 91.68632445180863,23.74668181652108,0 91.686295665527,23.74668319893372,0 91.68627165598664,23.7466843661028,0 91.68625243571854,23.74668530054539,0 91.68621873722307,23.74668719487497,0 91.68619458594937,23.74668893367486,0 91.68616581384575,23.74668534261956,0 91.68614671177842,23.74668105594829,0 91.68611797090962,23.7466772186178,0 91.6860986652097,23.74667820516121,0 91.68607961282842,23.74667363149462,0 91.68606056596846,23.74666905913447,0 91.68604159569499,23.74666001024632,0 91.68601310725298,23.7466466944914,0 91.68599412483039,23.74663782190149,0 91.68596992992178,23.74663506482818,0 91.68593689052369,23.74661676783519,0 91.68592283981801,23.74660735034232,0 91.68590862452339,23.74659866192162,0 91.6858943509589,23.74659022693462,0 91.68588045658996,23.74657209235535,0 91.68586156284115,23.74655491080614,0 91.68584784941025,23.74653214096178,0 91.68582921238672,23.74651005114065,0 91.68581035950535,23.74649291029842,0 91.68580117444232,23.74647942009261,0 91.68578728981895,23.74646166179284,0 91.68577341773035,23.7464439199539,0 91.68575484405694,23.7464137829606,0 91.68574497012271,23.7464149351446,0 91.68573548962377,23.74640254327845,0 91.68572120246947,23.74638621237322,0 91.68571734878299,23.74635073103645,0 91.68571323263433,23.74632429332369,0 91.68570899120651,23.74630236071597,0 91.68570981195531,23.74627545540195,0 91.68571034870102,23.74625757285976,0 91.68571086630847,23.74623568476695,0 91.68570639411416,23.74621861898573,0 91.68569714327771,23.74619761519318,0 91.68566898628121,23.74615210189537,0 91.6856550767527,23.74612281695524,0 91.68564141375452,23.74608480142047,0 91.68563715064873,23.74606327639986,0 91.68563263923357,23.7460505309515,0 91.68555336707672,23.74592608917158,0 91.68531424468613,23.74584167755291,0 
					</coordinates>
				</LinearRing>
			</outerBoundaryIs>
		</Polygon>
		<atom:link rel="app" href="https://www.google.com/earth/about/versions/#earth-pro" title="Google Earth Pro 7.3.7.1155"></atom:link>
	</Placemark>
</Document>
</kml>
