<?xml version="1.0" encoding="UTF-8"?>
<kml xmlns="http://www.opengis.net/kml/2.2" xmlns:gx="http://www.google.com/kml/ext/2.2" xmlns:kml="http://www.opengis.net/kml/2.2" xmlns:atom="http://www.w3.org/2005/Atom">
<Document>
	<name>1778062194565.kml</name>
	<StyleMap id="msn_ylw-pushpin">
		<Pair>
			<key>normal</key>
			<styleUrl>#sn_ylw-pushpin</styleUrl>
		</Pair>
		<Pair>
			<key>highlight</key>
			<styleUrl>#sh_ylw-pushpin</styleUrl>
		</Pair>
	</StyleMap>
	<Style id="sh_ylw-pushpin">
		<IconStyle>
			<scale>1.3</scale>
			<Icon>
				<href>http://maps.google.com/mapfiles/kml/pushpin/ylw-pushpin.png</href>
			</Icon>
			<hotSpot x="20" y="2" xunits="pixels" yunits="pixels"/>
		</IconStyle>
		<BalloonStyle>
		</BalloonStyle>
		<PolyStyle>
			<fill>0</fill>
		</PolyStyle>
	</Style>
	<Style id="sn_ylw-pushpin">
		<IconStyle>
			<scale>1.1</scale>
			<Icon>
				<href>http://maps.google.com/mapfiles/kml/pushpin/ylw-pushpin.png</href>
			</Icon>
			<hotSpot x="20" y="2" xunits="pixels" yunits="pixels"/>
		</IconStyle>
		<BalloonStyle>
		</BalloonStyle>
		<PolyStyle>
			<fill>0</fill>
		</PolyStyle>
	</Style>
	<Placemark>
		<name>1778062194565</name>
		<styleUrl>#msn_ylw-pushpin</styleUrl>
		<Polygon>
			<tessellate>1</tessellate>
			<outerBoundaryIs>
				<LinearRing>
					<coordinates>
						91.71542424970509,23.64543367982092,0 91.71523532683975,23.64572407904703,0 91.71494300568042,23.6457638114599,0 91.71463309806666,23.64580614004436,0 91.71433257022596,23.64579937391925,0 91.71422093542631,23.64540068995864,0 91.71429340674558,23.64524067542105,0 91.71494799699343,23.64500414530545,0 91.71498727426825,23.64492909776097,0 91.71511371534942,23.64472911705015,0 91.71507649692052,23.64447338992628,0 91.71520157906141,23.64421908073676,0 91.71512429976237,23.64411959481414,0 91.71502102716333,23.64407607442513,0 91.71570037193769,23.64313093803104,0 91.7160073959364,23.64332098584869,0 91.71618488578913,23.64334094623118,0 91.71651484399908,23.64336795298604,0 91.71665842263559,23.64336253882551,0 91.71703421184213,23.64341531003824,0 91.71733088559402,23.64345342158744,0 91.71748809341278,23.64341494182087,0 91.7176658409514,23.64344936765476,0 91.71777797621466,23.64355557240384,0 91.71795794374063,23.6435750179247,0 91.71808123732845,23.64375354836796,0 91.71818014011969,23.64407102516704,0 91.71821859232934,23.64421472015368,0 91.71840949616691,23.64471484405495,0 91.71834621497483,23.64490299784033,0 91.71838486708486,23.64522530916026,0 91.71841903020788,23.64555495686116,0 91.71856477808173,23.64580880813408,0 91.71846997438435,23.64626131594023,0 91.71818234059428,23.64649621379874,0 91.71804608520699,23.6464770305207,0 91.71749605968962,23.64635571215397,0 91.71694575751739,23.64637903041421,0 91.71678370989527,23.6462116816772,0 91.71676946500912,23.64598862980989,0 91.71668308648175,23.64578569841851,0 91.71651766516759,23.64563066106806,0 91.71628604440261,23.64556690606808,0 91.71606974655423,23.64562704299075,0 91.71601238141926,23.64584289663968,0 91.71588975174257,23.64591466270944,0 91.71573122100123,23.64591148304106,0 91.71554304267599,23.64575190144349,0 91.71560063390945,23.64562193935148,0 91.71558516711849,23.64540955067783,0 91.71542424970509,23.64543367982092,0 
					</coordinates>
				</LinearRing>
			</outerBoundaryIs>
		</Polygon>
		<atom:link rel="app" href="https://www.google.com/earth/about/versions/#earth-pro" title="Google Earth Pro 7.3.7.1155"></atom:link>
	</Placemark>
</Document>
</kml>
