<?xml version="1.0" encoding="UTF-8"?>
<kml xmlns="http://www.opengis.net/kml/2.2" xmlns:gx="http://www.google.com/kml/ext/2.2" xmlns:kml="http://www.opengis.net/kml/2.2" xmlns:atom="http://www.w3.org/2005/Atom">
<Document>
	<name>1778165939578.kml</name>
	<StyleMap id="msn_ylw-pushpin">
		<Pair>
			<key>normal</key>
			<styleUrl>#sn_ylw-pushpin</styleUrl>
		</Pair>
		<Pair>
			<key>highlight</key>
			<styleUrl>#sh_ylw-pushpin</styleUrl>
		</Pair>
	</StyleMap>
	<Style id="sh_ylw-pushpin">
		<IconStyle>
			<scale>1.3</scale>
			<Icon>
				<href>http://maps.google.com/mapfiles/kml/pushpin/ylw-pushpin.png</href>
			</Icon>
			<hotSpot x="20" y="2" xunits="pixels" yunits="pixels"/>
		</IconStyle>
		<BalloonStyle>
		</BalloonStyle>
		<PolyStyle>
			<outline>0</outline>
		</PolyStyle>
	</Style>
	<Style id="sn_ylw-pushpin">
		<IconStyle>
			<scale>1.1</scale>
			<Icon>
				<href>http://maps.google.com/mapfiles/kml/pushpin/ylw-pushpin.png</href>
			</Icon>
			<hotSpot x="20" y="2" xunits="pixels" yunits="pixels"/>
		</IconStyle>
		<BalloonStyle>
		</BalloonStyle>
		<PolyStyle>
			<outline>0</outline>
		</PolyStyle>
	</Style>
	<Placemark>
		<name>1778165939578</name>
		<styleUrl>#msn_ylw-pushpin</styleUrl>
		<Polygon>
			<tessellate>1</tessellate>
			<outerBoundaryIs>
				<LinearRing>
					<coordinates>
						92.08298041612737,24.27480108083942,0 92.0829942405481,24.27478062273848,0 92.08298204066571,24.27468758813357,0 92.08303490486281,24.27460566214804,0 92.08305875166332,24.27452242434237,0 92.08317162724371,24.27448096439338,0 92.08320325967387,24.27443776730045,0 92.08330672295784,24.27437792704761,0 92.08349417741712,24.27433848520374,0 92.08354875343827,24.27438467202681,0 92.08359686526032,24.27432405691733,0 92.08361224572657,24.27427293165838,0 92.08363859249773,24.27423245408297,0 92.08360688900846,24.27418675891224,0 92.08357293716921,24.27421312612325,0 92.08358673478554,24.27416578968709,0 92.08359147163976,24.27411771473418,0 92.08364981495382,24.27401104849921,0 92.08363812359134,24.27383587753161,0 92.08358566020391,24.27367926865726,0 92.08366656311401,24.2733351818724,0 92.08364163813668,24.2732281903218,0 92.08363576654419,24.27305148980145,0 92.08366584665579,24.27295750533846,0 92.08365438082767,24.27290010869078,0 92.08360346267229,24.27290086540166,0 92.08368634701743,24.27273733516289,0 92.0836922469678,24.27254385163346,0 92.08361557380246,24.27244858069376,0 92.08359432011889,24.2723163440942,0 92.08355205293886,24.27222406311624,0 92.08357948177127,24.27216080974203,0 92.08354673101132,24.27195449850314,0 92.08354269648193,24.27184829338738,0 92.08351979340533,24.27190263171434,0 92.08348706615978,24.27187389633969,0 92.08349672109919,24.27172266500475,0 92.08349274229502,24.27167242695238,0 92.08349805068515,24.2715355825882,0 92.08347546892257,24.27146527332314,0 92.08350967798535,24.271398378524,0 92.08343051256297,24.27134341544487,0 92.083437466744,24.27129913959295,0 92.08328742462292,24.27117706867551,0 92.08328852313863,24.27108546147603,0 92.08326678029215,24.27096315649828,0 92.08343873475899,24.27085943512895,0 92.08359851700041,24.2706657024352,0 92.08360383189402,24.27055850552775,0 92.08366489978341,24.27036618240896,0 92.0836390674136,24.27030060658853,0 92.08371027408928,24.27020401354033,0 92.08375694407371,24.27019634637289,0 92.08381018641825,24.27023266113758,0 92.0838650595128,24.27026159176294,0 92.08393524144411,24.27033130522101,0 92.08394239778586,24.27037245296331,0 92.08397254030811,24.27044082874484,0 92.08403200679209,24.27049830434849,0 92.08409303410797,24.27050438287399,0 92.08412200437098,24.27053090131443,0 92.0841493019503,24.27059065704766,0 92.08421258594052,24.27061000346138,0 92.08425327554261,24.27066025091244,0 92.08432043898237,24.27069994774356,0 92.08436278634395,24.27071262183312,0 92.08440336649571,24.27070195712533,0 92.08450324459545,24.27077263656339,0 92.08454745612866,24.27083314790728,0 92.08461830294682,24.2709063877082,0 92.08465733141428,24.27100859124781,0 92.08464798797094,24.27109644078733,0 92.08454717237419,24.27115584784288,0 92.08442376897237,24.27129461074266,0 92.0843419800091,24.27145687848462,0 92.08424771159882,24.27155218148493,0 92.08418376799912,24.27156882569935,0 92.08410763966329,24.27164140774571,0 92.08410236428287,24.2716824854965,0 92.0840872928634,24.27174632419522,0 92.0840389298351,24.2718345326446,0 92.08402637301647,24.27189064090171,0 92.08404855344493,24.27200753807514,0 92.08407332757092,24.2720321921143,0 92.08412493982215,24.27208654298415,0 92.08412713442213,24.27218948885989,0 92.08412021993448,24.27225912888517,0 92.08415231845059,24.27229845159138,0 92.08420669218296,24.27235983229613,0 92.08428088673594,24.27240413224882,0 92.08439502698694,24.27245016072423,0 92.08442791490106,24.27246542860973,0 92.08446852398407,24.27248164780433,0 92.08448557027884,24.27248835636823,0 92.08451757646991,24.27251287630741,0 92.0845349294562,24.27253426449842,0 92.08458036299733,24.27256806343087,0 92.08460887490648,24.27258291024135,0 92.08465116050901,24.27264482315547,0 92.08471800727202,24.27266908454779,0 92.08475321448373,24.27271526280732,0 92.08481143679178,24.27276494154783,0 92.08486804996873,24.27284289169398,0 92.08492734613634,24.27293568975984,0 92.08491996144548,24.27300952811204,0 92.08494706876624,24.27305428097833,0 92.08497416465221,24.27311797906857,0 92.08505096495114,24.27318733433051,0 92.08510651406203,24.27324336270933,0 92.08511071147286,24.27326262649146,0 92.08517693688258,24.27331000736045,0 92.08524448616458,24.27337459621399,0 92.08528947028213,24.27345816876057,0 92.08532134607083,24.27349552948029,0 92.08535994884819,24.2735652489003,0 92.08536879613878,24.27358887512159,0 92.08536526207246,24.27360855048024,0 92.08536505013163,24.2736322813684,0 92.08537366552244,24.27367215451248,0 92.08539000023494,24.2736959338431,0 92.08538976480354,24.27374183420774,0 92.08538520004018,24.2737632424082,0 92.08536955083497,24.27379436208356,0 92.08534369959965,24.27382446123997,0 92.08532243878638,24.27385537504378,0 92.08530968814935,24.27387152182228,0 92.08529540542119,24.27389128288811,0 92.08527857012041,24.27393263875299,0 92.08528268828692,24.27396289312412,0 92.08527680102026,24.2739744242132,0 92.08525691945594,24.27398619560936,0 92.08520991648322,24.27398844297008,0 92.08517094709352,24.27397592233284,0 92.08515663054877,24.27400962121243,0 92.08514044338044,24.27403222472088,0 92.08512528426532,24.2740511451934,0 92.08507863366501,24.27408507030822,0 92.08505902285779,24.27410005366959,0 92.08504148928048,24.27411004396825,0 92.08501200352413,24.27412178545937,0 92.08498884627133,24.27413540958575,0 92.08496600094325,24.27416139013517,0 92.08494726594671,24.27417695394963,0 92.08493465256437,24.27418843587249,0 92.08491835331178,24.27419384765552,0 92.08489898920922,24.27420137209472,0 92.08487224127127,24.27421780270568,0 92.08484255608761,24.27422703924693,0 92.08482313055637,24.27423650402344,0 92.08479287375759,24.27425151351216,0 92.08474296280981,24.27427341007336,0 92.08469470154607,24.2743052705714,0 92.08467038174307,24.27431893524006,0 92.0846480617425,24.27432499133435,0 92.08458881510198,24.27433951208686,0 92.08455346543167,24.2743401753153,0 92.084479094332,24.27435415461145,0 92.08445326073242,24.27435667452183,0 92.08442319917984,24.27435748276417,0 92.0844010205366,24.27435705159533,0 92.08437344813568,24.27435619539429,0 92.08435692619774,24.27435154396353,0 92.08434897938793,24.27435558367421,0 92.08434952157559,24.27436007532879,0 92.08433170719994,24.2743554146454,0 92.08435451290757,24.27440286606917,0 92.08436161457794,24.27443540575855,0 92.08436692230956,24.274463124123,0 92.08436696771336,24.27449161803384,0 92.08436121870358,24.2745148854278,0 92.08435739009222,24.27453526228752,0 92.08434951637238,24.27455861958645,0 92.08434185924841,24.27457084545439,0 92.08433118925872,24.27457955325125,0 92.08431595812101,24.27461091173917,0 92.08428408863844,24.27465127211124,0 92.08427827068596,24.27466120606261,0 92.08425482875924,24.2746958731566,0 92.0842265779615,24.27470441479148,0 92.0842168202678,24.27472801326306,0 92.08417089448542,24.27477721401098,0 92.0841577383006,24.27478694170582,0 92.08414078946055,24.27481198381475,0 92.08412002417555,24.2748322253346,0 92.08411346170378,24.2748494609777,0 92.08410056015795,24.27486439263384,0 92.08408202628056,24.27488648781114,0 92.08406004884172,24.27490581965135,0 92.08403413823591,24.27489529214643,0 92.08401810903669,24.27489377128735,0 92.0840047959549,24.27489410185589,0 92.08398344888811,24.27490987790999,0 92.08397119037178,24.27491363931239,0 92.08395330217418,24.27491725680172,0 92.08394112060007,24.27493116305567,0 92.08392752192196,24.27491639077412,0 92.08389990728918,24.27491754392569,0 92.0838789118759,24.27490939278293,0 92.08385483413613,24.2749093762911,0 92.08381946398936,24.27492230364178,0 92.08378281384,24.27493218260387,0 92.08376111640312,24.27492836356643,0 92.08372852730238,24.27493188398108,0 92.08370677120757,24.27493284296549,0 92.08369031426469,24.27493054874805,0 92.08367671163859,24.27493933481923,0 92.08366140026257,24.27494938800768,0 92.08364745873317,24.27492853887577,0 92.08362955534926,24.27493670024662,0 92.0836052089104,24.27493484906237,0 92.08358569886659,24.2749271926407,0 92.08355552798143,24.27491672984291,0 92.08353838278305,24.27491403244694,0 92.08351794595282,24.27492473908379,0 92.08349546368362,24.27492978490882,0 92.08348416720719,24.27493137239151,0 92.08347628099757,24.27493192119866,0 92.08345845944862,24.27492657931312,0 92.08344552767768,24.2749268853151,0 92.08342564471953,24.27493636222311,0 92.08340780065615,24.2749329244498,0 92.0833890916998,24.27492677776281,0 92.08338057399018,24.27492637030866,0 92.08337441796637,24.27493873268965,0 92.08335300935292,24.27493702281017,0 92.08333297307669,24.27493231172647,0 92.08332379741319,24.27493032610786,0 92.08330791510483,24.27492984513795,0 92.08328648016861,24.27492426337629,0 92.08326740794348,24.27491711685959,0 92.08325338009712,24.27491128470145,0 92.08324287275197,24.27490286342183,0 92.08322667405798,24.27490258084576,0 92.08320456054273,24.27489410591458,0 92.08319028651285,24.27489006633817,0 92.08317869741728,24.27488630291935,0 92.08316253102693,24.27489521257527,0 92.08314570580508,24.27488660538774,0 92.08313907300317,24.27488869746773,0 92.08312458234018,24.27488460595395,0 92.08310562189804,24.27488597491936,0 92.08308702513807,24.27487739300413,0 92.08308224069918,24.27487855871307,0 92.08307220844723,24.2748752750166,0 92.08305945406433,24.27487218960727,0 92.0830593726718,24.27487071262233,0 92.08305940516948,24.27487130227631,0 92.08305909839751,24.27487004491271,0 92.08304568058745,24.27486846860884,0 92.08303628861033,24.27486583410052,0 92.08302119466012,24.27486250638282,0 92.08300732486622,24.27486000598361,0 92.08299553210745,24.27484309110828,0 92.08298146821939,24.27483461567427,0 92.082971023619,24.27482599690185,0 92.08296476923032,24.274821624155,0 92.08298041612737,24.27480108083942,0 
					</coordinates>
				</LinearRing>
			</outerBoundaryIs>
		</Polygon>
		<atom:link rel="app" href="https://www.google.com/earth/about/versions/#earth-pro" title="Google Earth Pro 7.3.7.1155"></atom:link>
	</Placemark>
</Document>
</kml>
