<?xml version="1.0" encoding="UTF-8"?>
<kml xmlns="http://www.opengis.net/kml/2.2" xmlns:gx="http://www.google.com/kml/ext/2.2" xmlns:kml="http://www.opengis.net/kml/2.2" xmlns:atom="http://www.w3.org/2005/Atom">
<Document>
	<name>1778166881456.kml</name>
	<StyleMap id="msn_ylw-pushpin">
		<Pair>
			<key>normal</key>
			<styleUrl>#sn_ylw-pushpin</styleUrl>
		</Pair>
		<Pair>
			<key>highlight</key>
			<styleUrl>#sh_ylw-pushpin</styleUrl>
		</Pair>
	</StyleMap>
	<Style id="sh_ylw-pushpin">
		<IconStyle>
			<scale>1.3</scale>
			<Icon>
				<href>http://maps.google.com/mapfiles/kml/pushpin/ylw-pushpin.png</href>
			</Icon>
			<hotSpot x="20" y="2" xunits="pixels" yunits="pixels"/>
		</IconStyle>
		<BalloonStyle>
		</BalloonStyle>
		<LineStyle>
			<width>2.5</width>
		</LineStyle>
		<PolyStyle>
			<fill>0</fill>
		</PolyStyle>
	</Style>
	<Style id="sn_ylw-pushpin">
		<IconStyle>
			<scale>1.1</scale>
			<Icon>
				<href>http://maps.google.com/mapfiles/kml/pushpin/ylw-pushpin.png</href>
			</Icon>
			<hotSpot x="20" y="2" xunits="pixels" yunits="pixels"/>
		</IconStyle>
		<BalloonStyle>
		</BalloonStyle>
		<LineStyle>
			<width>2.5</width>
		</LineStyle>
		<PolyStyle>
			<fill>0</fill>
		</PolyStyle>
	</Style>
	<Placemark>
		<name>1778166881456</name>
		<styleUrl>#msn_ylw-pushpin</styleUrl>
		<Polygon>
			<tessellate>1</tessellate>
			<outerBoundaryIs>
				<LinearRing>
					<coordinates>
						92.07180748803026,24.0585246888802,0 92.0718586361775,24.05846046034054,0 92.07187043094322,24.05841672738805,0 92.07196238096178,24.05840802536751,0 92.07197771692452,24.05838498832999,0 92.07204197607012,24.05841651194264,0 92.07210778452936,24.05839968778162,0 92.0722057789545,24.0583541217907,0 92.07227623651973,24.05834877803616,0 92.07227831015827,24.05834810476134,0 92.07228160028127,24.05834515086224,0 92.07228671469565,24.0583441188308,0 92.0722926955206,24.05834469271306,0 92.07229778016355,24.05834391484359,0 92.0723027254694,24.05834471861691,0 92.07230865845909,24.05834593785864,0 92.07231266039524,24.05834629522591,0 92.07231677098127,24.05834527987144,0 92.07232078373795,24.05834563707985,0 92.07232695546493,24.0583441126685,0 92.07233222080005,24.05834089050229,0 92.07233639503613,24.05833871388842,0 92.07234042421361,24.05833903444868,0 92.07234552004864,24.05833849854343,0 92.07234956249046,24.05833881945733,0 92.0723546698183,24.05833828260764,0 92.07235878199985,24.05833735249142,0 92.07236394971092,24.05833556498288,0 92.07236806229703,24.058334634758,0 92.07237217576267,24.05833370426388,0 92.0723772975073,24.05833316453815,0 92.07238347328,24.05833176771987,0 92.07238965099353,24.0583303703965,0 92.07239272500541,24.05833029460305,0 92.07239786366073,24.05832975251656,0 92.07240094436126,24.05832967645147,0 92.07240709369378,24.05833077334519,0 92.07241121030764,24.05833108933975,0 92.07241433637927,24.058328513253,0 92.07241950971287,24.05832672130932,0 92.07242260540858,24.05832664370166,0 92.07242777782531,24.05832485184855,0 92.07243191514507,24.05832267283011,0 92.07243295004884,24.05832057680135,0 92.07243604367692,24.05831678279696,0 92.07244016540203,24.05831585018765,0 92.07244325947239,24.05831565146038,0 92.07244841440168,24.05831470416899,0 92.07245254806269,24.05831473836982,0 92.07245983045458,24.05831711547678,0 92.07246610123164,24.05831916236401,0 92.07247030554578,24.0583207745146,0 92.07247877167261,24.05832434940995,0 92.07248516243678,24.05832704787442,0 92.07249913169196,24.0583329464378,0 92.07250454963821,24.05833523412291,0 92.07251217742333,24.05833845501642,0 92.07260938803098,24.05839283292372,0 92.07274767728759,24.05840185486371,0 92.07288888187625,24.05844071793601,0 92.0730981433918,24.05844394796727,0 92.0732330959718,24.05846926162837,0 92.07342493984738,24.05852113883869,0 92.07357396018233,24.05854225600103,0 92.07369619680664,24.05853334316219,0 92.07373774433097,24.05855311344993,0 92.07390014213922,24.05855582994691,0 92.07410456921616,24.05860628061267,0 92.07427149433857,24.05856568653985,0 92.07441496699988,24.05855636408783,0 92.07457449761668,24.05853179078622,0 92.07469447649024,24.05850733964474,0 92.07478004715878,24.05852275529925,0 92.07485173507287,24.05859956609137,0 92.07485336367245,24.05860257521379,0 92.07485664044866,24.05860862978929,0 92.07485994358402,24.05861473293897,0 92.07486351791317,24.05862242049742,0 92.07486663037986,24.05862708819084,0 92.07487026795849,24.05863490134494,0 92.07487373954028,24.05864142684703,0 92.07487725831399,24.05864807291417,0 92.07487957196126,24.05865465699608,0 92.07488245767013,24.058664578482,0 92.07488606911667,24.05867142952123,0 92.0748897129201,24.05867834189531,0 92.07489339009781,24.05868531760266,0 92.07489916154806,24.05869660296394,0 92.07490502028119,24.0587080590082,0 92.07490733764917,24.05871378132452,0 92.074911671568,24.05872346184508,0 92.07491566831837,24.05873123772269,0 92.07491964791362,24.05873888924815,0 92.0749223186961,24.05874636906138,0 92.07492738261989,24.05875258335286,0 92.07493349905053,24.05875725470404,0 92.07493858756207,24.05875641440019,0 92.0749436121033,24.05875536764533,0 92.07494772760764,24.058750080379,0 92.07495355114924,24.05874692303581,0 92.07496018819583,24.05874767213572,0 92.07496683449607,24.05874842231187,0 92.07497215831022,24.05874902324827,0 92.07498059891934,24.05875188752301,0 92.0749877351852,24.05875461206695,0 92.07499577734258,24.05875552299843,0 92.07500478475555,24.05876039900707,0 92.07501114685616,24.05876499898052,0 92.07501569748403,24.05876746438686,0 92.0750224779577,24.05876823928284,0 92.07502977904892,24.05877102740725,0 92.07503763130879,24.05877585120149,0 92.07504744706509,24.0587829171305,0 92.07505597606252,24.05878989673669,0 92.07506263017673,24.05879469484376,0 92.07506989859827,24.05880161527458,0 92.07507606383959,24.05880438120193,0 92.075084843843,24.05881155725511,0 92.07509248728024,24.05881452959264,0 92.07510078079615,24.05881965437203,0 92.07510707764033,24.05882248723978,0 92.07511403766843,24.05882749226838,0 92.07512533740302,24.0588330528901,0 92.07512886497111,24.05883558540278,0 92.07513807234552,24.05884305493965,0 92.07514522452217,24.05884819247871,0 92.07515172285409,24.05885113250173,0 92.07515592953054,24.05886012681663,0 92.07515566655701,24.05886842678558,0 92.07515326398219,24.05887443689594,0 92.07515084562344,24.05888048680384,0 92.07514332262761,24.05888382393543,0 92.07514102747386,24.05888567640632,0 92.07514233863212,24.05889011576892,0 92.07515175037236,24.05889773113461,0 92.07516056154182,24.05890315367208,0 92.07516873277764,24.05890634156097,0 92.07517313585845,24.05891126164098,0 92.07518129829255,24.05891888292333,0 92.07518807317696,24.05892194316366,0 92.07519639274304,24.05892520531411,0 92.07520550004187,24.05893081025837,0 92.07521390442625,24.05893860948984,0 92.07521838793366,24.05893893878816,0 92.07522660526249,24.05894175028091,0 92.07523484980373,24.05894457089632,0 92.07524012295984,24.05894719880265,0 92.0752492124813,24.05895237625504,0 92.07525835533514,24.05895758422127,0 92.07526521525752,24.05896035399664,0 92.07527195004145,24.05895850760147,0 92.07527632854081,24.05895421139926,0 92.07528152515832,24.05895227397262,0 92.07528653025513,24.05894577664426,0 92.07528850570965,24.05893912299282,0 92.07529514113881,24.05893730340829,0 92.0753001650011,24.05893519586827,0 92.07530665077806,24.05893315238801,0 92.07531312273191,24.05893111300967,0 92.07532285896364,24.05893380418753,0 92.07532875690414,24.05893404123612,0 92.07533465729512,24.05893427855742,0 92.0753414903956,24.05893686084773,0 92.07534834363499,24.05893945063682,0 92.07535765591673,24.05894447309104,0 92.0753655311261,24.05894946327962,0 92.07537494468419,24.05895454247087,0 92.07538141431917,24.05895952774824,0 92.07539234956796,24.05896459256589,0 92.07540030966982,24.05896952749481,0 92.07540532714242,24.05897442740833,0 92.07541590108266,24.05898188842172,0 92.07542505536695,24.05898937825515,0 92.07543277228665,24.05899689707944,0 92.07544098286239,24.05900200707057,0 92.07544923860848,24.05900714528895,0 92.07546018075547,24.05901487319391,0 92.07546701526167,24.05902004957249,0 92.07547656856434,24.05902785086926,0 92.07548306411104,24.05903557469692,0 92.07550836130225,24.0590644251976,0 92.07554745117264,24.05910526301645,0 92.07559604806683,24.05919292451209,0 92.07571705660411,24.05929928723704,0 92.07574695709962,24.05936565196575,0 92.0756874772859,24.05939197653414,0 92.07563329287906,24.05939302453864,0 92.07558325146297,24.05941093589319,0 92.07548111944205,24.05939579798485,0 92.0753863875432,24.0593886714977,0 92.07527996577737,24.05940389521723,0 92.07517299349809,24.05941959336287,0 92.07511875733736,24.05946807812575,0 92.07509076473018,24.05953166585682,0 92.07500800393532,24.05961350876503,0 92.07492882496766,24.05962328374519,0 92.07484413005193,24.05963239321291,0 92.07474272890158,24.05964593111175,0 92.07463860156135,24.05961785318799,0 92.0745900449963,24.05968400427643,0 92.07444125127783,24.05972160067076,0 92.07437040037125,24.05977493047153,0 92.07432119278145,24.0599053102862,0 92.07426416855687,24.06001299136338,0 92.07420311781136,24.06011776086988,0 92.07413157239498,24.06021578169452,0 92.07414732502829,24.06033554535849,0 92.07411664355936,24.06040661701842,0 92.07405065384576,24.06042448416435,0 92.0740336184768,24.06049492475043,0 92.0739910373178,24.06053283248505,0 92.07383712828548,24.06050602313092,0 92.07368242356661,24.06038251150282,0 92.07355776246509,24.06028297942556,0 92.07341547045591,24.06030541531349,0 92.07324540214196,24.06024882788974,0 92.07318168564947,24.06013818602565,0 92.07312124429149,24.06010809449054,0 92.07284294451021,24.06005188485309,0 92.07280249821099,24.06004343006119,0 92.07278524435873,24.06003196639624,0 92.07277303095572,24.06002387889218,0 92.07276331990583,24.06001745212641,0 92.07261480173918,24.05995926402001,0 92.07244375361904,24.05994256059125,0 92.07233070669545,24.05994778848097,0 92.07232865012786,24.05994571280189,0 92.07231812506383,24.05992632466166,0 92.07231004067715,24.05991819775682,0 92.07230177745525,24.05990124818319,0 92.0722933300016,24.05987222019024,0 92.07228352456254,24.05986039594458,0 92.07227189661961,24.05984637432735,0 92.07226041710251,24.05983253187761,0 92.07224908340764,24.05981886450831,0 92.07223604979993,24.05982544333716,0 92.0722248695251,24.05982273779885,0 92.07219882027943,24.05982345970675,0 92.07217848131795,24.059820199225,0 92.07215470221118,24.05981249831032,0 92.07214767204206,24.05980364414779,0 92.07202994265914,24.05973537770034,0 92.0719183001344,24.05967760404771,0 92.07184687760035,24.05944506652909,0 92.07185218805834,24.05935257059827,0 92.07183275967049,24.05922072419678,0 92.07182679187886,24.05922226818758,0 92.07182075672264,24.05921161611491,0 92.07180886253214,24.05920259039988,0 92.07180532976837,24.05919423860773,0 92.07179764309846,24.05919168533307,0 92.07179425541453,24.05917785810745,0 92.07178815000108,24.05917487424569,0 92.07177506954837,24.05904425247902,0 92.07177595950444,24.05892672931166,0 92.07176337946697,24.05882268269173,0 92.07177464101183,24.05875410527931,0 92.0717922077684,24.05870336188214,0 92.07174883187949,24.05872770372461,0 92.07171773054242,24.05860255191698,0 92.07180748803026,24.0585246888802,0 
					</coordinates>
				</LinearRing>
			</outerBoundaryIs>
		</Polygon>
		<atom:link rel="app" href="https://www.google.com/earth/about/versions/#earth-pro" title="Google Earth Pro 7.3.7.1155"></atom:link>
	</Placemark>
</Document>
</kml>
