<?xml version="1.0" encoding="UTF-8"?>
<kml xmlns="http://www.opengis.net/kml/2.2" xmlns:gx="http://www.google.com/kml/ext/2.2" xmlns:kml="http://www.opengis.net/kml/2.2" xmlns:atom="http://www.w3.org/2005/Atom">
<Document>
	<name>5 HA  ANR BAMBOO CHANDALI ROAJA JFMC OF NORTH LONGTHARAI VC.kml</name>
	<StyleMap id="m_ylw-pushpin">
		<Pair>
			<key>normal</key>
			<styleUrl>#s_ylw-pushpin</styleUrl>
		</Pair>
		<Pair>
			<key>highlight</key>
			<styleUrl>#s_ylw-pushpin_hl</styleUrl>
		</Pair>
	</StyleMap>
	<Style id="s_ylw-pushpin">
		<IconStyle>
			<scale>1.1</scale>
			<Icon>
				<href>http://maps.google.com/mapfiles/kml/pushpin/ylw-pushpin.png</href>
			</Icon>
			<hotSpot x="20" y="2" xunits="pixels" yunits="pixels"/>
		</IconStyle>
		<LineStyle>
			<color>ffffaa00</color>
			<width>5</width>
		</LineStyle>
		<PolyStyle>
			<fill>0</fill>
		</PolyStyle>
	</Style>
	<Style id="s_ylw-pushpin_hl">
		<IconStyle>
			<scale>1.3</scale>
			<Icon>
				<href>http://maps.google.com/mapfiles/kml/pushpin/ylw-pushpin.png</href>
			</Icon>
			<hotSpot x="20" y="2" xunits="pixels" yunits="pixels"/>
		</IconStyle>
		<LineStyle>
			<color>ffffaa00</color>
			<width>5</width>
		</LineStyle>
		<PolyStyle>
			<fill>0</fill>
		</PolyStyle>
	</Style>
	<Placemark>
		<name>5 HA  ANR BAMBOO CHANDALI ROAJA JFMC OF NORTH LONGTHARAI VC</name>
		<styleUrl>#m_ylw-pushpin</styleUrl>
		<Polygon>
			<tessellate>1</tessellate>
			<outerBoundaryIs>
				<LinearRing>
					<coordinates>
						91.96705206566271,23.86292451074405,0 91.96699596821479,23.86284902422297,0 91.96697055113439,23.86279315036148,0 91.96691919595472,23.86264592864918,0 91.9669297339159,23.86257755993472,0 91.96692963807813,23.86244109843721,0 91.96692906806913,23.86236893830583,0 91.96693317457982,23.86226094066624,0 91.96694318335986,23.86222047416576,0 91.96695281513033,23.86214393066455,0 91.9669572449986,23.86209008593976,0 91.96695626860036,23.86203179328281,0 91.96695590565209,23.86200478059453,0 91.96696079670572,23.86196862406381,0 91.96694982439411,23.86183172215037,0 91.96693741326918,23.86175590599084,0 91.966946117891,23.86169382122635,0 91.96696394766462,23.86165568816568,0 91.96705850891436,23.86157367938039,0 91.9671735347553,23.86150991570709,0 91.96720500218144,23.86150958644025,0 91.96727841310546,23.86150428064451,0 91.96732506341317,23.86150423539039,0 91.9673676687479,23.86148510345854,0 91.96753242041417,23.86148148438512,0 91.96755471396298,23.86144829530559,0 91.96762588653733,23.86145417659893,0 91.96772716028177,23.86147049608739,0 91.96784512515548,23.86147687684782,0 91.96787010011973,23.86149639179478,0 91.9679630407875,23.86149743272237,0 91.9680040537787,23.86150752531823,0 91.96804531136149,23.8615127684119,0 91.96814903971503,23.86151372045508,0 91.96827421607115,23.86149087683454,0 91.96835229200096,23.86149117029737,0 91.96846176023783,23.86148664014017,0 91.96860753933551,23.86150590972778,0 91.96873236338701,23.86154358079656,0 91.96884242860726,23.86157673129225,0 91.96890034825222,23.86156906260988,0 91.96892169181857,23.86161944454044,0 91.96896408765645,23.86162119146455,0 91.96899605047844,23.86163263776797,0 91.96902849726729,23.8616886793725,0 91.96906096141319,23.86172514915121,0 91.96909347940888,23.86175182902221,0 91.96916891769918,23.86175538219658,0 91.96926023974802,23.86172905348301,0 91.96930461140133,23.86178106430913,0 91.96938609089904,23.8617838766935,0 91.96943563157285,23.86180576380894,0 91.96952379869516,23.86184344122792,0 91.96967056451071,23.86182641918913,0 91.96973733954346,23.86185824429174,0 91.96978790159811,23.86188984109201,0 91.96983740429849,23.8618909601809,0 91.96989740504495,23.86187717354931,0 91.96993562224115,23.86187272533785,0 91.9700545631319,23.86183872795252,0 91.97012179412026,23.86186040041614,0 91.97019877605717,23.86186143306131,0 91.97023418483948,23.86189808185904,0 91.97027560954849,23.86194015091958,0 91.97031536662453,23.86195626855875,0 91.97035062142949,23.86198305798976,0 91.97035932428085,23.86202047157981,0 91.97041277960849,23.86206366924502,0 91.97055124686547,23.86212855287722,0 91.97059354036637,23.86221641798126,0 91.97064546838806,23.86228824450465,0 91.97066200965521,23.86233848891599,0 91.97066004757048,23.86237219738311,0 91.97062242936993,23.86238890396769,0 91.97056582581972,23.86238826064774,0 91.97045101155014,23.86237482994007,0 91.97038930206902,23.86231316508992,0 91.9702591326226,23.86231519472813,0 91.97017108975385,23.86226923833265,0 91.97007366099717,23.86224475511607,0 91.96990397623006,23.86222831855752,0 91.96983449273155,23.86230547716769,0 91.9698371745047,23.8623789291973,0 91.96967417600437,23.86238801111327,0 91.9696246895741,23.86242759405856,0 91.96954716230213,23.86248075659087,0 91.96949160867308,23.86253324621881,0 91.96939632933606,23.86255745094278,0 91.96934630293391,23.86258988681036,0 91.96925731033291,23.86262990902987,0 91.9691907127246,23.86266105923228,0 91.96915744955247,23.86267891841585,0 91.96912456742109,23.86274774426137,0 91.96909132652905,23.86276550326605,0 91.96903611580741,23.86281727712772,0 91.96901962308623,23.86286579724388,0 91.96899759316609,23.86290929821737,0 91.96895895694011,23.86294681869507,0 91.96894244476313,23.86299535571511,0 91.9688982591187,23.86306408148573,0 91.96878274534672,23.86308697156436,0 91.96874444311861,23.86309217769151,0 91.9685976277366,23.86312431330378,0 91.9685061099118,23.86311784094288,0 91.96842063019294,23.8631070539862,0 91.96836224766808,23.86310415818835,0 91.96831997827174,23.86311734652013,0 91.96826735207841,23.86313847439238,0 91.96820504787343,23.86324393802029,0 91.96817420264941,23.86328872614584,0 91.96810256951822,23.86333920798428,0 91.96801009319574,23.86334889797439,0 91.9679493649611,23.86337486819313,0 91.96787356216942,23.86339951927641,0 91.96779746650864,23.86340391702878,0 91.96768993055547,23.86339139463639,0 91.96760832900343,23.86340356664882,0 91.96755780257739,23.86343071539336,0 91.9674407164577,23.86345966896688,0 91.96736206602422,23.86344722727183,0 91.96728464622005,23.86344556580405,0 91.96720326907527,23.86345956158391,0 91.96710201488168,23.86342351510678,0 91.96708921650772,23.86339636317215,0 91.96706492805855,23.86335738754512,0 91.96704032851022,23.86327768825417,0 91.96702225882288,23.86319527699041,0 91.96699507764062,23.86315130453448,0 91.96698930066324,23.86309745753898,0 91.9669888657959,23.86305711337235,0 91.9670095230757,23.86296185962987,0 91.96705206566271,23.86292451074405,0 
					</coordinates>
				</LinearRing>
			</outerBoundaryIs>
		</Polygon>
		<atom:link rel="app" href="https://www.google.com/earth/about/versions/#earth-pro" title="Google Earth Pro 7.3.7.1155"></atom:link>
	</Placemark>
</Document>
</kml>
