<?xml version="1.0" encoding="UTF-8"?>
<kml xmlns="http://www.opengis.net/kml/2.2" xmlns:gx="http://www.google.com/kml/ext/2.2" xmlns:kml="http://www.opengis.net/kml/2.2" xmlns:atom="http://www.w3.org/2005/Atom">
<Document>
	<name>1778577059897.kml</name>
	<StyleMap id="msn_ylw-pushpin">
		<Pair>
			<key>normal</key>
			<styleUrl>#sn_ylw-pushpin</styleUrl>
		</Pair>
		<Pair>
			<key>highlight</key>
			<styleUrl>#sh_ylw-pushpin</styleUrl>
		</Pair>
	</StyleMap>
	<Style id="sh_ylw-pushpin">
		<IconStyle>
			<scale>1.3</scale>
			<Icon>
				<href>http://maps.google.com/mapfiles/kml/pushpin/ylw-pushpin.png</href>
			</Icon>
			<hotSpot x="20" y="2" xunits="pixels" yunits="pixels"/>
		</IconStyle>
		<BalloonStyle>
		</BalloonStyle>
		<PolyStyle>
			<fill>0</fill>
		</PolyStyle>
	</Style>
	<Style id="sn_ylw-pushpin">
		<IconStyle>
			<scale>1.1</scale>
			<Icon>
				<href>http://maps.google.com/mapfiles/kml/pushpin/ylw-pushpin.png</href>
			</Icon>
			<hotSpot x="20" y="2" xunits="pixels" yunits="pixels"/>
		</IconStyle>
		<BalloonStyle>
		</BalloonStyle>
		<PolyStyle>
			<fill>0</fill>
		</PolyStyle>
	</Style>
	<Placemark>
		<name>1778577059897</name>
		<visibility>0</visibility>
		<styleUrl>#msn_ylw-pushpin</styleUrl>
		<Polygon>
			<tessellate>1</tessellate>
			<outerBoundaryIs>
				<LinearRing>
					<coordinates>
						91.84086848846805,23.64989943974868,0 91.84072579048993,23.64984890920159,0 91.84038963147127,23.64968446975581,0 91.8402510749853,23.6494878776202,0 91.84026619965898,23.64928209631965,0 91.84032932278798,23.64909148696065,0 91.84033963760882,23.64894715659566,0 91.84034511774085,23.64885582020104,0 91.84034327016779,23.6487437043883,0 91.84028451686102,23.64862668547412,0 91.84032886690433,23.64858926819647,0 91.84038641590242,23.6485270540588,0 91.84051197095505,23.64849169678169,0 91.84066580630068,23.64840165921659,0 91.84078811896391,23.64833729535242,0 91.84078658678749,23.64827714934384,0 91.8408709065607,23.64812794568267,0 91.8408961637388,23.64801447947198,0 91.84088379891172,23.64791544564402,0 91.84092237928645,23.64787709166578,0 91.84102431633205,23.64785922050084,0 91.84096741624869,23.64778814119745,0 91.84100487556859,23.64762245893056,0 91.84089521732506,23.64751502973814,0 91.84088407013256,23.64742648920376,0 91.84084247606185,23.64737235534633,0 91.84087613755297,23.64728066103765,0 91.84082265912653,23.64723833382426,0 91.84085716067362,23.6472003250183,0 91.84096305194929,23.64716034001411,0 91.8411224343548,23.64709158282944,0 91.84145437828587,23.6471614005526,0 91.84180784315892,23.64738790925189,0 91.84202948258717,23.64746235046052,0 91.8422190588979,23.64751805265087,0 91.84236690707296,23.64752723817194,0 91.84249271822526,23.64768177245243,0 91.84254198893697,23.64785834847995,0 91.84258407713949,23.64795288677149,0 91.84268484638535,23.64823692031259,0 91.84271255113242,23.64855911926311,0 91.84276933295801,23.64879027687277,0 91.84286104432051,23.64915578164329,0 91.84284326342664,23.64935965114973,0 91.84272391207037,23.64952611843167,0 91.84254165184836,23.64955434154231,0 91.84238068644501,23.64951134431506,0 91.84221255708776,23.64943536371358,0 91.8419770986384,23.64938946585928,0 91.84176082204439,23.64939496381774,0 91.84147709238655,23.64941218143674,0 91.84129879988606,23.64954341500029,0 91.84105364325367,23.6498189157833,0 91.84086848846805,23.64989943974868,0 
					</coordinates>
				</LinearRing>
			</outerBoundaryIs>
		</Polygon>
		<atom:link rel="app" href="https://www.google.com/earth/about/versions/#earth-pro" title="Google Earth Pro 7.3.7.1155"></atom:link>
	</Placemark>
</Document>
</kml>
