<?xml version="1.0" encoding="UTF-8"?>
<kml xmlns="http://www.opengis.net/kml/2.2" xmlns:gx="http://www.google.com/kml/ext/2.2" xmlns:kml="http://www.opengis.net/kml/2.2" xmlns:atom="http://www.w3.org/2005/Atom">
<Document>
	<name>1778219515426.kml</name>
	<StyleMap id="msn_ylw-pushpin">
		<Pair>
			<key>normal</key>
			<styleUrl>#sn_ylw-pushpin</styleUrl>
		</Pair>
		<Pair>
			<key>highlight</key>
			<styleUrl>#sh_ylw-pushpin</styleUrl>
		</Pair>
	</StyleMap>
	<Style id="sh_ylw-pushpin">
		<IconStyle>
			<scale>1.3</scale>
			<Icon>
				<href>http://maps.google.com/mapfiles/kml/pushpin/ylw-pushpin.png</href>
			</Icon>
			<hotSpot x="20" y="2" xunits="pixels" yunits="pixels"/>
		</IconStyle>
		<BalloonStyle>
		</BalloonStyle>
		<PolyStyle>
			<fill>0</fill>
		</PolyStyle>
	</Style>
	<Style id="sn_ylw-pushpin">
		<IconStyle>
			<scale>1.1</scale>
			<Icon>
				<href>http://maps.google.com/mapfiles/kml/pushpin/ylw-pushpin.png</href>
			</Icon>
			<hotSpot x="20" y="2" xunits="pixels" yunits="pixels"/>
		</IconStyle>
		<BalloonStyle>
		</BalloonStyle>
		<PolyStyle>
			<fill>0</fill>
		</PolyStyle>
	</Style>
	<Placemark>
		<name>1778219515426</name>
		<styleUrl>#msn_ylw-pushpin</styleUrl>
		<Polygon>
			<tessellate>1</tessellate>
			<outerBoundaryIs>
				<LinearRing>
					<coordinates>
						91.73008980370989,23.59995162081001,0 91.7300008360267,23.5997953095392,0 91.72994253140499,23.599634158228,0 91.72995647341021,23.59960992237271,0 91.7299600427701,23.59958880820381,0 91.7299547102876,23.59956432195916,0 91.72995249838151,23.5995495025017,0 91.72995385003566,23.59951390566054,0 91.72995861307005,23.59948724241672,0 91.72996928093301,23.59946053732404,0 91.72998697086581,23.59944121541048,0 91.72999264903807,23.59941260753423,0 91.7299913617999,23.59939611698908,0 91.72998767337087,23.59936895938077,0 91.729987529296,23.59934700852077,0 91.72998738606944,23.59932516701029,0 91.72999285134776,23.59930071438907,0 91.73000226505957,23.59927723288316,0 91.73002586108362,23.59925121120298,0 91.73003761730374,23.59923821848646,0 91.73004053756961,23.59920380255353,0 91.73002469291465,23.59919463011234,0 91.7300055612556,23.59918029375486,0 91.72999036967033,23.59916991418042,0 91.7299640597291,23.59917101051213,0 91.72994777088991,23.5991660915889,0 91.72995248291903,23.59904711640533,0 91.73002145367562,23.59887963649783,0 91.73007077030096,23.59870168042811,0 91.73009555801576,23.59873306882522,0 91.73009693611417,23.59872748341477,0 91.7301227566681,23.59872401649782,0 91.73013836391047,23.59872776469846,0 91.73016416035006,23.59872421689741,0 91.7301711776273,23.59872914523222,0 91.73019263738507,23.59872618832605,0 91.73021100522983,23.59873545827112,0 91.73023086920645,23.5987387329583,0 91.73024343417516,23.5987549628069,0 91.73026168183786,23.59876485451236,0 91.7302757591704,23.59877519094884,0 91.73029272632148,23.59879117299603,0 91.73030553743993,23.59880765359322,0 91.73032265426505,23.59882378750308,0 91.73034118732957,23.59883386847075,0 91.73035426496827,23.59885038493569,0 91.73036878201546,23.59886064535547,0 91.73038632937815,23.59887662497897,0 91.73040782888057,23.59887394748478,0 91.73042817674964,23.59887710592017,0 91.73044429787655,23.59888063666133,0 91.73047052315982,23.59887606220879,0 91.73048796653117,23.59887301962402,0 91.73051407135858,23.59886846613793,0 91.73052453682996,23.59887925531511,0 91.73054504422122,23.59888185885789,0 91.73056989748966,23.59888366560325,0 91.73058359178907,23.59890026633011,0 91.7305973515474,23.59891694690517,0 91.73061991187897,23.59893208050731,0 91.73063500007459,23.5989422018071,0 91.7306469258197,23.59894645429917,0 91.73066971570495,23.59893619492527,0 91.73068370721451,23.59892767499669,0 91.73070726807069,23.59891139624146,0 91.7307274267887,23.59888950282769,0 91.73074644052038,23.59887411865903,0 91.73077380100821,23.59885750874781,0 91.73080702228346,23.59882785061487,0 91.73081722011045,23.59881411029638,0 91.73083832433073,23.59878358333028,0 91.73085432059337,23.59875682099379,0 91.73086299980784,23.59872471366926,0 91.73087372579734,23.59870539228423,0 91.73087822052996,23.59867419371373,0 91.73088173527822,23.59864965415112,0 91.73088737712257,23.5986088884549,0 91.73090185848935,23.59855852806173,0 91.73090863540841,23.59853643702951,0 91.73091749310143,23.59849830615516,0 91.73092031724288,23.5984768369913,0 91.73092241594449,23.59846085651647,0 91.73097745995072,23.59844365580257,0 91.73120480350983,23.59842455158287,0 91.73135847006058,23.59841491115359,0 91.73147460943406,23.59840470687272,0 91.73154419687938,23.59830986803606,0 91.73170955559475,23.59825264103446,0 91.7317307733947,23.59815275518893,0 91.73173056260696,23.59812290855047,0 91.73173407089594,23.59811150582092,0 91.73173395748782,23.59809290460757,0 91.73173384453713,23.59807439057075,0 91.73173373218349,23.59805596337916,0 91.73173362033131,23.598037622085,0 91.73173348674909,23.5980157253304,0 91.73173339819849,23.59800119523815,0 91.73173326586777,23.59797950132207,0 91.73173313484051,23.59795795621863,0 91.7317330553433,23.59794402887374,0 91.73172950281635,23.59793373808351,0 91.73172942341074,23.59791708899522,0 91.73172587145402,23.59790354674312,0 91.73172579888194,23.59788700877178,0 91.73171877700818,23.59787001086403,0 91.73171872938512,23.59785687491041,0 91.73171519723391,23.59783699581158,0 91.73171514444957,23.59782070211565,0 91.73171855216744,23.59780795148987,0 91.73171848182039,23.5977885295541,0 91.73171843503201,23.59777562776519,0 91.73171838522209,23.59775769000335,0 91.73172176456467,23.59774012152933,0 91.73172171111426,23.59772236863015,0 91.73172167561486,23.59771056271168,0 91.73172161354563,23.59768995856437,0 91.73172156945145,23.59767528493344,0 91.73172150776632,23.59765480264758,0 91.73172827541896,23.59764361370663,0 91.73172822323022,23.5976290514424,0 91.73172816076591,23.59761162393919,0 91.73172811586059,23.59759987337567,0 91.73172805515655,23.59758499631906,0 91.73172461588992,23.59756995511702,0 91.7317211769894,23.59755200750514,0 91.73172112656198,23.59753726983368,0 91.73172108626896,23.59752551004716,0 91.73172776632575,23.59751417671578,0 91.73174787274564,23.59750365890612,0 91.73175453755742,23.59749528342723,0 91.73176455222752,23.59748711550156,0 91.73177452521875,23.59747592510786,0 91.73178450318903,23.59746755938134,0 91.7317978203768,23.59745935992686,0 91.73180441945016,23.59745086090798,0 91.73181431904143,23.59743959959258,0 91.7318241933651,23.59742827569754,0 91.73183068491409,23.59741656991286,0 91.73183377033357,23.59740174642096,0 91.73183689795069,23.59738995348932,0 91.73183668850335,23.59737803946234,0 91.73183646584665,23.59736599453576,0 91.73184618609527,23.597354247087,0 91.7318559438306,23.59734552924456,0 91.73186906153009,23.59733991912303,0 91.73188562492079,23.59734040044398,0 91.73189563453977,23.59734359653681,0 91.73191225345205,23.59734669987088,0 91.73192217897102,23.59734676241841,0 91.73194203211479,23.59734688754601,0 91.73195526910237,23.59734697100648,0 91.731968612393,23.59735005665866,0 91.73198516295041,23.59735013080428,0 91.73200193542566,23.59735613490724,0 91.73201873277345,23.59736214780627,0 91.7320321076288,23.59736513703718,0 91.73204894577987,23.59737116329854,0 91.73206234619944,23.59737415908004,0 91.73207587077734,23.59738003787109,0 91.7320894100815,23.59738591112226,0 91.73210312945473,23.59739485616749,0 91.73212036112849,23.59740683202997,0 91.73213082750618,23.59741588184474,0 91.73214814053139,23.5974279166609,0 91.73215862335741,23.59743685613969,0 91.73217260251239,23.59744868589667,0 91.73217977717546,23.59745763912912,0 91.73218661691295,23.59746054559775,0 91.73219399162411,23.59747255898007,0 91.73220490906235,23.59748758938592,0 91.73221251446874,23.59750273262699,0 91.73221995823491,23.5975148585911,0 91.732224442975,23.59753323687214,0 91.73222837371974,23.59754242233556,0 91.73223269729922,23.59755781671243,0 91.7322401280783,23.59756978071545,0 91.73224402511354,23.59757880492652,0 91.73224851572311,23.59759717208862,0 91.73225600599771,23.59760926968978,0 91.73226000505508,23.59761862229809,0 91.73226498690813,23.59764355815876,0 91.73226572344025,23.59765588379884,0 91.73227363206772,23.59767423285042,0 91.73227456962999,23.59768974136711,0 91.73227892066696,23.59770519854329,0 91.73231028371345,23.5978117139158,0 91.73243963781294,23.59796131118267,0 91.73244912492325,23.59798142653256,0 91.73245860422068,23.59800145561568,0 91.73246095788666,23.59802407016548,0 91.7324711856501,23.59805150423297,0 91.7324731919889,23.59807059984705,0 91.73247520846522,23.59808979305088,0 91.73247642339913,23.59810135636244,0 91.73247892529102,23.59812478613483,0 91.73248403934907,23.59813726930433,0 91.7324853818848,23.59814932430449,0 91.73249523436124,23.59817046630579,0 91.7325089680993,23.5981922289281,0 91.73252615431923,23.59821052996116,0 91.73253623244553,23.59823207202488,0 91.73254876339465,23.59824182469413,0 91.73255796892502,23.59825525950455,0 91.73257210263262,23.59827760594048,0 91.73259434640276,23.59830177264104,0 91.73261222012655,23.59832109712222,0 91.73263376975247,23.59833732160009,0 91.73265090838223,23.59834874584624,0 91.7326676270231,23.59835614448956,0 91.73268541302122,23.59837174582575,0 91.73269971553592,23.59839069672723,0 91.73271051277645,23.59841303836054,0 91.73272138458363,23.59843553923866,0 91.73272820955773,23.59845738030329,0 91.7327445008775,23.59849234003613,0 91.7327459547945,23.59850452596966,0 91.73275211662322,23.59852182694533,0 91.73275892083433,23.59854364701951,0 91.73276146166076,23.59856440871461,0 91.73275539972529,23.59858289139068,0 91.73274884314525,23.5985973276657,0 91.73274710395665,23.59861725225458,0 91.73274439181202,23.59862894055756,0 91.73274196292893,23.5986442624458,0 91.73273070404602,23.59865389603971,0 91.73272398358033,23.59866821527836,0 91.73271724874679,23.59868256442386,0 91.73271505471351,23.59870165472778,0 91.73271285332228,23.59872080925312,0 91.73270985918204,23.59873203244045,0 91.73270307353019,23.59874652595119,0 91.73269254174707,23.59876170849482,0 91.73267677616039,23.59876448334309,0 91.73266150042164,23.59877165447122,0 91.73264262464689,23.59878283154936,0 91.73263090320479,23.59878601810602,0 91.73261558181193,23.59879321061174,0 91.73260071262249,23.59880485798187,0 91.73258550750407,23.59881263023045,0 91.73256757536937,23.59882783446767,0 91.7325536217139,23.59884341231054,0 91.73254296664376,23.59885386298048,0 91.73252890762026,23.59886955554402,0 91.73251478658116,23.59888531695006,0 91.73249802812141,23.59891269706853,0 91.73248818021361,23.59893036738786,0 91.73247369891513,23.59894293977248,0 91.73245978079711,23.59896115010055,0 91.73244120305853,23.59897422143265,0 91.73243146914433,23.59899391991524,0 91.73241783697669,23.59901489772342,0 91.73241359296715,23.5990480319746,0 91.73240531614144,23.5990821856182,0 91.73240354986109,23.59910254370369,0 91.73240794944182,23.59914188256215,0 91.73241232002404,23.59918128142079,0 91.73241179841833,23.59921450782863,0 91.73241618222436,23.59925450034839,0 91.73241567466796,23.59928847417633,0 91.7324186396997,23.59931568192022,0 91.73241661767284,23.59933635584014,0 91.73241079659709,23.59936288842306,0 91.73240498277235,23.59938990203546,0 91.73239571138426,23.5994252142594,0 91.73237361360776,23.59946296340015,0 91.73235135876443,23.5995048518486,0 91.73233615283688,23.59953170805956,0 91.73231552069221,23.5995468791675,0 91.73229818751867,23.59954910748118,0 91.73227700560673,23.5995584799525,0 91.73225440519603,23.59954900398779,0 91.73223274051462,23.59955235166552,0 91.73221987062374,23.59955545592118,0 91.73219756879101,23.59954808219089,0 91.73217605102975,23.59955325525361,0 91.73215443445194,23.59955808038982,0 91.73212407009555,23.59956472955795,0 91.73209360434451,23.59957140103606,0 91.73177572733307,23.59976238391556,0 91.73151295187895,23.60013463973964,0 91.73133365334343,23.60033050994161,0 91.73114834597753,23.60041886809177,0 91.7311264737784,23.60073145263667,0 91.73102340889193,23.60098367186313,0 91.73075845274826,23.60089099959603,0 91.73061872956865,23.60060936054029,0 91.7304852282932,23.60053021933079,0 91.73043278843151,23.60026954879912,0 91.73033003116294,23.60027839540021,0 91.73022853109023,23.60009992868049,0 91.73008980370989,23.59995162081001,0 
					</coordinates>
				</LinearRing>
			</outerBoundaryIs>
		</Polygon>
		<atom:link rel="app" href="https://www.google.com/earth/about/versions/#earth-pro" title="Google Earth Pro 7.3.7.1155"></atom:link>
	</Placemark>
</Document>
</kml>
