<?xml version="1.0" encoding="UTF-8"?>
<kml xmlns="http://www.opengis.net/kml/2.2" xmlns:gx="http://www.google.com/kml/ext/2.2" xmlns:kml="http://www.opengis.net/kml/2.2" xmlns:atom="http://www.w3.org/2005/Atom">
<Document>
	<name>1778239203261.kml</name>
	<StyleMap id="msn_ylw-pushpin">
		<Pair>
			<key>normal</key>
			<styleUrl>#sn_ylw-pushpin</styleUrl>
		</Pair>
		<Pair>
			<key>highlight</key>
			<styleUrl>#sh_ylw-pushpin</styleUrl>
		</Pair>
	</StyleMap>
	<Style id="sh_ylw-pushpin">
		<IconStyle>
			<scale>1.3</scale>
			<Icon>
				<href>http://maps.google.com/mapfiles/kml/pushpin/ylw-pushpin.png</href>
			</Icon>
			<hotSpot x="20" y="2" xunits="pixels" yunits="pixels"/>
		</IconStyle>
		<BalloonStyle>
		</BalloonStyle>
		<PolyStyle>
			<fill>0</fill>
		</PolyStyle>
	</Style>
	<Style id="sn_ylw-pushpin">
		<IconStyle>
			<scale>1.1</scale>
			<Icon>
				<href>http://maps.google.com/mapfiles/kml/pushpin/ylw-pushpin.png</href>
			</Icon>
			<hotSpot x="20" y="2" xunits="pixels" yunits="pixels"/>
		</IconStyle>
		<BalloonStyle>
		</BalloonStyle>
		<PolyStyle>
			<fill>0</fill>
		</PolyStyle>
	</Style>
	<Placemark>
		<name>1778239203261</name>
		<styleUrl>#msn_ylw-pushpin</styleUrl>
		<Polygon>
			<tessellate>1</tessellate>
			<outerBoundaryIs>
				<LinearRing>
					<coordinates>
						91.54395222648989,23.63151315990828,0 91.54388186091944,23.63134688724077,0 91.54394215974378,23.63111831245498,0 91.54386628904197,23.63106496867222,0 91.54379471632178,23.63098049348737,0 91.54379206318903,23.63086263105494,0 91.54381165632203,23.63076430325727,0 91.54394740308842,23.63072568009819,0 91.54397976458958,23.63069349937762,0 91.54402739777825,23.63058747612965,0 91.54416907826024,23.63055827669735,0 91.54421208740213,23.63048843566783,0 91.5442088357979,23.6304415536059,0 91.54428586186378,23.63040427111377,0 91.54430258415886,23.6304008622012,0 91.54431927608354,23.63039745970626,0 91.54433631220289,23.63039116836784,0 91.5443623156084,23.63039037565506,0 91.54437782300677,23.63039566280704,0 91.5443936875311,23.630398056729,0 91.54440989352061,23.63039755762325,0 91.54442249912557,23.63040004918684,0 91.54444845995785,23.63039917953664,0 91.54446517947702,23.63039559617669,0 91.54448512339742,23.63039188650347,0 91.54451538585475,23.6303820586433,0 91.54454164470441,23.63037814187508,0 91.54456488929323,23.63037150990003,0 91.54458161058534,23.63036515758168,0 91.54460944836406,23.63034415217598,0 91.54463096089853,23.63032073735513,0 91.54464166008407,23.63030909198561,0 91.54466159408013,23.63029992907633,0 91.54467193293178,23.630291160942,0 91.54469287643204,23.63027083055515,0 91.54471950318651,23.63025591743967,0 91.54473577846088,23.63024975921262,0 91.5447522520853,23.63024085519245,0 91.5447686652128,23.63023198383983,0 91.54479488205327,23.63021727563933,0 91.54481713908852,23.63021098899227,0 91.54484261106485,23.63020190317379,0 91.54486468742299,23.63019567104043,0 91.54488015010432,23.63019507700091,0 91.54492022219705,23.63019353762714,0 91.54494174281457,23.6301926883996,0 91.54496004350246,23.63019208139879,0 91.54498405258666,23.63019418971759,0 91.54499869764543,23.63020187205601,0 91.54501608652244,23.63021485910828,0 91.54503620661264,23.63023075077391,0 91.54505649703427,23.63024400317891,0 91.5450798548172,23.63025720430372,0 91.54511563672449,23.63026455172951,0 91.54515681747553,23.6302780291776,0 91.54518009206195,23.63029182796412,0 91.54521221077044,23.63031122859254,0 91.54523882146353,23.63032217880671,0 91.54526862193335,23.63033019053164,0 91.54529243393927,23.63033832028432,0 91.54532465242299,23.63036195069565,0 91.54535949571152,23.63041528174333,0 91.54541001589433,23.63048524898306,0 91.54547410313241,23.63057636561064,0 91.54549593965714,23.6305870425951,0 91.54551161312943,23.63059751392949,0 91.54553052789007,23.63061141903973,0 91.54554956163513,23.63062541160491,0 91.54556881324167,23.63064914923978,0 91.54560107199343,23.63067398718857,0 91.54561419717461,23.63069119194903,0 91.54561765049552,23.6307045387277,0 91.54562753495844,23.63071510353465,0 91.54564382136067,23.63071959753725,0 91.54568037111198,23.63074901477522,0 91.54569368905493,23.63075674534252,0 91.54571727669074,23.63077538089538,0 91.54573074359112,23.63078320728689,0 91.54573761380233,23.6307905092443,0 91.54575487674867,23.63080885715331,0 91.54577534540569,23.63082078583371,0 91.54580297178103,23.63084023687353,0 91.5458268444974,23.63084875282684,0 91.54584419638996,23.63086015062673,0 91.54586483047991,23.630868334553,0 91.54587875887532,23.63087613012909,0 91.54590334663251,23.63089158525697,0 91.54592103493756,23.63090318677999,0 91.54592808810354,23.63090713269194,0 91.54596649206786,23.63092008624487,0 91.54597681276736,23.63092074238435,0 91.54599457417626,23.63093186411622,0 91.54600525578986,23.63093910428727,0 91.54605818637202,23.63096197603771,0 91.54607227559256,23.63096614521201,0 91.54610723339414,23.63097141064168,0 91.54611766655192,23.63097195552488,0 91.54614177351726,23.63096976611483,0 91.5461886105717,23.63095952279121,0 91.54622599530828,23.63095952032467,0 91.54624289523582,23.63095648273112,0 91.54630385937683,23.63094754877661,0 91.54633096839811,23.63094457235771,0 91.5463577859564,23.63094112608235,0 91.54636433858164,23.63093788267525,0 91.54638829376459,23.63093818574488,0 91.54641278875755,23.63094501880508,0 91.54642542171639,23.63093213907169,0 91.54649965898432,23.6309591759073,0 91.54652781907194,23.63096905105642,0 91.54653464277375,23.6309690622433,0 91.54656005806514,23.63098552479203,0 91.54657776736421,23.63099213590689,0 91.54660301856994,23.63100541668275,0 91.54661396598203,23.63101208158105,0 91.54663997516803,23.63103204765803,0 91.54667051493527,23.63106205570423,0 91.54668201714762,23.63107227508509,0 91.54669255615788,23.63107255670295,0 91.54671280333565,23.63109382644739,0 91.54672835444545,23.63110476805864,0 91.54675408160178,23.63111252152585,0 91.54677632678892,23.63112019163502,0 91.54679964289643,23.63113496347784,0 91.54681897033416,23.63114613280744,0 91.54684645273032,23.63116456332491,0 91.54686964367728,23.63117902933504,0 91.54689535271555,23.63118641896388,0 91.54692110925521,23.63119382217292,0 91.5469510070937,23.63120486522305,0 91.54697037818163,23.63121583189705,0 91.54700579828192,23.63123789754749,0 91.54702886294569,23.63124898333639,0 91.54707032001659,23.63128555764595,0 91.54710253928377,23.63130775751806,0 91.54712230659075,23.6313189562925,0 91.54714212473084,23.63133018365848,0 91.54717406333732,23.63134894014128,0 91.54720074686911,23.63135982316392,0 91.54723195889716,23.63137768935127,0 91.54726294683412,23.63141409397626,0 91.54727058527513,23.63143349159105,0 91.54729024190657,23.63145728517275,0 91.54730907766148,23.63147717991668,0 91.54732255611356,23.63148912601257,0 91.54732990821469,23.63150530012308,0 91.54733276786169,23.63151752257132,0 91.54733493698933,23.63154214766768,0 91.54734070848797,23.63156686379269,0 91.54734115277797,23.63158368615746,0 91.54734281157791,23.63160502756681,0 91.54734954666836,23.63164773941849,0 91.54735776931983,23.6316820460599,0 91.54736059986443,23.63173904971161,0 91.54732119922976,23.63178315471607,0 91.54728968257999,23.6318322033167,0 91.54724871876249,23.6318413082386,0 91.5472395616013,23.63184747229959,0 91.54722462124943,23.63185935380348,0 91.54721876315301,23.63187977995893,0 91.54720356899628,23.63190664386203,0 91.54719187634136,23.63191827714342,0 91.54718001492918,23.63192979471682,0 91.54716517391289,23.63194596754645,0 91.54714832541221,23.63197163513181,0 91.54712946056969,23.63198810842938,0 91.54711858477023,23.63198933068673,0 91.54710592469308,23.63200037076523,0 91.54707830563724,23.63201259444572,0 91.5470581254649,23.63202772929512,0 91.54704303417317,23.63202868233284,0 91.54702950621049,23.63203881309508,0 91.54701293336173,23.63205382174889,0 91.54700310131615,23.63206376074776,0 91.54698851387042,23.63209243216614,0 91.54697496655123,23.63210636405386,0 91.54695995551018,23.63211115912554,0 91.54693047937417,23.63212518239726,0 91.54692324698684,23.63212980551646,0 91.54689424624415,23.63214834403573,0 91.54687088682726,23.63215266762819,0 91.546842734208,23.63215209698008,0 91.54683029020788,23.63214775571858,0 91.54680640497581,23.63214771598477,0 91.54677103385075,23.63215193946217,0 91.54674405163124,23.63216046802926,0 91.5467175119165,23.63217675299241,0 91.54670975717629,23.63218058033818,0 91.54668277190119,23.63219606677898,0 91.54667977993512,23.63220839549465,0 91.5466609994386,23.6322279381872,0 91.54665681900352,23.63222751170565,0 91.54664082093645,23.63223420634986,0 91.54661286341583,23.63225105661379,0 91.54659594212207,23.63224873973081,0 91.54657088643266,23.63224931623274,0 91.54654194032679,23.6322533554231,0 91.54651305087117,23.63225738657789,0 91.54649654109681,23.63225913376555,0 91.54647666737075,23.63227257554115,0 91.54645712589871,23.63230371648195,0 91.54643720928223,23.6323271055457,0 91.54642914218333,23.63233347986684,0 91.54639604466216,23.63233289293376,0 91.54636343354356,23.63234026390731,0 91.54634357851013,23.63235695325855,0 91.5463194553798,23.63236927240216,0 91.54630350223624,23.63238235266067,0 91.54628330852597,23.63239108755389,0 91.5462670018658,23.63239278530829,0 91.54623892506802,23.63240152987136,0 91.54621116070354,23.6324180997402,0 91.54620752205928,23.63242942762333,0 91.54617513473025,23.6324298816529,0 91.54614671901203,23.63242345777039,0 91.54611872882396,23.63241875409518,0 91.54610298928117,23.63241913531647,0 91.54607920930341,23.63241556635921,0 91.54603121295544,23.63239602856055,0 91.54602727945208,23.63239612310932,0 91.5459348886906,23.6323397563183,0 91.54590677721689,23.63231940032342,0 91.54587895423433,23.63230726439501,0 91.5458514701558,23.63230739173016,0 91.54582009035744,23.63230452892989,0 91.54578497336436,23.63230696514204,0 91.54576543418732,23.6323082890163,0 91.54574205350669,23.63231424931434,0 91.54573030300996,23.63231504662967,0 91.54570278291492,23.63231253364149,0 91.54568694990692,23.63230485223496,0 91.54565526226614,23.63228514885089,0 91.54563547848956,23.6322729438531,0 91.54561971287299,23.63226870661245,0 91.54560396209335,23.63226458276068,0 91.54556859996596,23.63226121824505,0 91.54553720122163,23.63226716274799,0 91.54551361357424,23.63227281405408,0 91.54548209511695,23.63228320957409,0 91.54545449004853,23.63228402212695,0 91.54543477347995,23.63228415132028,0 91.54542294262609,23.63228422885741,0 91.54537976050769,23.63227009198732,0 91.54534843961042,23.63226041701958,0 91.54532908331413,23.63224575369471,0 91.54530944543508,23.6322458902407,0 91.54529386522165,23.63224100606331,0 91.54526285354562,23.63223020485777,0 91.54524379170419,23.63221491983943,0 91.54523242367188,23.63220480455271,0 91.54521400287531,23.63217509746539,0 91.545202910364,23.63216026867564,0 91.54517661376822,23.63214023243782,0 91.54515024963406,23.63212507158729,0 91.54513120824195,23.63211990406157,0 91.54510479174502,23.63210948972193,0 91.54508620482852,23.63209879386277,0 91.54507152029382,23.63208813845285,0 91.54505656001336,23.63208258386071,0 91.54503848736367,23.63206681332756,0 91.5450136135933,23.63204085306466,0 91.54499612192923,23.63202030068706,0 91.54498967151838,23.63200517122164,0 91.54498738050872,23.63198529312229,0 91.5449742369466,23.63196029883393,0 91.54495372596277,23.63193529673018,0 91.54494353795373,23.63192125303714,0 91.54492259062897,23.63190240233055,0 91.54491250136131,23.63188851282938,0 91.54489470516668,23.63187895268335,0 91.54486578379969,23.63186947535823,0 91.54483939629156,23.63187382282487,0 91.54481669473692,23.63187821028935,0 91.54479070241966,23.63187796292367,0 91.54477956412011,23.63187785843879,0 91.54475404361715,23.63187303599364,0 91.54473741952209,23.63185454382895,0 91.54472408405516,23.63184072910727,0 91.54471817230271,23.6318270301397,0 91.54470542242044,23.63180880457259,0 91.54467704220706,23.63179954234961,0 91.54465659706372,23.63178587858853,0 91.54463461544435,23.63178569596947,0 91.54462047094603,23.6317811957933,0 91.54460632716061,23.63177674291401,0 91.54458854800293,23.63177225779616,0 91.54456344811901,23.63176780456522,0 91.54454204929577,23.63176334207782,0 91.54451703607927,23.63175883844828,0 91.54448175704661,23.63174979590609,0 91.54446710599468,23.6317498483978,0 91.54444218897068,23.63174536199561,0 91.54442546042758,23.63173607445248,0 91.54441096804604,23.63173586527057,0 91.54439570426828,23.63174026199346,0 91.54436875075261,23.63174911988818,0 91.54434252465428,23.63175340923494,0 91.54431990656832,23.63175774562092,0 91.54430172347593,23.63175753403401,0 91.54427794820946,23.63174806760154,0 91.54425675700354,23.63172502424443,0 91.54424843235913,23.6317113458685,0 91.54424014236979,23.63169772377702,0 91.54423188634745,23.63168415769556,0 91.54422553512677,23.63167963276335,0 91.54421907027805,23.63165720761559,0 91.5441893863144,23.63164371756741,0 91.54416966595301,23.63163475540978,0 91.54410726456599,23.63160800373934,0 91.5440069020226,23.63157453816132,0 91.54395222648989,23.63151315990828,0 
					</coordinates>
				</LinearRing>
			</outerBoundaryIs>
		</Polygon>
		<atom:link rel="app" href="https://www.google.com/earth/about/versions/#earth-pro" title="Google Earth Pro 7.3.7.1155"></atom:link>
	</Placemark>
</Document>
</kml>
