<?xml version="1.0" encoding="UTF-8"?>
<kml xmlns="http://www.opengis.net/kml/2.2" xmlns:gx="http://www.google.com/kml/ext/2.2" xmlns:kml="http://www.opengis.net/kml/2.2" xmlns:atom="http://www.w3.org/2005/Atom">
<Document>
	<name>1778163741900.kml</name>
	<StyleMap id="m_ylw-pushpin">
		<Pair>
			<key>normal</key>
			<styleUrl>#s_ylw-pushpin</styleUrl>
		</Pair>
		<Pair>
			<key>highlight</key>
			<styleUrl>#s_ylw-pushpin_hl</styleUrl>
		</Pair>
	</StyleMap>
	<Style id="s_ylw-pushpin">
		<IconStyle>
			<scale>1.1</scale>
			<Icon>
				<href>http://maps.google.com/mapfiles/kml/pushpin/ylw-pushpin.png</href>
			</Icon>
			<hotSpot x="20" y="2" xunits="pixels" yunits="pixels"/>
		</IconStyle>
		<PolyStyle>
			<fill>0</fill>
		</PolyStyle>
	</Style>
	<Style id="s_ylw-pushpin_hl">
		<IconStyle>
			<scale>1.3</scale>
			<Icon>
				<href>http://maps.google.com/mapfiles/kml/pushpin/ylw-pushpin.png</href>
			</Icon>
			<hotSpot x="20" y="2" xunits="pixels" yunits="pixels"/>
		</IconStyle>
		<PolyStyle>
			<fill>0</fill>
		</PolyStyle>
	</Style>
	<Placemark>
		<name>1778163741900.kml</name>
		<styleUrl>#m_ylw-pushpin</styleUrl>
		<Polygon>
			<tessellate>1</tessellate>
			<outerBoundaryIs>
				<LinearRing>
					<coordinates>
						91.93613941094112,24.10138309741286,0 91.93614261423484,24.10137697472098,0 91.93614593762416,24.1013721816547,0 91.93614766632047,24.10137043312782,0 91.93613199322445,24.10142643391811,0 91.93614440882119,24.10141544575598,0 91.93615710509442,24.10140835145224,0 91.93615545606431,24.10139027357173,0 91.93615058784361,24.10137312328076,0 91.93613735338896,24.10137278376957,0 91.9361197860262,24.10139957889142,0 91.93611152121696,24.10142068625529,0 91.93610591708124,24.10143318766563,0 91.93609509038421,24.10146024888103,0 91.9360835563363,24.10148064825785,0 91.93576184572123,24.10143874319515,0 91.93581350006129,24.10143227941811,0 91.93576061836478,24.10139667591743,0 91.93573265718074,24.10135139122341,0 91.93571620502158,24.10131433265634,0 91.9357165565995,24.10127672850652,0 91.93566259804703,24.1012485916259,0 91.93564358555182,24.10120797061562,0 91.93565378649762,24.10115878663355,0 91.93568682603457,24.10112026200903,0 91.93570471721007,24.10108794831553,0 91.93573415972298,24.10108230888574,0 91.93577291017164,24.10100937282354,0 91.93580649012441,24.10097722982311,0 91.9358545144146,24.10097280564089,0 91.9358968623004,24.10095345484182,0 91.93593348831453,24.10094158653297,0 91.93595683025819,24.10093021395076,0 91.93600014364691,24.10094571859401,0 91.93602391499252,24.10093938884136,0 91.9360407732725,24.10093820139649,0 91.93607810591622,24.10093727055223,0 91.93611669830395,24.10095344469458,0 91.93615377747768,24.10093752243624,0 91.93618106696532,24.10095099526855,0 91.93620416890647,24.10095152842565,0 91.93623532000969,24.10092889657853,0 91.93625979766428,24.10091164270172,0 91.93628736321024,24.10090573639157,0 91.9363331171966,24.10089012887358,0 91.93636010231123,24.10087969259768,0 91.93638182717409,24.10086979180544,0 91.9364329212963,24.1008438146209,0 91.93645970130004,24.10083424803235,0 91.9364834562472,24.10082773857818,0 91.93654149368571,24.10080459771393,0 91.93656367318195,24.10079875486128,0 91.93659554319225,24.10078842027904,0 91.93663765703683,24.10076880504485,0 91.93667321732386,24.10076546180611,0 91.93670955942247,24.10074546500427,0 91.93673339440326,24.10073927948555,0 91.93676530968472,24.10074103431339,0 91.93679899542116,24.10072481823875,0 91.93686068896207,24.10068294610218,0 91.93691438963974,24.10065743399324,0 91.93694981072036,24.10063846163101,0 91.93706733295487,24.10058933240335,0 91.93709842253095,24.10057943836885,0 91.93715336613317,24.10055487261669,0 91.93721185737775,24.10053451481693,0 91.93726768336946,24.10050788286614,0 91.937308524347,24.10050062414805,0 91.93735677807882,24.10048634599776,0 91.93741236009721,24.10048663639274,0 91.93746634866935,24.10048953978896,0 91.93749977371955,24.10050360790846,0 91.93754412778154,24.10055780575612,0 91.93756729224056,24.10059205953715,0 91.93759634746618,24.10061426832138,0 91.93766637294573,24.1005759053256,0 91.93768794996265,24.10058023792513,0 91.93772872469604,24.10057652547579,0 91.9377777756724,24.1005567722671,0 91.93779130804742,24.10058472180368,0 91.93781256792957,24.10060689582497,0 91.93783970652073,24.10062271446433,0 91.93786084068763,24.10063331385164,0 91.93787676260067,24.10065092914519,0 91.93788422820984,24.10067168063971,0 91.93790705574409,24.10071508081165,0 91.93788251401621,24.10070644883783,0 91.93788978338431,24.10075662688019,0 91.93790123066128,24.10078011344103,0 91.93791093359745,24.10080451853916,0 91.93790306973482,24.10082766945506,0 91.93794329906513,24.10089274474252,0 91.93794961290969,24.10091054063414,0 91.93796432427777,24.10094150207583,0 91.9379780952855,24.10102295684271,0 91.93798045430084,24.10108751851309,0 91.93798213010042,24.10112894375162,0 91.9379566206689,24.10109041225295,0 91.93804153858184,24.10118460956507,0 91.93796411875937,24.10120007980765,0 91.93792066917752,24.10123801887857,0 91.93788691323788,24.10126365085747,0 91.93782825903622,24.1012930865238,0 91.93778254431501,24.10131820905053,0 91.93769130798987,24.10128384469326,0 91.93767592115283,24.1012841209013,0 91.9376342675543,24.1012924383695,0 91.93760423402287,24.10133574414112,0 91.93758957109449,24.10136099120018,0 91.93756216337023,24.10138720110232,0 91.93754687235757,24.10143814491489,0 91.93750641827882,24.10145098510026,0 91.93750705238186,24.10154966204184,0 91.9375053003055,24.10157389230721,0 91.9374806430539,24.10160660724397,0 91.93747616065009,24.1016680525332,0 91.93742697855465,24.10171008968475,0 91.93738264078648,24.10177288307377,0 91.93735476241375,24.10182657301851,0 91.93732501628483,24.10186389413607,0 91.93731177561514,24.10189505297346,0 91.93727559994632,24.10194871425022,0 91.93718527876507,24.10195273955331,0 91.93714129240416,24.10193559936915,0 91.93707874998779,24.10181265423071,0 91.93702361761652,24.10169949658375,0 91.93695053707442,24.10165305297934,0 91.93688823418361,24.10162896047134,0 91.93683428202419,24.10155822459334,0 91.93682009999101,24.10151194478775,0 91.93680460329476,24.10149615751811,0 91.93672942938855,24.10150509367892,0 91.93667721778682,24.10154411129665,0 91.93661616933817,24.10151044679572,0 91.93657708978586,24.10150362556436,0 91.93651395230225,24.10153094300369,0 91.93645994862696,24.10156496069736,0 91.93642232295042,24.1015771583946,0 91.93638799640129,24.10159719630344,0 91.93636820495885,24.10161425089654,0 91.93629730898948,24.10162747678846,0 91.93624114168095,24.101612080529,0 91.93613941094112,24.10138309741286,0 
					</coordinates>
				</LinearRing>
			</outerBoundaryIs>
		</Polygon>
		<atom:link rel="app" href="https://www.google.com/earth/about/versions/#earth-pro" title="Google Earth Pro 7.3.7.1155"></atom:link>
	</Placemark>
</Document>
</kml>
