<?xml version="1.0" encoding="UTF-8"?>
<kml xmlns="http://www.opengis.net/kml/2.2" xmlns:gx="http://www.google.com/kml/ext/2.2" xmlns:kml="http://www.opengis.net/kml/2.2" xmlns:atom="http://www.w3.org/2005/Atom">
<Document>
	<name>Pre Survey Map of KML at Rabamani Para under Kanchancherra Beat of Element ANR Bamboo 11.00 Ha.kml</name>
	<Style id="s_ylw-pushpin_hl">
		<IconStyle>
			<scale>1.3</scale>
			<Icon>
				<href>https://maps.google.com/mapfiles/kml/pushpin/ylw-pushpin.png</href>
			</Icon>
			<hotSpot x="20" y="2" xunits="pixels" yunits="pixels"/>
		</IconStyle>
	</Style>
	<Style id="s_ylw-pushpin">
		<IconStyle>
			<scale>1.1</scale>
			<Icon>
				<href>https://maps.google.com/mapfiles/kml/pushpin/ylw-pushpin.png</href>
			</Icon>
			<hotSpot x="20" y="2" xunits="pixels" yunits="pixels"/>
		</IconStyle>
	</Style>
	<StyleMap id="m_ylw-pushpin">
		<Pair>
			<key>normal</key>
			<styleUrl>#s_ylw-pushpin</styleUrl>
		</Pair>
		<Pair>
			<key>highlight</key>
			<styleUrl>#s_ylw-pushpin_hl</styleUrl>
		</Pair>
	</StyleMap>
	<Placemark id="07D41834023F3AFFD34B">
		<name>Untitled Polygon</name>
		<styleUrl>#m_ylw-pushpin</styleUrl>
		<Polygon>
			<tessellate>1</tessellate>
			<outerBoundaryIs>
				<LinearRing>
					<coordinates>
						92.14786940903764,24.00090903802932,0 92.14764196240151,24.00104706678331,0 92.14750817376594,24.00108070045178,0 92.14747196153905,24.00110342500001,0 92.14738686096479,24.00115908501412,0 92.14733817216052,24.00120340333938,0 92.14727670890299,24.0012354520183,0 92.14724003380023,24.00126831351306,0 92.14719079898497,24.00128926535366,0 92.14715365174956,24.00132088137397,0 92.14710399777515,24.00134052349936,0 92.14695610925743,24.00134626378905,0 92.14679644340185,24.00131865386074,0 92.1466984049402,24.00128208911996,0 92.14653948989019,24.00118827521859,0 92.14650284665831,24.00116469618984,0 92.14645406092541,24.00114061567952,0 92.14639321019703,24.00110527952761,0 92.1463081131366,24.00103573667337,0 92.14629596959735,24.00102421751354,0 92.1462594114559,24.00096674244725,0 92.14621073656099,24.00088624385493,0 92.14619834072764,24.00080706889611,0 92.1461980652948,24.00072891025465,0 92.14623396718071,24.00065249899814,0 92.14628206089124,24.00059912929471,0 92.1463301002084,24.00053442680602,0 92.14637820860675,24.00048080897198,0 92.14648664296591,24.00040656032625,0 92.14649863202307,24.00037394244885,0 92.14657075898958,24.00030909963169,0 92.14659480216767,24.00027662162107,0 92.14659471755012,24.00020041978842,0 92.14655856756499,24.00016749437702,0 92.14642615608338,24.00012284257832,0 92.14630580076246,24.00008861272653,0 92.14616164988715,24.00004326993865,0 92.14611364321075,24.00000995214156,0 92.14607764783092,23.99997670348107,0 92.1460535016071,23.99989881620411,0 92.14600547912842,23.99980944181826,0 92.14596955984328,23.99973157931046,0 92.14595761551898,23.99970935492652,0 92.1459337324744,23.99963195001789,0 92.14592180466443,23.99957687409735,0 92.14592173962829,23.99948893338252,0 92.14592171552772,23.99945602621915,0 92.14592165874083,23.99937939169565,0 92.14592159425953,23.99929206430063,0 92.14592155427455,23.99923762160203,0 92.14593326054747,23.99913977632082,0 92.14593323170598,23.99910732519123,0 92.14600370080349,23.99895711495538,0 92.1460154285906,23.99890381609602,0 92.14601539517888,23.99882929035127,0 92.1459918508229,23.99873351046765,0 92.14596833019321,23.99864845193128,0 92.14596832804305,23.99859538288736,0 92.14595653676446,23.9985102563959,0 92.14595650184356,23.99843587326605,0 92.14595646371662,23.99839333404924,0 92.1459564011507,23.99832960161788,0 92.14599152967135,23.99827663069969,0 92.14604996136288,23.99819190359712,0 92.1461083450144,23.99813902199579,0 92.14614326956277,23.99809677058968,0 92.14620158234173,23.99805455550712,0 92.1463063461956,23.99797024957521,0 92.14637616082076,23.99792815425947,0 92.1464694791422,23.99789653552473,0 92.14657445455872,23.99786491993284,0 92.14665556335227,23.99782298208629,0 92.14670173924175,23.997791573843,0 92.14675959790632,23.99777068719908,0 92.14684087053543,23.9977602644981,0 92.14688741350847,23.99776027711694,0 92.14695722179059,23.99776029611797,0 92.14702718735188,23.99776026048439,0 92.1470972754833,23.99776018914189,0 92.14721414622467,23.99776007006878,0 92.14726067554027,23.99774956279921,0 92.14733083743441,23.9977494892686,0 92.14741272568955,23.99774940340512,0 92.14750632284697,23.99774930980707,0 92.14757710141073,23.99778072917824,0 92.14762417379657,23.99779118109978,0 92.14773029094547,23.99782260640974,0 92.14778902443075,23.99782254250693,0 92.14784796618406,23.99783299919924,0 92.14794248254353,23.99785394793225,0 92.14804888624562,23.99787490692568,0 92.1481198261568,23.99788537778657,0 92.14820241605553,23.99788529540184,0 92.14827366427404,23.99790633046728,0 92.14840452548307,23.9979378814186,0 92.14846435246912,23.99795895881353,0 92.14848836918893,23.9979695095106,0 92.14855977281155,23.99798003429106,0 92.14864381940379,23.99801172659454,0 92.14865604557603,23.99802230902726,0 92.14871692858043,23.99805405264734,0 92.14882658290836,23.99808581381904,0 92.14891241491782,23.99810702480192,0 92.14897642047008,23.99816025188824,0 92.14900350492908,23.99820294952403,0 92.14902921304983,23.99822434186719,0 92.14909351218245,23.99828863786063,0 92.1491203856577,23.99833159824439,0 92.14915936577863,23.99837465707558,0 92.14924681481875,23.99841787660889,0 92.14931105626903,23.99847199024477,0 92.14933755625839,23.99850450891716,0 92.14939077403695,23.99856971383318,0 92.14941837709782,23.99861329518489,0 92.14945902513324,23.99866791471963,0 92.14948897511857,23.99873368401753,0 92.14954421230739,23.9988215643322,0 92.14958416162972,23.9988765325878,0 92.14958984344426,23.99895371449835,0 92.1495907302843,23.99897564389141,0 92.14953192862448,23.9990194365994,0 92.14943588257748,23.99904123527545,0 92.14933941183632,23.99905205492934,0 92.1492429521293,23.99906287332608,0 92.14921953816362,23.99908479828491,0 92.1491842797832,23.99913941779105,0 92.14914801481113,23.99922637631688,0 92.14913656807222,23.99930271664472,0 92.14913677268271,23.99936805959109,0 92.14913688314027,23.9994333722189,0 92.14914942193603,23.99947708835732,0 92.1491745700601,23.99952105381031,0 92.1492119821106,23.99955424457265,0 92.14928673020171,23.9996097345056,0 92.14929934387953,23.99963176665318,0 92.1493256958732,23.99970907146688,0 92.14934005687682,23.99981921560601,0 92.1493408939432,23.99986327799663,0 92.14934225674459,23.99989671117151,0 92.14930713337826,23.99996282281987,0 92.1492597656964,24.00002890102959,0 92.14922440567054,24.00006220907035,0 92.14916587652284,24.00016175939733,0 92.14913027131722,24.00020594325786,0 92.14910688785598,24.00025023081721,0 92.1489986148875,24.00032729802597,0 92.14891370129766,24.00036002201837,0 92.1488663731119,24.00042652360307,0 92.14884519292637,24.0005274872677,0 92.14883556802897,24.00060627103375,0 92.14883852048193,24.0006965495485,0 92.14885334650882,24.00077575967414,0 92.14885483367361,24.00082104703217,0 92.14879481728056,24.0008437874317,0 92.14874704300131,24.00087763619218,0 92.14869871721014,24.00088899397367,0 92.14860177603653,24.00090045899914,0 92.14852881175695,24.00090056115481,0 92.14844353239953,24.00091152686979,0 92.14833364822277,24.00092219902951,0 92.14824870630883,24.00094454370183,0 92.14820044884057,24.00095609547665,0 92.14809167572881,24.00097918630562,0 92.14801900805425,24.00099077809999,0 92.1479346583436,24.00102515588043,0 92.14782492429782,24.00102515805986,0 92.14773978380825,24.00104751376821,0 92.14765449791194,24.00105864675696,0 92.14760565412637,24.0010585348631,0 92.14786940903764,24.00090903802932,0 
					</coordinates>
				</LinearRing>
			</outerBoundaryIs>
		</Polygon>
		<atom:link rel="app" href="https://www.google.com/earth/about/versions/#earth-pro" title="Google Earth Pro 7.3.7.1155"></atom:link>
	</Placemark>
</Document>
</kml>
