<?xml version="1.0" encoding="UTF-8"?>
<kml xmlns="http://www.opengis.net/kml/2.2" xmlns:gx="http://www.google.com/kml/ext/2.2" xmlns:kml="http://www.opengis.net/kml/2.2" xmlns:atom="http://www.w3.org/2005/Atom">
<Document>
	<name>1778166958901.kml</name>
	<StyleMap id="msn_ylw-pushpin">
		<Pair>
			<key>normal</key>
			<styleUrl>#sn_ylw-pushpin</styleUrl>
		</Pair>
		<Pair>
			<key>highlight</key>
			<styleUrl>#sh_ylw-pushpin</styleUrl>
		</Pair>
	</StyleMap>
	<Style id="sh_ylw-pushpin">
		<IconStyle>
			<scale>1.3</scale>
			<Icon>
				<href>http://maps.google.com/mapfiles/kml/pushpin/ylw-pushpin.png</href>
			</Icon>
			<hotSpot x="20" y="2" xunits="pixels" yunits="pixels"/>
		</IconStyle>
		<BalloonStyle>
		</BalloonStyle>
		<LineStyle>
			<width>2.5</width>
		</LineStyle>
		<PolyStyle>
			<fill>0</fill>
		</PolyStyle>
	</Style>
	<Style id="sn_ylw-pushpin">
		<IconStyle>
			<scale>1.1</scale>
			<Icon>
				<href>http://maps.google.com/mapfiles/kml/pushpin/ylw-pushpin.png</href>
			</Icon>
			<hotSpot x="20" y="2" xunits="pixels" yunits="pixels"/>
		</IconStyle>
		<BalloonStyle>
		</BalloonStyle>
		<LineStyle>
			<width>2.5</width>
		</LineStyle>
		<PolyStyle>
			<fill>0</fill>
		</PolyStyle>
	</Style>
	<Placemark>
		<name>1778166958901</name>
		<styleUrl>#msn_ylw-pushpin</styleUrl>
		<Polygon>
			<tessellate>1</tessellate>
			<outerBoundaryIs>
				<LinearRing>
					<coordinates>
						92.07171699029432,24.05546359477808,0 92.07178452238946,24.0553318345111,0 92.0718138526383,24.05530189662445,0 92.07184557379765,24.05515306100276,0 92.07182093259448,24.05503584127681,0 92.07180316727982,24.05494923419581,0 92.07179551507831,24.05488644715818,0 92.07179452028986,24.05477160066423,0 92.07178876058811,24.05476355602294,0 92.07178719512937,24.05475537825139,0 92.07177524582632,24.05473455073439,0 92.071772115236,24.05470299617837,0 92.07177077062579,24.05468420675144,0 92.07177042201064,24.05466855607989,0 92.071775949797,24.05467032299162,0 92.07178613428964,24.05465919155834,0 92.07179283115438,24.05464616987277,0 92.07180448603553,24.05463585210932,0 92.07181400301809,24.05462581123301,0 92.07182344536379,24.05461584891587,0 92.07183504304989,24.05460537872633,0 92.0718446143717,24.05459501061891,0 92.07185206629502,24.05458498014112,0 92.07186351771448,24.05457453364628,0 92.07186974913961,24.0545677835829,0 92.07188158172795,24.05455545705394,0 92.07189228775974,24.05454624053984,0 92.0719020273004,24.05453984486912,0 92.07191346432971,24.05452800997312,0 92.0719245768218,24.05451766549692,0 92.07193469058451,24.05451022598213,0 92.07194271243041,24.05450320612076,0 92.07195364691142,24.05449869437835,0 92.07196144339248,24.05449687887781,0 92.07197447149116,24.0544956954529,0 92.07198478268793,24.05449144385059,0 92.07199254584981,24.05448963590863,0 92.07200106601366,24.05448519334689,0 92.07201130274848,24.05448097153374,0 92.07201728149813,24.05447896868872,0 92.07202573220619,24.05447455880151,0 92.07203734852305,24.05446606958428,0 92.07204850553006,24.05445944368556,0 92.07205775882774,24.05445291599577,0 92.07206695902491,24.05444642561897,0 92.07207610636968,24.05443997263093,0 92.07208520159213,24.05443355639783,0 92.07209242836646,24.05442723453569,0 92.07210142595953,24.05442089070208,0 92.07211302366166,24.05441149917282,0 92.07212272907701,24.05440224252426,0 92.07212940064103,24.05439699747948,0 92.07213861537484,24.05438879361428,0 92.07214515277482,24.0543837657108,0 92.07215337625256,24.05437887107277,0 92.07216261231081,24.05437676731494,0 92.07216841060796,24.05437444314542,0 92.0721821101571,24.05437533813826,0 92.07219707804136,24.05437092125969,0 92.07221028515288,24.05436640862282,0 92.07221832419543,24.05436158093964,0 92.07222515265522,24.05436202247576,0 92.07223027674087,24.05436235379264,0 92.07223996945726,24.05435765121799,0 92.07224906402851,24.05435558089649,0 92.07225720673821,24.05435011934598,0 92.07226722126798,24.05433686515784,0 92.07227641715515,24.0543268676905,0 92.07228063928244,24.05432344572625,0 92.07228552321889,24.05431696799475,0 92.072295633129,24.05431003788016,0 92.0723096647483,24.05430691298112,0 92.07231607669712,24.05430827201134,0 92.07232362824514,24.05430393974735,0 92.07232739395369,24.05430177952217,0 92.07252060816141,24.05423341784977,0 92.07257289303899,24.05415894106707,0 92.07265168536058,24.05410561857467,0 92.07274923390554,24.05403961231029,0 92.07279795253439,24.05405722026409,0 92.07284857636589,24.05411428309672,0 92.07287188928676,24.05420286978369,0 92.07283078566046,24.05428059910916,0 92.07282505567645,24.05430689632611,0 92.07286632629773,24.0544442788943,0 92.07292111341704,24.05460146502216,0 92.07306172553436,24.05471659924426,0 92.07308807775692,24.0547087430457,0 92.07310197611002,24.05471804870645,0 92.07311653317015,24.05473129596807,0 92.07312792455134,24.05473659202913,0 92.07313943119945,24.05474328527324,0 92.07314699453765,24.05475224777274,0 92.07315784175958,24.05475331506861,0 92.07316910802302,24.05475729430212,0 92.07317783172829,24.05475823671081,0 92.07318656409036,24.05475918057184,0 92.07320228073679,24.05476365333091,0 92.07321323687471,24.05476483930946,0 92.07322201157156,24.05476578909067,0 92.07323299172246,24.05476697756444,0 92.07324398558805,24.0547681676107,0 92.07325325272139,24.05477195754128,0 92.07326207430077,24.05477291373467,0 92.0732731134644,24.05477411035663,0 92.07328637837129,24.05477554830589,0 92.07329523252858,24.05477650795827,0 92.07330631247382,24.05477770903311,0 92.0733157074728,24.05478152893743,0 92.07332736410446,24.05478563230632,0 92.07333913651486,24.05479001045047,0 92.07334869465211,24.05479410335083,0 92.07335828211644,24.05479820876337,0 92.07337016285292,24.0548026289726,0 92.07337922470806,24.05480383867712,0 92.07338770076117,24.05480213068777,0 92.07340069884729,24.05480099810963,0 92.07340977475867,24.05480218559796,0 92.07341987613178,24.05479782572609,0 92.07342832251125,24.05479609287179,0 92.07343805255231,24.05480019681879,0 92.0734478124528,24.05480431351024,0 92.07345598216689,24.05481108569934,0 92.07346945604063,24.05482145412588,0 92.07348094694657,24.05482296624266,0 92.07348945245052,24.05482120869451,0 92.07349635693635,24.05482211602377,0 92.07350852688619,24.05482642320693,0 92.07351757701416,24.05483614497267,0 92.07352899617614,24.05484619861196,0 92.07353742394741,24.05485302883409,0 92.07354740697789,24.05486596125705,0 92.07356137780891,24.05487649111215,0 92.07356840398739,24.05488625968929,0 92.0735793877429,24.05489355271645,0 92.07358731695155,24.05490654667933,0 92.07359679631595,24.0549166177335,0 92.07360473939147,24.05492951852697,0 92.07361671448363,24.05493997277192,0 92.07362876970821,24.05495049699184,0 92.07362886142461,24.05495964714173,0 92.07363062744157,24.05497520156299,0 92.0736395808581,24.05498246223621,0 92.07365100825018,24.05499005203628,0 92.07366092475496,24.0550006118232,0 92.07367512173482,24.0550180212263,0 92.07368025448461,24.05502811594607,0 92.07368723087308,24.05504488260761,0 92.07369179354272,24.0550615233581,0 92.07369298318243,24.05507465688261,0 92.0736851895072,24.05521399471454,0 92.07372176870791,24.05525736560891,0 92.0737679661617,24.05546435132047,0 92.0737139114708,24.05548419078085,0 92.07370533303836,24.05565156143898,0 92.07374929547318,24.0556878433327,0 92.07378888211291,24.05573646545298,0 92.07399452252828,24.05589561427648,0 92.07408834923237,24.05600536912063,0 92.07417469667021,24.05612045499383,0 92.0742057861428,24.05612702298847,0 92.07422268252138,24.05612973075391,0 92.07424299420195,24.05613298533781,0 92.07425882036426,24.05614168697038,0 92.07427471547948,24.05615042626104,0 92.07430220267824,24.05617353885076,0 92.07431593880743,24.05617576034449,0 92.07433657762436,24.05617909800028,0 92.07434691223985,24.05618076918409,0 92.07436922564102,24.05619725494836,0 92.07439027537525,24.05620113432462,0 92.07440785386892,24.05620437416068,0 92.07442712046475,24.05622062537516,0 92.07444390257662,24.05623011267771,0 92.07445273866951,24.05624457566507,0 92.07449312664808,24.0563336433164,0 92.07449111649295,24.05645835082207,0 92.07438159410232,24.05655226388991,0 92.07432462924744,24.05667035279991,0 92.07414379907392,24.05681510519739,0 92.07396509428879,24.05682828413628,0 92.07378326362159,24.05697324642616,0 92.07369569417506,24.05707229026725,0 92.07366274941877,24.05717300822819,0 92.07366296625125,24.05727645101034,0 92.07360260417495,24.05737389002201,0 92.07361220959237,24.05747594121729,0 92.07362282514393,24.05751201125922,0 92.07360070216664,24.05760464061551,0 92.07361666152511,24.05764773556383,0 92.07365064592449,24.05768450298234,0 92.07368023221015,24.05775921720634,0 92.07369879111324,24.05776619671197,0 92.07371357303198,24.05771143469313,0 92.07371388421637,24.05767210399064,0 92.07375847573957,24.05765428921301,0 92.07376197111412,24.0576449032184,0 92.0737679419143,24.05763189288497,0 92.07377259762575,24.05762087824757,0 92.07377965708876,24.05760636627734,0 92.07378314867231,24.05759918866694,0 92.07378894845456,24.05758862245732,0 92.07378800881827,24.05759273182068,0 92.07379365156889,24.05759392616826,0 92.07379772307647,24.05759334872433,0 92.07380450071656,24.05759238744809,0 92.07381103627549,24.05758947089976,0 92.07382000246504,24.05758423866112,0 92.07382513586138,24.05758154022961,0 92.07383050281818,24.0575807837797,0 92.07383535240956,24.05757616962227,0 92.07383776754429,24.05757387180995,0 92.07384691144026,24.05757102745549,0 92.07385068386822,24.05756880403608,0 92.07385713604869,24.05756639096355,0 92.07386385585836,24.05756590251146,0 92.07386922792315,24.05756551212653,0 92.07387593823206,24.05756502444622,0 92.07388429098603,24.05756635789546,0 92.07388862703499,24.05756798631642,0 92.07389565597454,24.0575694213116,0 92.0739023668422,24.05756893122457,0 92.07390907254371,24.05756844158427,0 92.07391577293868,24.05756795229404,0 92.07392246811477,24.05756746347574,0 92.07392609182219,24.05756510458258,0 92.07393231110107,24.05756233327499,0 92.07393719522726,24.05755972896041,0 92.07394376087112,24.0575589421921,0 92.07394861587861,24.05755634907089,0 92.07395123440205,24.05755603590255,0 92.07396129086042,24.05755282847529,0 92.07396740092979,24.05755009996717,0 92.07397749923487,24.05752917149957,0 92.07407184069447,24.05753260165718,0 92.07410646432623,24.05753872863684,0 92.07421312294969,24.05753997258366,0 92.07427665345958,24.05760973604892,0 92.07435662803454,24.05767723508423,0 92.07452143559519,24.0577300709305,0 92.07458092423927,24.05775913587689,0 92.07463245907934,24.05780879744208,0 92.07465848972954,24.05791634814688,0 92.07465790728546,24.05796150306862,0 92.07474815548836,24.05804998888648,0 92.07480672187314,24.05804898590149,0 92.07488141218133,24.05811530221518,0 92.07491336019024,24.05808225063043,0 92.07493693454515,24.05812488561739,0 92.07493376239908,24.05815292899294,0 92.0748980026502,24.05816044708523,0 92.07492056047225,24.05819069978762,0 92.07487803170126,24.0581893644051,0 92.07490474544943,24.05822737778612,0 92.07483050924577,24.05834840096806,0 92.07478738636475,24.05832272898531,0 92.07473667315703,24.05834135260675,0 92.07466068199959,24.05824893536057,0 92.0746231528402,24.05828208242542,0 92.0745859653864,24.05829806220633,0 92.07454665492445,24.05829963306079,0 92.07449741834299,24.05830406867079,0 92.07444450389397,24.05829285918637,0 92.07441950730689,24.05824481203527,0 92.07426861011582,24.05824359197443,0 92.07417235521754,24.05828657983787,0 92.07407119324138,24.05825803233751,0 92.073971100859,24.05827153518009,0 92.07392788426277,24.05825133910404,0 92.07393601489062,24.05819680337352,0 92.07388445678413,24.05820628238654,0 92.07386430310936,24.05825504897927,0 92.07382050659626,24.05824584485786,0 92.07372893238404,24.05829051412751,0 92.07368743600371,24.05826665306899,0 92.07362913109817,24.05826309278645,0 92.07358953740228,24.05826757242351,0 92.07340375717121,24.05826459039586,0 92.07328738216734,24.0582541314511,0 92.07327746752682,24.05825094188106,0 92.07326374771517,24.0582511990061,0 92.07325628079002,24.05825112862573,0 92.07324749088673,24.05825297553063,0 92.07323392943557,24.05825086116887,0 92.07322275782529,24.05825128824535,0 92.07321159889008,24.05825171477121,0 92.07320527089179,24.05825389536207,0 92.07320029555457,24.05825432779505,0 92.07319154938882,24.05825563165192,0 92.07318725481804,24.058263107804,0 92.07318310595447,24.05826841881756,0 92.07317977371022,24.05827869448156,0 92.07317537756722,24.05828635782287,0 92.07317074731036,24.05829637244448,0 92.07316606711761,24.05830649538486,0 92.07316117116537,24.05830461901057,0 92.0731548510754,24.05830458830223,0 92.07315074542653,24.05830782125112,0 92.07314320351256,24.05830734298835,0 92.0731393171092,24.05830826266167,0 92.07313250374357,24.05831289627752,0 92.0731244513178,24.05831703928764,0 92.07312028736558,24.05832025104167,0 92.07311611081735,24.05832347235442,0 92.07310706664602,24.0583247766753,0 92.07309743587192,24.05833076833953,0 92.07309048189197,24.05833540488362,0 92.07308291413192,24.05833484346981,0 92.07307656390992,24.0583347689148,0 92.073069891076,24.05833705289254,0 92.07306474692766,24.05833746462419,0 92.07305651346758,24.05834163142707,0 92.07305111810446,24.05834386902895,0 92.07304450953797,24.05834564989906,0 92.0730393738108,24.05834596872761,0 92.07303302322687,24.05834590623508,0 92.07302762446251,24.05834806935045,0 92.07302276541267,24.05834654297602,0 92.07301885179599,24.0583472425161,0 92.07301158954627,24.05834495814593,0 92.07300748203942,24.05833913819738,0 92.07300201803429,24.05833436384436,0 92.0729977544971,24.05833009894953,0 92.07299319709331,24.05832075456141,0 92.07298899204991,24.05831656068533,0 92.0729832271803,24.0583142055461,0 92.07297756308775,24.05831154711369,0 92.07297261557083,24.0583116581445,0 92.07296699247364,24.05830898484499,0 92.0729665474431,24.05831123396812,0 92.07285814726008,24.05829574104203,0 92.0727290245926,24.05828459760559,0 92.07263240607828,24.05834873422248,0 92.07254688330647,24.05832511707137,0 92.07247330280157,24.05831590053202,0 92.07234767042827,24.0583459053936,0 92.07230265935101,24.0583337272043,0 92.07215728895073,24.05838276592474,0 92.07216022150085,24.05841643605836,0 92.07213270947619,24.05840673349687,0 92.07208144796931,24.05841826551272,0 92.0720430135125,24.05841889439917,0 92.07195237082387,24.0583916785691,0 92.07190242486433,24.05840787631537,0 92.07185434842175,24.05841160021611,0 92.07180365663434,24.05836841112116,0 92.07175200284341,24.05832732492544,0 92.07169238819907,24.05834354921159,0 92.0716571878697,24.05831050946392,0 92.07164171026099,24.0582455474212,0 92.07163202909884,24.05822835387754,0 92.07166234095062,24.05808770215024,0 92.07167978409356,24.05803965688535,0 92.07169570596058,24.05798036570607,0 92.07168700221382,24.05788318318188,0 92.07167523951276,24.05784118377129,0 92.07167513630972,24.05783884453362,0 92.07167158020583,24.05783558441141,0 92.07166678328321,24.05782401505911,0 92.07166574827329,24.0578201890522,0 92.07166478475702,24.05781382267025,0 92.0716630274126,24.05781013116262,0 92.07166282755435,24.05780384087925,0 92.07166263018846,24.05779763264939,0 92.07166276507316,24.05779270284395,0 92.07166322769778,24.05778901297143,0 92.07166447038541,24.0577828928984,0 92.0716653097551,24.05777806467493,0 92.07166799866428,24.0577696479532,0 92.07166810243783,24.05776500599637,0 92.07166885759253,24.05776265367219,0 92.07166830691082,24.05775586180972,0 92.07166771262101,24.05775140582848,0 92.07166712415618,24.05774699331557,0 92.07166691219916,24.05774150339106,0 92.07166770210411,24.05773709561368,0 92.07166816875291,24.05773168108558,0 92.07166894379637,24.05772737038497,0 92.07166877312893,24.05772002618097,0 92.0716695350186,24.0577158290877,0 92.07166900935709,24.05771165671559,0 92.07166879204428,24.05770852627295,0 92.07166761203531,24.05770447450837,0 92.0716667342426,24.05770146088265,0 92.07166557354793,24.05769747573742,0 92.07166404781168,24.05769457454402,0 92.07166215503437,24.05769273502811,0 92.07166130831138,24.05768980365078,0 92.07165981077236,24.05768695440392,0 92.07165973224122,24.05768202491623,0 92.07165852832937,24.05768017854868,0 92.07165705723187,24.05767739416341,0 92.07165608054987,24.05767170357993,0 92.07165463251498,24.05766897567899,0 92.07165293027319,24.05766534700794,0 92.07165278074424,24.05766254605482,0 92.07165135964895,24.05765987839232,0 92.07165159131236,24.05765616079157,0 92.07165185446695,24.0576524171153,0 92.07165187852394,24.05764779412439,0 92.0716520361871,24.05764140192082,0 92.07165243393825,24.05763598291731,0 92.07165208120793,24.05763246579727,0 92.07165234375955,24.05762892789151,0 92.07165162414087,24.05762637454,0 92.0716506720662,24.05762299643339,0 92.07164912339374,24.05761969925552,0 92.0716484229312,24.05761720683321,0 92.07164846527634,24.0576129886448,0 92.07164814057067,24.05760967801884,0 92.07164900744721,24.05760629853508,0 92.07165081810219,24.05760205734415,0 92.07165153639649,24.05760037475827,0 92.07165250167479,24.05759546825733,0 92.07165391424529,24.05759217165797,0 92.0716555472593,24.05758576035691,0 92.07165726987762,24.05758175500069,0 92.07165738143127,24.05758021045,0 92.07165851144504,24.05757631187148,0 92.07165906337858,24.0575725000059,0 92.0716601719156,24.05756868619866,0 92.07166126836876,24.05756491410263,0 92.07166235286502,24.05756118294731,0 92.07166342563377,24.0575574921388,0 92.07166480769263,24.05755310727153,0 92.07166585475427,24.05754950291314,0 92.07166689068049,24.05754593688099,0 92.07166768916201,24.05754173612133,0 92.07166811493867,24.05753960970459,0 92.07166927830308,24.057534684886,0 92.07166979110281,24.05753123966125,0 92.07167073983334,24.05752913278506,0 92.07168460772401,24.05742482414549,0 92.07165268998924,24.0573781175191,0 92.07162785945121,24.05733063090798,0 92.0716069921064,24.05726913529724,0 92.07158156138259,24.05722809450712,0 92.07164767428358,24.0571608125622,0 92.07167807085401,24.05707436164906,0 92.07166967029987,24.05701076648815,0 92.07169506008314,24.0569262713108,0 92.0717107123878,24.05685674417236,0 92.07171453508971,24.05684903167716,0 92.07172001097499,24.05684000777498,0 92.07172195101967,24.05683507741885,0 92.07172395235855,24.05682902935198,0 92.0717269525895,24.05681950493781,0 92.07172732145617,24.05681383599266,0 92.07172768674316,24.05680822219504,0 92.07172797640402,24.05680377007012,0 92.07172670304092,24.05679956378678,0 92.07172692685029,24.05679622044422,0 92.07172638918135,24.05679283919994,0 92.07172609567024,24.05678602800515,0 92.07172572584579,24.05678043358583,0 92.07172604457028,24.05677591298357,0 92.07172491718877,24.05677052628621,0 92.0717245583385,24.05676508725637,0 92.07172293914796,24.0567566404526,0 92.07172184618976,24.05675143977367,0 92.07172076368616,24.05674628879228,0 92.07172026774727,24.05674320175327,0 92.07171846122588,24.05673822703613,0 92.07171805993613,24.05673414384314,0 92.07171619219801,24.05673028922713,0 92.07171506965179,24.05672636915666,0 92.0717131379992,24.05672358712695,0 92.07171039695012,24.05672192515822,0 92.07170784960323,24.05671824873392,0 92.07170595045955,24.05671550770721,0 92.07170343309319,24.05671187451143,0 92.07170145798364,24.05671015701386,0 92.07169968870151,24.05670647039395,0 92.07169793169984,24.05670280939795,0 92.07169813332625,24.05670085649773,0 92.07169720682992,24.05669618080629,0 92.07169689842942,24.05669241901523,0 92.07169608631153,24.05668687060011,0 92.07169669004735,24.05668121485545,0 92.07169698933403,24.0566784109174,0 92.07169748445737,24.05667377277846,0 92.07169728020328,24.05666925912927,0 92.07169559463212,24.05666585461517,0 92.0716946108417,24.05666239306361,0 92.07169353304884,24.05665985217622,0 92.07169197746354,24.05665561960653,0 92.07169111831344,24.05665134520668,0 92.07168900914547,24.05664638694133,0 92.07168738870274,24.05664313414171,0 92.07168588458262,24.05663904154678,0 92.07168439291053,24.05663498286895,0 92.07168414733208,24.05663165700424,0 92.07168334191076,24.05662758666972,0 92.07168288833402,24.05662598267821,0 92.07168220086318,24.05662142666273,0 92.0716802148774,24.05661698574819,0 92.07167995768569,24.05661422865771,0 92.07167786236253,24.05661079372289,0 92.07167657643777,24.05660637819667,0 92.0716749278583,24.05660025489854,0 92.07167353304315,24.05659684949895,0 92.07167178359305,24.05659175294814,0 92.07167105701313,24.05658833820892,0 92.07166969616146,24.05658502529303,0 92.07166834575456,24.05658173774317,0 92.0716679250652,24.05657667152932,0 92.07166736806231,24.05657252018495,0 92.0716671623089,24.05657003487899,0 92.07166800496536,24.05656496827429,0 92.07166793847207,24.05656169492264,0 92.07166938636392,24.05655666269984,0 92.07167041170673,24.05655413631656,0 92.07167244284602,24.05654913162513,0 92.07167370999089,24.05654505338191,0 92.0716750923488,24.05654022798769,0 92.07167633164215,24.05653624124477,0 92.07167803276631,24.05653300508814,0 92.07167852692635,24.05652992167546,0 92.07167997446143,24.05652452262314,0 92.07168044711551,24.05652154046236,0 92.07168103176548,24.05651784947194,0 92.07168219299855,24.05651414100064,0 92.07168334305216,24.05651046847452,0 92.07168390554938,24.05650688279647,0 92.071684351812,24.05650403849101,0 92.07168490489074,24.05650051305938,0 92.07168980740869,24.05646847722252,0 92.07169027806684,24.05646216702705,0 92.07169157925441,24.05644452604345,0 92.07169481583564,24.05643027804564,0 92.07169836500924,24.05641097677453,0 92.07170019595883,24.05640020429123,0 92.07170399591442,24.05639168255209,0 92.07170791704057,24.05638071326565,0 92.07170964818764,24.0563703037583,0 92.07171135491328,24.05636004155873,0 92.071713037333,24.05634992503672,0 92.07171380207623,24.05633776702535,0 92.07171440449058,24.056328189116,0 92.07171617411072,24.0563161757085,0 92.07171777217536,24.05630666897397,0 92.07171934842928,24.05629729233549,0 92.07172103751448,24.05628580298329,0 92.0717225417003,24.05627706135832,0 92.0717249986933,24.05626848313104,0 92.07172742481109,24.05626001249054,0 92.07173177293423,24.05625127462585,0 92.07173509551228,24.05624283483724,0 92.07173741811614,24.05623460477102,0 92.07173790099149,24.05622478540178,0 92.07173818735242,24.05621896322137,0 92.07173771322397,24.05620957016859,0 92.07173620967517,24.05620238502154,0 92.07173565857371,24.05619508536413,0 92.0717361399208,24.05618583941749,0 92.07173652004485,24.05617853773549,0 92.07173873196702,24.05617095162975,0 92.07173900317476,24.05616559492524,0 92.07174117752481,24.05615816417794,0 92.07174642307078,24.05614167957423,0 92.0717495471919,24.05613099039458,0 92.0717525485164,24.05612214175567,0 92.07175456842172,24.05611522244769,0 92.07175743313444,24.056108217667,0 92.07175934379526,24.05610305586034,0 92.07176300953017,24.05609603099422,0 92.07176391900171,24.05609428795452,0 92.07176846555836,24.05608423092452,0 92.07177205392269,24.05607601542123,0 92.07177552177977,24.05607091516938,0 92.07177895838362,24.05606586085652,0 92.07178070715874,24.05606112978708,0 92.07178333419972,24.05605217241104,0 92.0717834311433,24.05604639448178,0 92.07178106499573,24.05604223259212,0 92.0717778955199,24.0560384895684,0 92.07177407720479,24.05602928171208,0 92.07177015878769,24.0560257491255,0 92.0717678273663,24.05602336263221,0 92.07176319246864,24.05601861834583,0 92.07176094012672,24.05601489531313,0 92.0717594466354,24.05601242665199,0 92.07175647872459,24.05600752075465,0 92.07175353602483,24.05600265653817,0 92.07175134538157,24.05599903551825,0 92.07175001983035,24.05599400128601,0 92.07174877086969,24.05598771250439,0 92.07174733831033,24.05598535921868,0 92.07174611418769,24.05597916792101,0 92.07174631518203,24.05597534741371,0 92.07174651475144,24.05597155390937,0 92.07174697498765,24.05596280632847,0 92.07174716990841,24.05595910118118,0 92.07174768311452,24.05594934652074,0 92.07174799907186,24.05594334100565,0 92.07174830968052,24.05593742778603,0 92.07174855090756,24.0559328098367,0 92.07174743272597,24.05592616286084,0 92.07174626691548,24.0559207212056,0 92.0717449873848,24.05591756327319,0 92.07174311478968,24.05591230896252,0 92.07174192072459,24.05590810446538,0 92.07173994513842,24.05590511866338,0 92.0717373282649,24.05590116381422,0 92.07173631238356,24.05589490880033,0 92.07173665514239,24.0558897065789,0 92.07173770050633,24.05588450785114,0 92.07173867006742,24.05588037310527,0 92.07174186076328,24.05587405606076,0 92.07174576282424,24.05586676560714,0 92.07174806500232,24.05586263890372,0 92.071751035563,24.05585847883416,0 92.07175329525231,24.05585442328434,0 92.07175417188836,24.05585053733726,0 92.07175508809995,24.05584574064267,0 92.07175522754751,24.05584292532386,0 92.07175631152003,24.05583451296521,0 92.07175733300781,24.05582715208749,0 92.07175754971237,24.05582264873948,0 92.07175776436435,24.05581818834971,0 92.07175793460378,24.05581465048756,0 92.07175810357022,24.05581113948448,0 92.0717583129755,24.05580678785154,0 92.07175843768351,24.05580419648174,0 92.07175860286678,24.05580076393627,0 92.07175752077936,24.05579662614606,0 92.07175704680027,24.05579330753283,0 92.07175653367852,24.05579084871248,0 92.07175606622488,24.05578757168602,0 92.07175328723014,24.05578043728175,0 92.0717522060316,24.05577728948206,0 92.0717510854939,24.05577497035013,0 92.0717493429392,24.0557727175567,0 92.07174765853642,24.05576967674796,0 92.0717455124782,24.05576436847268,0 92.07174509314372,24.05576131279393,0 92.07174524443558,24.05575899585146,0 92.07174677503778,24.05575429588099,0 92.0717488540037,24.05575035062762,0 92.07175021429634,24.05574799086823,0 92.07175104752071,24.05574420277023,0 92.07175320665334,24.05573817713037,0 92.07175392482503,24.05573603833744,0 92.07175531287335,24.05573248865652,0 92.07175605831577,24.05572968461101,0 92.07175620605923,24.05572692327608,0 92.07175642592595,24.05572281397417,0 92.07175657135366,24.05572009601494,0 92.07175682365285,24.05571538055871,0 92.07175700217516,24.05571204392522,0 92.07175721458253,24.05570807420175,0 92.07175565668852,24.0557048631101,0 92.0717558014813,24.05570225675894,0 92.07175587353638,24.05570095961268,0 92.07175555189207,24.05569647327001,0 92.07175455467956,24.05569396270558,0 92.07175405828559,24.05569271295892,0 92.07175197219577,24.05568963759282,0 92.07175099349182,24.05568716727182,0 92.07174953620876,24.05568348887419,0 92.07174965596904,24.05568162980687,0 92.07173955540634,24.05553069395493,0 92.07171699029432,24.05546359477808,0 
					</coordinates>
				</LinearRing>
			</outerBoundaryIs>
		</Polygon>
		<atom:link rel="app" href="https://www.google.com/earth/about/versions/#earth-pro" title="Google Earth Pro 7.3.7.1155"></atom:link>
	</Placemark>
</Document>
</kml>
