<?xml version="1.0" encoding="UTF-8"?>
<kml xmlns="http://www.opengis.net/kml/2.2" xmlns:gx="http://www.google.com/kml/ext/2.2" xmlns:kml="http://www.opengis.net/kml/2.2" xmlns:atom="http://www.w3.org/2005/Atom">
<Document>
	<name>1778580159755.kml</name>
	<StyleMap id="msn_ylw-pushpin">
		<Pair>
			<key>normal</key>
			<styleUrl>#sn_ylw-pushpin</styleUrl>
		</Pair>
		<Pair>
			<key>highlight</key>
			<styleUrl>#sh_ylw-pushpin</styleUrl>
		</Pair>
	</StyleMap>
	<Style id="sh_ylw-pushpin">
		<IconStyle>
			<scale>1.3</scale>
			<Icon>
				<href>http://maps.google.com/mapfiles/kml/pushpin/ylw-pushpin.png</href>
			</Icon>
			<hotSpot x="20" y="2" xunits="pixels" yunits="pixels"/>
		</IconStyle>
		<BalloonStyle>
		</BalloonStyle>
		<PolyStyle>
			<fill>0</fill>
		</PolyStyle>
	</Style>
	<Style id="sn_ylw-pushpin">
		<IconStyle>
			<scale>1.1</scale>
			<Icon>
				<href>http://maps.google.com/mapfiles/kml/pushpin/ylw-pushpin.png</href>
			</Icon>
			<hotSpot x="20" y="2" xunits="pixels" yunits="pixels"/>
		</IconStyle>
		<BalloonStyle>
		</BalloonStyle>
		<PolyStyle>
			<fill>0</fill>
		</PolyStyle>
	</Style>
	<Placemark>
		<name>1778580159755</name>
		<styleUrl>#msn_ylw-pushpin</styleUrl>
		<Polygon>
			<tessellate>1</tessellate>
			<outerBoundaryIs>
				<LinearRing>
					<coordinates>
						91.81012611988557,23.53118952738592,0 91.81002799344019,23.53112652067444,0 91.81000060988281,23.53103372216942,0 91.80999496399889,23.53092041235473,0 91.80997317618007,23.53089616652868,0 91.8099621771232,23.53084293792553,0 91.80982899774055,23.53074750534633,0 91.80970459414709,23.53073522015208,0 91.80961097125649,23.53058311472713,0 91.80958606418025,23.53041763157114,0 91.80966587289792,23.53020079488524,0 91.80974173042362,23.53008495481678,0 91.80978636986181,23.52997832076996,0 91.80974600712477,23.52988068072945,0 91.80980115368493,23.52982612227997,0 91.80989039895323,23.52960588971831,0 91.81007527884742,23.5294707146977,0 91.81026159467388,23.52938850182616,0 91.81042014735725,23.52945686739015,0 91.81045147468159,23.52954113517701,0 91.81065435873906,23.52962170645504,0 91.81074806712404,23.52971062082747,0 91.8108303215507,23.52970525290209,0 91.81089762333448,23.5296489011064,0 91.81157787186207,23.52938094112581,0 91.81186249674423,23.52940513020572,0 91.81195358014992,23.52951558779296,0 91.81199429481896,23.52971367943513,0 91.81212937581515,23.52965762191469,0 91.81229413218577,23.52971529624318,0 91.81239076242142,23.52984503859152,0 91.81248238796573,23.52991529923172,0 91.81255603050184,23.52992105757592,0 91.81283813758083,23.53012571037098,0 91.81288767919531,23.53027134072372,0 91.81288867306129,23.53041660047402,0 91.81280112591213,23.53056201359768,0 91.81264376970519,23.53063884475261,0 91.81252379041004,23.53071814031648,0 91.81209147122944,23.53090014504261,0 91.8116959615366,23.53116222716712,0 91.81157563555374,23.53118684039228,0 91.81149841566653,23.53120654312245,0 91.81082272190838,23.53138168675859,0 91.81056205693463,23.53131963412219,0 91.81051518081843,23.53134817988208,0 91.81017716898224,23.53135986255451,0 91.81012611988557,23.53118952738592,0 
					</coordinates>
				</LinearRing>
			</outerBoundaryIs>
		</Polygon>
		<atom:link rel="app" href="https://www.google.com/earth/about/versions/#earth-pro" title="Google Earth Pro 7.3.7.1155"></atom:link>
	</Placemark>
</Document>
</kml>
