<?xml version="1.0" encoding="UTF-8"?>
<kml xmlns="http://www.opengis.net/kml/2.2" xmlns:gx="http://www.google.com/kml/ext/2.2" xmlns:kml="http://www.opengis.net/kml/2.2" xmlns:atom="http://www.w3.org/2005/Atom">
<Document>
	<name>1778066071572.kml</name>
	<StyleMap id="msn_ylw-pushpin">
		<Pair>
			<key>normal</key>
			<styleUrl>#sn_ylw-pushpin</styleUrl>
		</Pair>
		<Pair>
			<key>highlight</key>
			<styleUrl>#sh_ylw-pushpin</styleUrl>
		</Pair>
	</StyleMap>
	<Style id="sh_ylw-pushpin">
		<IconStyle>
			<scale>1.3</scale>
			<Icon>
				<href>http://maps.google.com/mapfiles/kml/pushpin/ylw-pushpin.png</href>
			</Icon>
			<hotSpot x="20" y="2" xunits="pixels" yunits="pixels"/>
		</IconStyle>
		<BalloonStyle>
		</BalloonStyle>
		<PolyStyle>
			<fill>0</fill>
		</PolyStyle>
	</Style>
	<Style id="sn_ylw-pushpin">
		<IconStyle>
			<scale>1.1</scale>
			<Icon>
				<href>http://maps.google.com/mapfiles/kml/pushpin/ylw-pushpin.png</href>
			</Icon>
			<hotSpot x="20" y="2" xunits="pixels" yunits="pixels"/>
		</IconStyle>
		<BalloonStyle>
		</BalloonStyle>
		<PolyStyle>
			<fill>0</fill>
		</PolyStyle>
	</Style>
	<Placemark>
		<name>1778066071572</name>
		<styleUrl>#msn_ylw-pushpin</styleUrl>
		<Polygon>
			<tessellate>1</tessellate>
			<outerBoundaryIs>
				<LinearRing>
					<coordinates>
						91.83304992222233,23.43156131970135,0 91.83294784261101,23.43142891092078,0 91.83282731143098,23.43125057278704,0 91.83268928885752,23.43097892240253,0 91.83269588333106,23.43081854419386,0 91.83289993377871,23.43055866340225,0 91.83320039714741,23.43018334684554,0 91.83342287356962,23.42988200988448,0 91.83365061609182,23.42968092285203,0 91.83380263751963,23.42972497531182,0 91.83381638837628,23.42974107942602,0 91.83382557184586,23.429749124597,0 91.83384857773243,23.42976116467289,0 91.83386236276134,23.42977322778153,0 91.83387615422939,23.42978931152128,0 91.8338945725917,23.42980537331909,0 91.8339129878204,23.42982143232582,0 91.8339314229228,23.42983345320685,0 91.83394985407014,23.42984547159322,0 91.83396823686303,23.4298655578173,0 91.83397741599879,23.42987761743041,0 91.8339865949041,23.42988967629485,0 91.8340003956513,23.42990573401068,0 91.83400957476732,23.4299218146927,0 91.83401875336857,23.42993789440556,0 91.83402793151201,23.42995397319803,0 91.83403712108903,23.42997004421384,0 91.8340416859444,23.42998614459449,0 91.83405547260166,23.43001024597087,0 91.83406006785863,23.43001827921223,0 91.83407389705714,23.43003027740446,0 91.83409696938759,23.43004220455972,0 91.83411544104406,23.43004609853031,0 91.83413390673851,23.43004999123298,0 91.83415698323044,23.43005384734878,0 91.83418007860061,23.43006572023533,0 91.83419395682486,23.43006960586338,0 91.83420792411339,23.43008948852388,0 91.83421717814022,23.43010144135147,0 91.83422649982832,23.43012136631475,0 91.83424042402436,23.43014526157402,0 91.83424513222087,23.43016119298098,0 91.83424987333213,23.43018110279764,0 91.83426381760107,23.43020895126255,0 91.83427312086559,23.43022883517793,0 91.83428219549691,23.43024894084822,0 91.83429118893095,23.43027314855247,0 91.83430018475956,23.43029736267672,0 91.83430918282689,23.43032158332035,0 91.83431822956392,23.43033772787712,0 91.8343227076637,23.43035388451778,0 91.83433177349183,23.43037804686176,0 91.83434085877667,23.43039014163046,0 91.83434537945494,23.43040625446209,0 91.8343589397348,23.43042650035792,0 91.83436796912612,23.43044269605149,0 91.83438149182143,23.43045899723026,0 91.83439946150614,23.43048352227199,0 91.83441297440845,23.43049585694616,0 91.83442645751536,23.43051629363557,0 91.83444451111509,23.4305287096824,0 91.83444898685755,23.43054092810283,0 91.83446248908362,23.43056139107734,0 91.83446693067164,23.43057770743956,0 91.83448473897914,23.43059465690066,0 91.83450272573315,23.43060328721491,0 91.83452072819699,23.43061192495155,0 91.83453874636423,23.43062057019146,0 91.83457016587022,23.43062190090554,0 91.83457912616993,23.43062233967672,0 91.8346015432538,23.430627499166,0 91.83462423733529,23.43062808936469,0 91.83464695129328,23.43062867992934,0 91.83466968524448,23.43062927112293,0 91.8346878867109,23.43062974445472,0 91.83470610103774,23.43063021796224,0 91.83472449505001,23.43062214600186,0 91.83475197092692,23.43061441427414,0 91.83478883281285,23.43061023582275,0 91.83480262031999,23.43061029317933,0 91.83483960484959,23.43060162604755,0 91.83486737149505,23.43059292867936,0 91.83487655757216,23.43059296640004,0 91.83489956127318,23.4305888691859,0 91.83491806254025,23.43058436603082,0 91.83494584401234,23.43057534458832,0 91.83496887852075,23.43057096029057,0 91.83499190075308,23.43056657816272,0 91.83501496203397,23.43055785374015,0 91.83504715175637,23.43055331539104,0 91.83507475984514,23.43054854562968,0 91.83508864922084,23.43053520815869,0 91.83511160160903,23.43053058355723,0 91.83512998212757,23.43052162234779,0 91.83515290905777,23.4305126286905,0 91.8351758062492,23.43050352582861,0 91.83518952519729,23.43049888535333,0 91.83521235554454,23.43049409297921,0 91.83522604004847,23.43048946266035,0 91.83522604431273,23.4304631484703,0 91.83523059137899,23.43044558608567,0 91.83524874370175,23.43042823949143,0 91.83527138956121,23.43041500131737,0 91.83530754388607,23.43039741786845,0 91.83535268761898,23.43038433621015,0 91.83538423020384,23.43037557159822,0 91.83541561370197,23.43035822468283,0 91.83546307808838,23.43022634207113,0 91.83550919588637,23.42996312843056,0 91.83542790709923,23.42978377320258,0 91.83542722889877,23.42966665807666,0 91.83547079150888,23.42955876504726,0 91.83558925732252,23.42947060268111,0 91.83572089061803,23.42945918974726,0 91.83577896603994,23.42953292259471,0 91.83586426896811,23.42961114666328,0 91.83580400852323,23.42974779326415,0 91.83577367593199,23.43004196971029,0 91.83578366707511,23.43024747780038,0 91.8357147051843,23.43034501618054,0 91.83573318955294,23.43064139480459,0 91.83563944598171,23.4308587355254,0 91.83564444321442,23.43086384674795,0 91.83565008622216,23.4308839559511,0 91.83565575301975,23.43090415009793,0 91.83566641253971,23.43092932803463,0 91.83568145717149,23.43094446542048,0 91.83569634963911,23.4309547171524,0 91.83571188695898,23.4309798269062,0 91.83572770907111,23.43101003130349,0 91.8357336458202,23.43103511699761,0 91.83574449708526,23.43106045829592,0 91.83575047598539,23.43108569351145,0 91.83575117016198,23.43110521061843,0 91.83575667169494,23.43112455423285,0 91.83577216442396,23.4311490138833,0 91.83579230682629,23.43116399973271,0 91.8358075679073,23.43117889462653,0 91.83582286139509,23.43119382091501,0 91.83583818722957,23.43120877892716,0 91.83586967562138,23.43125834620011,0 91.83589064313595,23.43128826047134,0 91.83591686874504,23.4313233479299,0 91.83592804487978,23.43135326911564,0 91.83606560840411,23.4314070539505,0 91.83636716610852,23.43141782645449,0 91.83671142548735,23.43149905198158,0 91.83690981805405,23.43156040925595,0 91.83713086283009,23.43158141628568,0 91.8371224688629,23.43165728845059,0 91.83702783738428,23.43190527931082,0 91.83690700566532,23.43189803453549,0 91.83680554803887,23.43198554652575,0 91.83668388751953,23.43197421165658,0 91.83646775744869,23.43185296249581,0 91.83622320615731,23.43176355847283,0 91.83597697698694,23.4317662943917,0 91.83574510550517,23.43193505274014,0 91.83510189450942,23.43189967352512,0 91.83503763321569,23.43184473570236,0 91.83489882046021,23.43180650313445,0 91.83481167267797,23.43161630214958,0 91.83465681287747,23.4313530242303,0 91.83435516581878,23.43126010724686,0 91.83398240512814,23.43130475887142,0 91.83367084035241,23.43141160089062,0 91.83333073819581,23.43158083313962,0 91.83304992222233,23.43156131970135,0 
					</coordinates>
				</LinearRing>
			</outerBoundaryIs>
		</Polygon>
		<atom:link rel="app" href="https://www.google.com/earth/about/versions/#earth-pro" title="Google Earth Pro 7.3.7.1155"></atom:link>
	</Placemark>
</Document>
</kml>
