<?xml version="1.0" encoding="UTF-8"?>
<kml xmlns="http://www.opengis.net/kml/2.2" xmlns:gx="http://www.google.com/kml/ext/2.2" xmlns:kml="http://www.opengis.net/kml/2.2" xmlns:atom="http://www.w3.org/2005/Atom">
<Document>
	<name>1778579146617.kml</name>
	<StyleMap id="msn_ylw-pushpin">
		<Pair>
			<key>normal</key>
			<styleUrl>#sn_ylw-pushpin</styleUrl>
		</Pair>
		<Pair>
			<key>highlight</key>
			<styleUrl>#sh_ylw-pushpin</styleUrl>
		</Pair>
	</StyleMap>
	<Style id="sh_ylw-pushpin">
		<IconStyle>
			<scale>1.3</scale>
			<Icon>
				<href>http://maps.google.com/mapfiles/kml/pushpin/ylw-pushpin.png</href>
			</Icon>
			<hotSpot x="20" y="2" xunits="pixels" yunits="pixels"/>
		</IconStyle>
		<BalloonStyle>
		</BalloonStyle>
		<PolyStyle>
			<fill>0</fill>
		</PolyStyle>
	</Style>
	<Style id="sn_ylw-pushpin">
		<IconStyle>
			<scale>1.1</scale>
			<Icon>
				<href>http://maps.google.com/mapfiles/kml/pushpin/ylw-pushpin.png</href>
			</Icon>
			<hotSpot x="20" y="2" xunits="pixels" yunits="pixels"/>
		</IconStyle>
		<BalloonStyle>
		</BalloonStyle>
		<PolyStyle>
			<fill>0</fill>
		</PolyStyle>
	</Style>
	<Placemark>
		<name>1778579146617</name>
		<styleUrl>#msn_ylw-pushpin</styleUrl>
		<Polygon>
			<tessellate>1</tessellate>
			<outerBoundaryIs>
				<LinearRing>
					<coordinates>
						91.92381254784338,23.61372365563181,0 91.923287054772,23.61362720240305,0 91.92336673520737,23.61345972596711,0 91.92327098025596,23.6133170427725,0 91.92340436185269,23.61304316792552,0 91.9234615690772,23.6129814021884,0 91.92336295528108,23.61267882974133,0 91.92366682668036,23.61246449459523,0 91.92373097622864,23.61227285183215,0 91.92370633095857,23.61192751766004,0 91.9240541206206,23.61166838719401,0 91.92396077571311,23.61144572165,0 91.9242083355511,23.61130177234266,0 91.92445534086978,23.61115647241032,0 91.92459472889279,23.61113802443414,0 91.92484412524328,23.61120769668768,0 91.92525898864886,23.61141563547914,0 91.92536563058771,23.6114223976849,0 91.92588576005504,23.61149823480755,0 91.92605294509461,23.61142010092833,0 91.92715474217651,23.61196626984622,0 91.92729454576157,23.6121169422185,0 91.92759850800343,23.61222178259527,0 91.92783381136567,23.61269874748117,0 91.92764461757811,23.61286961049239,0 91.92740321075559,23.61305393657115,0 91.92684314657582,23.61327400585332,0 91.92630201949768,23.61377714159216,0 91.92596833075596,23.61400524639972,0 91.92546176222939,23.61416144571639,0 91.92527889947517,23.61408801022905,0 91.92491047440001,23.61400542020588,0 91.92450491053916,23.61414535353643,0 91.92401377220959,23.61392343869181,0 91.92381254784338,23.61372365563181,0 
					</coordinates>
				</LinearRing>
			</outerBoundaryIs>
		</Polygon>
		<atom:link rel="app" href="https://www.google.com/earth/about/versions/#earth-pro" title="Google Earth Pro 7.3.7.1155"></atom:link>
	</Placemark>
</Document>
</kml>
