<?xml version="1.0" encoding="UTF-8"?>
<kml xmlns="http://www.opengis.net/kml/2.2" xmlns:gx="http://www.google.com/kml/ext/2.2" xmlns:kml="http://www.opengis.net/kml/2.2" xmlns:atom="http://www.w3.org/2005/Atom">
<Document>
	<name>1778166124598.kml</name>
	<StyleMap id="msn_ylw-pushpin">
		<Pair>
			<key>normal</key>
			<styleUrl>#sn_ylw-pushpin</styleUrl>
		</Pair>
		<Pair>
			<key>highlight</key>
			<styleUrl>#sh_ylw-pushpin</styleUrl>
		</Pair>
	</StyleMap>
	<Style id="sh_ylw-pushpin">
		<IconStyle>
			<scale>1.3</scale>
			<Icon>
				<href>http://maps.google.com/mapfiles/kml/pushpin/ylw-pushpin.png</href>
			</Icon>
			<hotSpot x="20" y="2" xunits="pixels" yunits="pixels"/>
		</IconStyle>
		<BalloonStyle>
		</BalloonStyle>
		<LineStyle>
			<width>2.5</width>
		</LineStyle>
		<PolyStyle>
			<fill>0</fill>
		</PolyStyle>
	</Style>
	<Style id="sn_ylw-pushpin">
		<IconStyle>
			<scale>1.1</scale>
			<Icon>
				<href>http://maps.google.com/mapfiles/kml/pushpin/ylw-pushpin.png</href>
			</Icon>
			<hotSpot x="20" y="2" xunits="pixels" yunits="pixels"/>
		</IconStyle>
		<BalloonStyle>
		</BalloonStyle>
		<LineStyle>
			<width>2.5</width>
		</LineStyle>
		<PolyStyle>
			<fill>0</fill>
		</PolyStyle>
	</Style>
	<Placemark>
		<name>1778166124598</name>
		<styleUrl>#msn_ylw-pushpin</styleUrl>
		<Polygon>
			<tessellate>1</tessellate>
			<outerBoundaryIs>
				<LinearRing>
					<coordinates>
						92.1010889416543,24.17344828387138,0 92.10163808914545,24.17349217266354,0 92.10166077696655,24.1733524830291,0 92.10171462004227,24.17322323112595,0 92.1017376108413,24.17306542622801,0 92.10177035955545,24.17287459445448,0 92.10175297270668,24.17272923108534,0 92.10178031116217,24.17250888793597,0 92.10185609574224,24.17243487533304,0 92.10194566887802,24.1722858047936,0 92.10200875158503,24.17222766245883,0 92.10200117804401,24.1721866481192,0 92.1019421857639,24.17217132434404,0 92.10191492405961,24.17210337941779,0 92.10202191739552,24.17210297528118,0 92.10212457094534,24.17210636276477,0 92.10214156508336,24.17213410223632,0 92.10214487982424,24.17214342202963,0 92.10214890119195,24.17215980580733,0 92.10215005924989,24.17217156084674,0 92.10215845800921,24.17220726733608,0 92.10216037648604,24.17222652274549,0 92.1021620690195,24.1722435105857,0 92.10216057293776,24.17225324768689,0 92.10216647795929,24.17226307561399,0 92.10216500107595,24.17227293971511,0 92.10216573370575,24.17228034167379,0 92.10216498043989,24.17229773448527,0 92.10216421471793,24.17231524589232,0 92.10216195772541,24.17231773179987,0 92.10215845603911,24.17233293730361,0 92.10215518494596,24.17235082926908,0 92.10215466291922,24.17237146657769,0 92.10215541512,24.17237925858239,0 92.102154136026,24.17239229548573,0 92.10215539543502,24.17240541836422,0 92.10215130464404,24.17241595113904,0 92.1021502540649,24.17243186336673,0 92.10214405677118,24.17244786620749,0 92.10214247665681,24.1724586079714,0 92.10213881364692,24.17247485274984,0 92.10213724928076,24.17248584250204,0 92.10213848343746,24.17249951339802,0 92.10213675927081,24.17251013216049,0 92.10213611455669,24.17253417128655,0 92.10213676934319,24.17254223048231,0 92.10213633995647,24.17256929368276,0 92.10213568564998,24.17259389884089,0 92.1021348041529,24.17261597087424,0 92.1021354673619,24.17262429117073,0 92.10213679773788,24.17264100344085,0 92.10213831830083,24.17266048406176,0 92.10213670929815,24.17267442314444,0 92.10213797813662,24.17269116857357,0 92.10213904149573,24.17270520158394,0 92.10213946837452,24.1727108348995,0 92.10213846843367,24.17273347440495,0 92.10213997191927,24.17275344537886,0 92.10214170354701,24.17277644659614,0 92.10214279310489,24.17279091944548,0 92.10214091879729,24.17280254187213,0 92.1021422222442,24.17282004835253,0 92.1021437074556,24.17284042752956,0 92.10214449822293,24.17285188602347,0 92.10214568991839,24.17286915448539,0 92.10214668819381,24.17288361943615,0 92.10214508881555,24.17290102518469,0 92.10214308133145,24.17291266920711,0 92.10213864788328,24.17293019539648,0 92.10213175555992,24.17295370216587,0 92.10213273416632,24.17296856683501,0 92.10213067178098,24.17298042103604,0 92.10213217378042,24.17300413410202,0 92.1021300813044,24.17301604091101,0 92.10212800900007,24.17302812002564,0 92.10212880288506,24.17304033313807,0 92.10212691851923,24.17305557811118,0 92.10212482716655,24.17306780900638,0 92.10212371576102,24.17309561467821,0 92.10212180254911,24.17311112710547,0 92.10212027471366,24.17313300860049,0 92.10212183907809,24.17315819723776,0 92.10212066524338,24.17318663437669,0 92.10212126260035,24.17319624909252,0 92.10211990447173,24.17322191239209,0 92.10212150708841,24.17324789896088,0 92.10212251532442,24.17326424721621,0 92.10211795611829,24.17328702833025,0 92.10211835764507,24.17329363630477,0 92.10211316570076,24.17330663816922,0 92.10211115070294,24.17332312482,0 92.10211273481782,24.17334988576071,0 92.10211124365003,24.17337640222468,0 92.10211219521673,24.17339311331143,0 92.10211315139227,24.17340990626441,0 92.10210876893971,24.17344006639705,0 92.10210665838179,24.17345695014462,0 92.10210187013443,24.17348081348067,0 92.10209995475793,24.17350157691143,0 92.10210053470777,24.1735120625206,0 92.10209917925899,24.17354354791729,0 92.10210072262234,24.17357184106234,0 92.10210169367558,24.17358964226528,0 92.10210306156362,24.1736147178325,0 92.10210384766258,24.17362912792947,0 92.1021046423795,24.17364363289681,0 92.10210290280885,24.17366914349489,0 92.10210390928768,24.17368755515324,0 92.10210492288024,24.17370607492047,0 92.10210655922874,24.17373593568328,0 92.10210800251279,24.17376227418358,0 92.10210645776186,24.17379250647755,0 92.10210687221486,24.1738001329792,0 92.10210490290547,24.17382302010011,0 92.10204340215637,24.17388344174023,0 92.10189556231936,24.17391765374815,0 92.1017202969561,24.17394675117945,0 92.1017039982039,24.17394683092757,0 92.1016615859259,24.17395092909129,0 92.10161582716984,24.17395589322906,0 92.10159614826222,24.17396037440416,0 92.10157324367394,24.17396105010879,0 92.10156015959672,24.17396127904325,0 92.10154690277244,24.1739691416679,0 92.10153371170145,24.17397316428153,0 92.10151702341722,24.17398495953364,0 92.10150050384991,24.17398904217565,0 92.10148396529114,24.17399312965871,0 92.10146740291698,24.17399727581961,0 92.10145424404391,24.17399751088985,0 92.10144108301165,24.1739977461181,0 92.10142492781235,24.17399026245787,0 92.10141880419322,24.17397879728644,0 92.10140942172322,24.17396740082324,0 92.10139662964094,24.17395993531086,0 92.10137749539716,24.17394868584929,0 92.1013645964675,24.17394499171668,0 92.10134844414164,24.17394132512483,0 92.10114937832337,24.17377460191623,0 92.10098045049273,24.17346205273909,0 92.1008217284628,24.17335509053815,0 92.10076564872195,24.1733149928194,0 92.10080720233626,24.17325008591635,0 92.10091081567921,24.17324793253401,0 92.100979486341,24.17334699460397,0 92.1010889416543,24.17344828387138,0 
					</coordinates>
				</LinearRing>
			</outerBoundaryIs>
		</Polygon>
		<atom:link rel="app" href="https://www.google.com/earth/about/versions/#earth-pro" title="Google Earth Pro 7.3.7.1155"></atom:link>
	</Placemark>
</Document>
</kml>
