<?xml version="1.0" encoding="UTF-8"?>
<kml xmlns="http://www.opengis.net/kml/2.2" xmlns:gx="http://www.google.com/kml/ext/2.2" xmlns:kml="http://www.opengis.net/kml/2.2" xmlns:atom="http://www.w3.org/2005/Atom">
<Document>
	<name>1778225595401.kml</name>
	<StyleMap id="msn_ylw-pushpin">
		<Pair>
			<key>normal</key>
			<styleUrl>#sn_ylw-pushpin</styleUrl>
		</Pair>
		<Pair>
			<key>highlight</key>
			<styleUrl>#sh_ylw-pushpin</styleUrl>
		</Pair>
	</StyleMap>
	<Style id="sh_ylw-pushpin">
		<IconStyle>
			<scale>1.3</scale>
			<Icon>
				<href>http://maps.google.com/mapfiles/kml/pushpin/ylw-pushpin.png</href>
			</Icon>
			<hotSpot x="20" y="2" xunits="pixels" yunits="pixels"/>
		</IconStyle>
		<BalloonStyle>
		</BalloonStyle>
		<PolyStyle>
			<fill>0</fill>
		</PolyStyle>
	</Style>
	<Style id="sn_ylw-pushpin">
		<IconStyle>
			<scale>1.1</scale>
			<Icon>
				<href>http://maps.google.com/mapfiles/kml/pushpin/ylw-pushpin.png</href>
			</Icon>
			<hotSpot x="20" y="2" xunits="pixels" yunits="pixels"/>
		</IconStyle>
		<BalloonStyle>
		</BalloonStyle>
		<PolyStyle>
			<fill>0</fill>
		</PolyStyle>
	</Style>
	<Placemark>
		<name>1778225595401</name>
		<styleUrl>#msn_ylw-pushpin</styleUrl>
		<Polygon>
			<tessellate>1</tessellate>
			<outerBoundaryIs>
				<LinearRing>
					<coordinates>
						91.7885991805951,23.35893723059381,0 91.78836461790208,23.35869285883818,0 91.78830006151168,23.35851805866634,0 91.78836139044282,23.3583577668455,0 91.78845294568497,23.35817616207133,0 91.78857410683783,23.35800988570039,0 91.78872557300984,23.35789937410573,0 91.78889429129246,23.35780303140177,0 91.78905150276495,23.35763535107483,0 91.789287455371,23.35750400839104,0 91.78950872784665,23.3574575844577,0 91.78972625684887,23.3574409413815,0 91.78993373103231,23.35748701139841,0 91.79009495377458,23.35752830552497,0 91.79025273058771,23.35765652602261,0 91.79040410659935,23.35783762054693,0 91.7904916245333,23.35802355761529,0 91.79051249512875,23.35828401082766,0 91.79058695228974,23.35834543312273,0 91.79067894599112,23.35851500872019,0 91.79069170895393,23.35867527094532,0 91.79073623340838,23.35879206388874,0 91.79085082488272,23.35899855706148,0 91.79082798054451,23.35915523956369,0 91.79080437934942,23.35949253208604,0 91.79079657705549,23.35970294648311,0 91.79084954106651,23.35984327676632,0 91.79085370211565,23.36021657216774,0 91.79087991291303,23.36038944874235,0 91.79082455392484,23.36046483311893,0 91.79046581620342,23.36044439787063,0 91.79041795834543,23.36033527894836,0 91.79015031978172,23.36016529270688,0 91.7901000587089,23.36002239490104,0 91.789989974382,23.35993464810629,0 91.78979275438707,23.3598324885773,0 91.78966341458596,23.35973228538912,0 91.78943202882022,23.35956717968399,0 91.78939575435366,23.35946393810618,0 91.78927815362786,23.35939820042621,0 91.78908944262935,23.3592814412137,0 91.78900294526169,23.35915149910669,0 91.78879030546527,23.3590550450087,0 91.7885991805951,23.35893723059381,0 
					</coordinates>
				</LinearRing>
			</outerBoundaryIs>
		</Polygon>
		<atom:link rel="app" href="https://www.google.com/earth/about/versions/#earth-pro" title="Google Earth Pro 7.3.7.1155"></atom:link>
	</Placemark>
</Document>
</kml>
