<?xml version="1.0" encoding="UTF-8"?>
<kml xmlns="http://www.opengis.net/kml/2.2" xmlns:gx="http://www.google.com/kml/ext/2.2" xmlns:kml="http://www.opengis.net/kml/2.2" xmlns:atom="http://www.w3.org/2005/Atom">
<Document>
	<name>1778168638231.kml</name>
	<StyleMap id="msn_ylw-pushpin">
		<Pair>
			<key>normal</key>
			<styleUrl>#sn_ylw-pushpin</styleUrl>
		</Pair>
		<Pair>
			<key>highlight</key>
			<styleUrl>#sh_ylw-pushpin</styleUrl>
		</Pair>
	</StyleMap>
	<Style id="sh_ylw-pushpin">
		<IconStyle>
			<scale>1.3</scale>
			<Icon>
				<href>http://maps.google.com/mapfiles/kml/pushpin/ylw-pushpin.png</href>
			</Icon>
			<hotSpot x="20" y="2" xunits="pixels" yunits="pixels"/>
		</IconStyle>
		<BalloonStyle>
		</BalloonStyle>
		<PolyStyle>
			<fill>0</fill>
		</PolyStyle>
	</Style>
	<Style id="sn_ylw-pushpin">
		<IconStyle>
			<scale>1.1</scale>
			<Icon>
				<href>http://maps.google.com/mapfiles/kml/pushpin/ylw-pushpin.png</href>
			</Icon>
			<hotSpot x="20" y="2" xunits="pixels" yunits="pixels"/>
		</IconStyle>
		<BalloonStyle>
		</BalloonStyle>
		<PolyStyle>
			<fill>0</fill>
		</PolyStyle>
	</Style>
	<Placemark>
		<name>1778168638231</name>
		<styleUrl>#msn_ylw-pushpin</styleUrl>
		<Polygon>
			<tessellate>1</tessellate>
			<outerBoundaryIs>
				<LinearRing>
					<coordinates>
						92.07080720699898,23.72387039050086,0 92.07093326805561,23.72388487425684,0 92.0710368327689,23.72387676232302,0 92.07115754752149,23.72397784363794,0 92.07119377896201,23.72398402183586,0 92.07123615950873,23.72395681514856,0 92.07133943728446,23.72390732373573,0 92.07144270330244,23.72390239469525,0 92.07153008618309,23.72396146891868,0 92.07160890770935,23.72398283408283,0 92.07169048595007,23.72397161942582,0 92.07177355499132,23.72398030314244,0 92.07189866713028,23.72405983469828,0 92.07199550703631,23.72422791609566,0 92.07208484698279,23.72442906070274,0 92.07211348840858,23.72453465088772,0 92.07219129031101,23.72463388690571,0 92.07226775117059,23.72466649662599,0 92.07258858830048,23.72463677716265,0 92.07278351365882,23.72460446022622,0 92.07297487162737,23.72462846526415,0 92.07314529721538,23.72474178008883,0 92.07336312635502,23.72477709852561,0 92.07340233636234,23.72478239765365,0 92.0734450619213,23.72471908128089,0 92.07349952090536,23.72471200985921,0 92.07358356343492,23.72473513110524,0 92.0736145095597,23.72476048267854,0 92.07359102695001,23.72484959887255,0 92.07351587413012,23.72493223947119,0 92.07335144102971,23.72499661466745,0 92.07291795201439,23.72494083752715,0 92.07262011488375,23.72496091949857,0 92.07231416594421,23.72505103055277,0 92.07197799157898,23.72518684030867,0 92.07178563389988,23.72522935294998,0 92.07150475405773,23.72517217943474,0 92.07128665730551,23.72513560332944,0 92.07102439801071,23.7249504274973,0 92.07098838354602,23.72491735841114,0 92.07096990369917,23.72485356000627,0 92.07101916905313,23.72480249285736,0 92.07101130707933,23.724676451299,0 92.07093138308926,23.72442637252883,0 92.07088977132196,23.72435032916599,0 92.07082146531238,23.72405862239604,0 92.07078135788213,23.72398128835171,0 92.07080720699898,23.72387039050086,0 
					</coordinates>
				</LinearRing>
			</outerBoundaryIs>
		</Polygon>
		<atom:link rel="app" href="https://www.google.com/earth/about/versions/#earth-pro" title="Google Earth Pro 7.3.7.1155"></atom:link>
	</Placemark>
</Document>
</kml>
