<?xml version="1.0" encoding="UTF-8"?>
<kml xmlns="http://www.opengis.net/kml/2.2" xmlns:gx="http://www.google.com/kml/ext/2.2" xmlns:kml="http://www.opengis.net/kml/2.2" xmlns:atom="http://www.w3.org/2005/Atom">
<Document>
	<name>Belcherra  Element .kml</name>
	<Style id="inline">
		<LineStyle>
			<color>ff0000ff</color>
			<width>2</width>
		</LineStyle>
		<PolyStyle>
			<fill>0</fill>
		</PolyStyle>
	</Style>
	<StyleMap id="inline0">
		<Pair>
			<key>normal</key>
			<styleUrl>#inline</styleUrl>
		</Pair>
		<Pair>
			<key>highlight</key>
			<styleUrl>#inline1</styleUrl>
		</Pair>
	</StyleMap>
	<Style id="inline1">
		<LineStyle>
			<color>ff0000ff</color>
			<width>2</width>
		</LineStyle>
		<PolyStyle>
			<fill>0</fill>
		</PolyStyle>
	</Style>
	<Placemark>
		<name>Belcherra  Element </name>
		<styleUrl>#inline0</styleUrl>
		<Polygon>
			<tessellate>1</tessellate>
			<outerBoundaryIs>
				<LinearRing>
					<coordinates>
						91.5181318456135,24.05267011241705,0 91.51813215736132,24.05270698017544,0 91.51813843545114,24.05272542617251,0 91.51815200397768,24.05275319393513,0 91.51816292569796,24.05276707879289,0 91.51816978160097,24.05278109317956,0 91.51818449025986,24.05279962374782,0 91.51821212085716,24.05281303530207,0 91.51823155817267,24.05282674853307,0 91.51824691458233,24.05284063902106,0 91.51826687078322,24.05284960916739,0 91.51828274286791,24.05285861247252,0 91.51829829474318,24.05287241509656,0 91.51831424311048,24.05288146710753,0 91.51832605801958,24.05289067049724,0 91.51835452024615,24.05289965072378,0 91.51837908318504,24.05290440567708,0 91.5184075413172,24.05291397845711,0 91.51842833695578,24.05291371528391,0 91.51843221773844,24.05291854367094,0 91.51846916096967,24.05292780579951,0 91.51851452455315,24.05293696965697,0 91.51854322295985,24.05294693532849,0 91.51855134942087,24.05295191106534,0 91.51857143186741,24.05297180483581,0 91.51858360553729,24.05298180464806,0 91.5185916228631,24.05299180582152,0 91.51862437237692,24.05301700568429,0 91.51863227042233,24.05303285730565,0 91.51864847035282,24.05305443567128,0 91.51866477453385,24.0530761530097,0 91.51868929441997,24.05311448246753,0 91.51870586311448,24.05313682764102,0 91.51872254273695,24.053159322754,0 91.51873092455092,24.05317062692408,0 91.51874326402124,24.05320480127433,0 91.51876013592307,24.05323416394695,0 91.51876843826233,24.0532635898429,0 91.51877674828748,24.05329909447999,0 91.51878533160598,24.05331708911324,0 91.51878938076375,24.05335297635715,0 91.51880227267417,24.05340106249236,0 91.51880663873432,24.0534131795902,0 91.51881090511696,24.05344345443207,0 91.51881517340158,24.05348010085568,0 91.51882403366029,24.0535113409092,0 91.51883305553838,24.05351773997779,0 91.51885113785782,24.05354879643011,0 91.51886935033711,24.05356689575083,0 91.51888306069763,24.05357895615737,0 91.51891061080903,24.05360319085949,0 91.51892897848496,24.05360927480292,0 91.51893355988075,24.0536092756241,0 91.51896121788883,24.05362163382279,0 91.51898896610116,24.05363403347891,0 91.51901655821548,24.05363433056688,0 91.51905349417274,24.05364058327546,0 91.51907649804355,24.05364060996602,0 91.51911330502584,24.0536406525348,0 91.51916856106298,24.0536411646603,0 91.51928736028161,24.05362417330049,0 91.51930946192917,24.05360733652621,0 91.51932722715837,24.05359631707019,0 91.51934920314388,24.05357969975416,0 91.51936616254544,24.05355727683171,0 91.5193746094005,24.05354610806748,0 91.51939118130487,24.05351880641697,0 91.51939400907784,24.05349127589348,0 91.5193929662033,24.05347471950273,0 91.51939647011677,24.05345842882062,0 91.5194030872776,24.05342058670281,0 91.51940584963745,24.05339369672762,0 91.5194041927215,24.05336727067726,0 91.5194019206301,24.05333421251238,0 91.5193910511212,24.05330613834003,0 91.51938472356971,24.05327855576018,0 91.51937880435688,24.0532565753076,0 91.51936365257761,24.05322854296261,0 91.51935746192922,24.05320138133966,0 91.51934720457453,24.05317915443093,0 91.51933663769159,24.05315155675435,0 91.51931738577726,24.05312340111555,0 91.51930264600989,24.05309580744982,0 91.51928369010945,24.05306810952544,0 91.51926979873994,24.05305140690955,0 91.51926057690466,24.05304031867941,0 91.51924221798663,24.0530182003157,0 91.51922847749256,24.05300135164902,0 91.51919749674956,24.0529782076821,0 91.51917529089528,24.05295624590361,0 91.51915346256857,24.05293960670703,0 91.51914037920929,24.0529286344949,0 91.51911874163233,24.05291214352127,0 91.51910577747965,24.05290126823936,0 91.51908867865478,24.05289022342617,0 91.51907597794434,24.05288450905009,0 91.51904216177019,24.05286730855921,0 91.51902539196769,24.05286123887723,0 91.5190044443216,24.05285057092644,0 91.5189919284706,24.052845153273,0 91.51897506804386,24.05282514247327,0 91.51894591761994,24.05279990997812,0 91.51893339962891,24.05278035730841,0 91.51892503433317,24.05276110375675,0 91.51891667599642,24.05273727858979,0 91.51891234381165,24.05270407626389,0 91.51891211554849,24.05267591122976,0 91.51890790962152,24.05265243137991,0 91.51890773382949,24.05262922223582,0 91.51890762899544,24.05261537231389,0 91.51890347565364,24.05259230788159,0 91.51889541180226,24.05257384386436,0 91.51889530639066,24.05255569076104,0 91.51889520109593,24.05253760818036,0 91.51890296445436,24.05251964065952,0 91.51891068994701,24.05250190686646,0 91.51891447503021,24.05248471560892,0 91.51891433517896,24.05246754106311,0 91.51891020181296,24.0524376195089,0 91.51890225686313,24.05241210091847,0 91.51889436964726,24.05238676746905,0 91.51888655723542,24.05236577598178,0 91.51887879038281,24.05234477489007,0 91.51887874817582,24.0523322000057,0 91.51887103654732,24.05230751528447,0 91.51886338364486,24.05228707976362,0 91.51885956727858,24.05226270416886,0 91.51885577718035,24.05224650102196,0 91.5188482365902,24.05222632007143,0 91.51884450716088,24.05220232499937,0 91.51883332934712,24.05217446160983,0 91.51883339545276,24.052154817475,0 91.51882598617908,24.05214302039375,0 91.51881862449183,24.05212738432312,0 91.51881877786447,24.05210017179691,0 91.5188115863651,24.05206925935805,0 91.51881174236695,24.05204628172642,0 91.51880823966823,24.05202345272607,0 91.51880111642619,24.05200077140729,0 91.51880133420123,24.05197465536224,0 91.51880499324265,24.05197096307683,0 91.51881239677053,24.05194885237517,0 91.5188161516427,24.0519267031474,0 91.51882343691733,24.05191196001227,0 91.51883789581608,24.05188631355015,0 91.51883792722528,24.0518754204478,0 91.51884866647497,24.0518645045144,0 91.5188629157807,24.05183924867361,0 91.51887351092766,24.05181422981003,0 91.51888053629838,24.05179999328592,0 91.51888745862902,24.05177173124859,0 91.51888738799497,24.05175770436922,0 91.51888730023499,24.05174025974358,0 91.51888721292488,24.05172291324493,0 91.51888710882866,24.0517022257832,0 91.51888703981227,24.05168851126432,0 91.51888691975724,24.05166465882157,0 91.51887994282416,24.05164774943521,0 91.51887988702759,24.05163411688435,0 91.51887294221919,24.05161041514316,0 91.51886946398145,24.05158690066703,0 91.51885922574594,24.05157023742296,0 91.51884904239733,24.05155699136531,0 91.51883549726685,24.0515504165804,0 91.51881855379214,24.05155046745648,0 91.5188015769323,24.05155382470064,0 91.51878789240631,24.05156380813636,0 91.51876393465253,24.0515740160812,0 91.51875365271587,24.05157747720156,0 91.51872597922772,24.05159461061899,0 91.51869135650919,24.05160852684751,0 91.51867066240756,24.05161206595808,0 91.51865693217604,24.05161214858616,0 91.51863289951019,24.05161229309408,0 91.51861259247997,24.0516056148885,0 91.51859559852117,24.05160232214615,0 91.51857879103545,24.05159564550072,0 91.51855517767935,24.05158902417646,0 91.51853522915638,24.05157902941058,0 91.51852518011363,24.05157572529323,0 91.51850510708599,24.05156915334921,0 91.51848803556743,24.05156928981955,0 91.51847801988978,24.05156601828281,0 91.51845412344848,24.05156620865923,0 91.51845070894188,24.05156623587692,0 91.51843363860594,24.05156636016314,0 91.51840637386859,24.05156642340633,0 91.51838536988636,24.05157314448099,0 91.51837143383401,24.05157651917097,0 91.51834692904656,24.05158327297619,0 91.5183328896625,24.05158677412014,0 91.51832226056067,24.05159025912335,0 91.51831473800218,24.05159707891059,0 91.51828170330008,24.05161772049881,0 91.51827098620879,24.05162122749648,0 91.51825679198403,24.05162477682253,0 91.5182391118741,24.05162836889311,0 91.51821641829731,24.05164568289423,0 91.51819828749393,24.05165266668167,0 91.51818709475157,24.05165957187429,0 91.51817555450521,24.0516697985088,0 91.5181605001448,24.05168005703606,0 91.51814773338947,24.05170058781385,0 91.51813956620414,24.05171091273921,0 91.5181313719069,24.05172127219626,0 91.5181062235619,24.05175602304894,0 91.51807302931491,24.0517979174785,0 91.51806380797238,24.0518155319562,0 91.51805496638343,24.05182970044673,0 91.51804608488629,24.05184393302205,0 91.51802512318045,24.05186891269099,0 91.51800762745211,24.05189403108799,0 91.51799861752035,24.05190843964013,0 91.51798103621981,24.05193365926038,0 91.51796788618219,24.05195177885129,0 91.5179633178798,24.05195907793983,0 91.5179371808448,24.05199209927655,0 91.51793566422441,24.05200326144775,0 91.51792534359053,24.05202560588994,0 91.51792067519787,24.05203307117965,0 91.5179133896075,24.05205944301402,0 91.51790759559054,24.05207464468085,0 91.51789800084579,24.05209004421136,0 91.51789093232914,24.05211330320389,0 91.5178758052071,24.05214062176446,0 91.51786918632889,24.05216028731261,0 91.51785564999572,24.05217605513668,0 91.51784139895821,24.05219597118289,0 91.51782767042646,24.05221199946431,0 91.51781709848586,24.05223202340252,0 91.51779015952303,24.05226008260478,0 91.51778005177823,24.05227629601883,0 91.51776987396197,24.05229262212822,0 91.5177640966172,24.0523049534362,0 91.51774867723684,24.05232970095896,0 91.51774663954278,24.05234221362009,0 91.51773107698901,24.05236722424523,0 91.51772377191188,24.05238828144271,0 91.51771641115806,24.05240948779027,0 91.51770513770401,24.05243078898226,0 91.51769839010913,24.05244795342236,0 91.51769233860068,24.05246087038644,0 91.5176840575097,24.0524868986222,0 91.51767961706385,24.05251317443198,0 91.51768053583147,24.0525308843816,0 91.51769245722279,24.05255335327643,0 91.51770673500974,24.05256242315265,0 91.51771784407836,24.05256698432662,0 91.51773934115393,24.05258070812835,0 91.51775301118511,24.0525943990312,0 91.51777535261638,24.05260373639203,0 91.51778982690283,24.05261299220103,0 91.5178076393676,24.05262686965276,0 91.51781491881933,24.05263152626075,0 91.51783687291443,24.05264541717703,0 91.51785435717959,24.05266372107241,0 91.51786111672327,24.05267291460621,0 91.51788064270734,24.05267746969859,0 91.51790640905816,24.05269591508807,0 91.51793472572261,24.05269582514966,0 91.51796880760193,24.05271433889734,0 91.51798502812461,24.05271428697554,0 91.5180047704101,24.05271882647304,0 91.51803230414635,24.05272750876357,0 91.51806092695315,24.05272686225851,0 91.51809765376763,24.05272618185199,0 91.51812573073209,24.05273031739315,0 91.51813750451069,24.05273476008754,0 91.51816881535133,24.05274819415148,0 91.51818066460683,24.05275257074999,0 91.51820400269133,24.05276594721537,0 91.51822330238294,24.05277949337388,0 91.51822700542793,24.05278410323913,0 91.5181318456135,24.05267011241705,0 
					</coordinates>
				</LinearRing>
			</outerBoundaryIs>
		</Polygon>
		<atom:link rel="app" href="https://www.google.com/earth/about/versions/#earth-pro" title="Google Earth Pro 7.3.7.1155"></atom:link>
	</Placemark>
</Document>
</kml>
