<?xml version="1.0" encoding="UTF-8"?>
<kml xmlns="http://www.opengis.net/kml/2.2" xmlns:gx="http://www.google.com/kml/ext/2.2" xmlns:kml="http://www.opengis.net/kml/2.2" xmlns:atom="http://www.w3.org/2005/Atom">
<Document>
	<name>1778577130731.kml</name>
	<StyleMap id="msn_ylw-pushpin">
		<Pair>
			<key>normal</key>
			<styleUrl>#sn_ylw-pushpin</styleUrl>
		</Pair>
		<Pair>
			<key>highlight</key>
			<styleUrl>#sh_ylw-pushpin</styleUrl>
		</Pair>
	</StyleMap>
	<Style id="sh_ylw-pushpin">
		<IconStyle>
			<scale>1.3</scale>
			<Icon>
				<href>http://maps.google.com/mapfiles/kml/pushpin/ylw-pushpin.png</href>
			</Icon>
			<hotSpot x="20" y="2" xunits="pixels" yunits="pixels"/>
		</IconStyle>
		<BalloonStyle>
		</BalloonStyle>
		<PolyStyle>
			<fill>0</fill>
		</PolyStyle>
	</Style>
	<Style id="sn_ylw-pushpin">
		<IconStyle>
			<scale>1.1</scale>
			<Icon>
				<href>http://maps.google.com/mapfiles/kml/pushpin/ylw-pushpin.png</href>
			</Icon>
			<hotSpot x="20" y="2" xunits="pixels" yunits="pixels"/>
		</IconStyle>
		<BalloonStyle>
		</BalloonStyle>
		<PolyStyle>
			<fill>0</fill>
		</PolyStyle>
	</Style>
	<Placemark>
		<name>1778577130731</name>
		<styleUrl>#msn_ylw-pushpin</styleUrl>
		<Polygon>
			<tessellate>1</tessellate>
			<outerBoundaryIs>
				<LinearRing>
					<coordinates>
						91.8374664899426,23.64550779190632,0 91.83699380333618,23.64479126569886,0 91.83676959586788,23.64467344118857,0 91.83671054647658,23.64446461143466,0 91.83675768613099,23.64433354784086,0 91.83671124358087,23.64413531564711,0 91.83695756210089,23.64386806551293,0 91.836968663916,23.64354350375723,0 91.83707464901357,23.64342096798008,0 91.83727689859143,23.64329872676412,0 91.83812636900831,23.64355863214903,0 91.83832097283013,23.64347381725724,0 91.83832353531467,23.6434785836632,0 91.83833528683782,23.64348318089453,0 91.83834461503368,23.64348539812505,0 91.83836083954142,23.64348744654147,0 91.83837231438682,23.64348716175061,0 91.83838819629432,23.64348434885908,0 91.83841111733922,23.64348381992665,0 91.83842506797886,23.64348594271422,0 91.83844634592995,23.64349280178819,0 91.83846286803531,23.64349733372376,0 91.83847918556351,23.64349941610771,0 91.83850711020516,23.64350169900407,0 91.83852822641251,23.64350439433552,0 91.83855401476978,23.64350714398719,0 91.83857085817239,23.64351227637049,0 91.83858278107756,23.64351486948402,0 91.83860369888789,23.64351505672175,0 91.83861798100027,23.64351767461675,0 91.83865091052952,23.64352046353007,0 91.8386795518454,23.64352424229997,0 91.83874059503503,23.64353662664157,0 91.83878524621403,23.64354767681055,0 91.83884043137839,23.64356210421406,0 91.83890273502647,23.64358105056464,0 91.83893810523355,23.64358593862825,0 91.83896409718501,23.64359214667926,0 91.83898192984108,23.64359461455399,0 91.83912844338279,23.6437000987701,0 91.83917271455671,23.64380192380949,0 91.83932774359856,23.64384199746287,0 91.83943095122325,23.64393362535552,0 91.83943165939509,23.64401082345938,0 91.83939318032371,23.6442083431807,0 91.83939737679137,23.64436336335002,0 91.83951615100983,23.64455216706252,0 91.83943932468284,23.64469166302431,0 91.83956760642704,23.64480597047493,0 91.8392550149232,23.64501440897146,0 91.83900410665987,23.64520192913687,0 91.83827002413159,23.64557525223122,0 91.83780453639899,23.64560556929105,0 91.8374664899426,23.64550779190632,0 
					</coordinates>
				</LinearRing>
			</outerBoundaryIs>
		</Polygon>
		<atom:link rel="app" href="https://www.google.com/earth/about/versions/#earth-pro" title="Google Earth Pro 7.3.7.1155"></atom:link>
	</Placemark>
</Document>
</kml>
