<?xml version="1.0" encoding="UTF-8"?>
<kml xmlns="http://www.opengis.net/kml/2.2" xmlns:gx="http://www.google.com/kml/ext/2.2" xmlns:kml="http://www.opengis.net/kml/2.2" xmlns:atom="http://www.w3.org/2005/Atom">
<Document>
	<name>1778067212291.kml</name>
	<StyleMap id="msn_ylw-pushpin">
		<Pair>
			<key>normal</key>
			<styleUrl>#sn_ylw-pushpin</styleUrl>
		</Pair>
		<Pair>
			<key>highlight</key>
			<styleUrl>#sh_ylw-pushpin</styleUrl>
		</Pair>
	</StyleMap>
	<Style id="sh_ylw-pushpin">
		<IconStyle>
			<scale>1.3</scale>
			<Icon>
				<href>http://maps.google.com/mapfiles/kml/pushpin/ylw-pushpin.png</href>
			</Icon>
			<hotSpot x="20" y="2" xunits="pixels" yunits="pixels"/>
		</IconStyle>
		<BalloonStyle>
		</BalloonStyle>
		<PolyStyle>
			<fill>0</fill>
		</PolyStyle>
	</Style>
	<Style id="sn_ylw-pushpin">
		<IconStyle>
			<scale>1.1</scale>
			<Icon>
				<href>http://maps.google.com/mapfiles/kml/pushpin/ylw-pushpin.png</href>
			</Icon>
			<hotSpot x="20" y="2" xunits="pixels" yunits="pixels"/>
		</IconStyle>
		<BalloonStyle>
		</BalloonStyle>
		<PolyStyle>
			<fill>0</fill>
		</PolyStyle>
	</Style>
	<Placemark>
		<name>1778067212291</name>
		<styleUrl>#msn_ylw-pushpin</styleUrl>
		<Polygon>
			<tessellate>1</tessellate>
			<outerBoundaryIs>
				<LinearRing>
					<coordinates>
						91.78812715845098,23.40979156062334,0 91.78810052911399,23.40956367462447,0 91.78800370103671,23.40919571931627,0 91.78801355220185,23.40892657150222,0 91.7880245650155,23.40871403416802,0 91.78791705576309,23.40857185936396,0 91.78794271846756,23.40848041330131,0 91.78802451496834,23.4083200363438,0 91.7879368546821,23.40798853000442,0 91.78799539225066,23.4078097442115,0 91.7880767092731,23.4076546131853,0 91.78811164219569,23.40749262929689,0 91.78829520506292,23.40745243205788,0 91.7883449003408,23.40733094312493,0 91.78858882823633,23.40733293195972,0 91.78890402269195,23.40733023924781,0 91.78900625054493,23.40738186176669,0 91.7891753949407,23.40749277945554,0 91.78929594239276,23.40749970453037,0 91.78955975970771,23.40749155684754,0 91.78980852618329,23.40756353931049,0 91.7900313442566,23.40757937325304,0 91.79025370686661,23.40767484662539,0 91.79064319839604,23.40766777747615,0 91.79093748512886,23.40770387126026,0 91.79112363306808,23.4076537098165,0 91.79126120926156,23.40771202164192,0 91.79134906592559,23.4077843457917,0 91.79146017014901,23.4079678589117,0 91.79157959951721,23.40802306645329,0 91.79164630848399,23.40809898849486,0 91.79177135651061,23.4083657615218,0 91.79201869976089,23.4086364349359,0 91.7921693222917,23.40879970804306,0 91.79228913961776,23.40890221537106,0 91.79244746086771,23.40905791585049,0 91.79255368554405,23.40918298512879,0 91.7925473052681,23.40933664504343,0 91.79225293528191,23.40956900102097,0 91.79218765604597,23.40956745968126,0 91.79198147715178,23.40961285521317,0 91.79152701935054,23.4096555570367,0 91.79103097017648,23.40968021735501,0 91.79079964123032,23.40981332783428,0 91.79050208416031,23.40981665214461,0 91.78927748291221,23.40996456300505,0 91.78894787941132,23.41003709266515,0 91.78869582006504,23.41014911449131,0 91.78846957428718,23.41012410001727,0 91.78812715845098,23.40979156062334,0 
					</coordinates>
				</LinearRing>
			</outerBoundaryIs>
		</Polygon>
		<atom:link rel="app" href="https://www.google.com/earth/about/versions/#earth-pro" title="Google Earth Pro 7.3.7.1155"></atom:link>
	</Placemark>
</Document>
</kml>
