<?xml version="1.0" encoding="UTF-8"?>
<kml xmlns="http://www.opengis.net/kml/2.2" xmlns:gx="http://www.google.com/kml/ext/2.2" xmlns:kml="http://www.opengis.net/kml/2.2" xmlns:atom="http://www.w3.org/2005/Atom">
<Document>
	<name>1778166385484.kml</name>
	<StyleMap id="msn_ylw-pushpin">
		<Pair>
			<key>normal</key>
			<styleUrl>#sn_ylw-pushpin</styleUrl>
		</Pair>
		<Pair>
			<key>highlight</key>
			<styleUrl>#sh_ylw-pushpin</styleUrl>
		</Pair>
	</StyleMap>
	<Style id="sh_ylw-pushpin">
		<IconStyle>
			<scale>1.3</scale>
			<Icon>
				<href>http://maps.google.com/mapfiles/kml/pushpin/ylw-pushpin.png</href>
			</Icon>
			<hotSpot x="20" y="2" xunits="pixels" yunits="pixels"/>
		</IconStyle>
		<BalloonStyle>
		</BalloonStyle>
		<LineStyle>
			<width>3</width>
		</LineStyle>
		<PolyStyle>
			<fill>0</fill>
		</PolyStyle>
	</Style>
	<Style id="sn_ylw-pushpin">
		<IconStyle>
			<scale>1.1</scale>
			<Icon>
				<href>http://maps.google.com/mapfiles/kml/pushpin/ylw-pushpin.png</href>
			</Icon>
			<hotSpot x="20" y="2" xunits="pixels" yunits="pixels"/>
		</IconStyle>
		<BalloonStyle>
		</BalloonStyle>
		<LineStyle>
			<width>3</width>
		</LineStyle>
		<PolyStyle>
			<fill>0</fill>
		</PolyStyle>
	</Style>
	<Placemark>
		<name>1778166385484</name>
		<styleUrl>#msn_ylw-pushpin</styleUrl>
		<Polygon>
			<tessellate>1</tessellate>
			<outerBoundaryIs>
				<LinearRing>
					<coordinates>
						92.05898142445672,23.93637276751094,0 92.05908351090157,23.93638235376933,0 92.05913540681242,23.93642698203842,0 92.05918900304783,23.93650886760679,0 92.05916300626487,23.93662296717607,0 92.05928443179802,23.93672705227155,0 92.05936662238867,23.93678354168527,0 92.05944348094563,23.93689055704581,0 92.05945728123206,23.93699374296281,0 92.05941939360154,23.93709279071992,0 92.05949342154528,23.93714600991186,0 92.05948718750268,23.93727135981612,0 92.05948017302036,23.93738859025109,0 92.05941816275944,23.93748637622086,0 92.05940723114686,23.93759932932016,0 92.0594525168371,23.93770393802656,0 92.05948267502353,23.93780064738638,0 92.05954044843111,23.93796390323713,0 92.05952812466514,23.93812381570804,0 92.05960119313988,23.93832270603201,0 92.05971494773476,23.93855147416953,0 92.05970255040191,23.93866160352943,0 92.05958475394796,23.93875295053674,0 92.05933916867345,23.93887356519129,0 92.05920151877162,23.93888817686436,0 92.05901841286153,23.93892286266729,0 92.05885440199761,23.93898992433806,0 92.0587427444313,23.93910592042309,0 92.05874458932553,23.93917823970916,0 92.05868248483561,23.93912100851448,0 92.0585942381326,23.93917666444781,0 92.05836899708798,23.93915108880952,0 92.05810011163835,23.93913608629031,0 92.05798630505775,23.93921487337284,0 92.05779546555227,23.93924457365188,0 92.05770890540394,23.93929784215269,0 92.05757064590669,23.93944557564753,0 92.05743169603272,23.93957058402951,0 92.05722729597856,23.93972383562672,0 92.05708020993578,23.93987110328786,0 92.0569503059381,23.94004192637302,0 92.05689076737086,23.94007572248437,0 92.05687268476761,23.93995397423318,0 92.05692647389968,23.93988823962729,0 92.05696881577276,23.9397931095058,0 92.05702608655001,23.93964419483208,0 92.05714612842326,23.93950184478609,0 92.05727841299934,23.9394509627417,0 92.05738982064221,23.93941947877097,0 92.05747497104942,23.93936346840522,0 92.05758758810701,23.9392998044381,0 92.05764352664937,23.93917077475436,0 92.05758756212045,23.93911328721564,0 92.05760094866903,23.9389871273443,0 92.05757671391436,23.9388750356971,0 92.05756639463756,23.9387325005385,0 92.05738425423404,23.93867348011233,0 92.05727920721247,23.93851644645987,0 92.05725700065028,23.93832715673045,0 92.05712853076939,23.93822715699174,0 92.05706447762996,23.93811822212346,0 92.05697746022791,23.9380023739222,0 92.05690102661704,23.93800218880396,0 92.05682691215323,23.93789550139638,0 92.05688355214437,23.93776488392182,0 92.05691084199367,23.93774832229027,0 92.05692861672216,23.93774005601541,0 92.05694763400483,23.93772334181444,0 92.05694883415165,23.93771499300844,0 92.05693537333507,23.93766514336522,0 92.05686055237956,23.93761555671989,0 92.05674930339697,23.93761268268997,0 92.05672709773486,23.93752355860933,0 92.05671091551746,23.93747533655916,0 92.05679821180718,23.93742159098834,0 92.05690258369431,23.93735962926863,0 92.05695794654532,23.93739097317431,0 92.05696176842126,23.93743989985501,0 92.05709723353495,23.93745529117695,0 92.05723282411475,23.93752615897793,0 92.0572309353947,23.93760145394272,0 92.05733994836631,23.93767957108441,0 92.05754194118454,23.93776788478144,0 92.05760556542189,23.937762295582,0 92.05772605108095,23.93767057636077,0 92.05781177148,23.93752808192882,0 92.05782775460251,23.93742413244104,0 92.05789434654304,23.93733436550476,0 92.05794033330271,23.93730184271475,0 92.05797509254164,23.93718411856471,0 92.05804308985542,23.93715385961726,0 92.05805066218075,23.9370846412252,0 92.0581772494518,23.93703439449045,0 92.05821450704538,23.93696806057274,0 92.05831452441097,23.93694662409157,0 92.05832585117517,23.93694971676337,0 92.05834098329466,23.93695257441282,0 92.05835991262828,23.93695519581293,0 92.05837504260855,23.93695797198608,0 92.05839018738533,23.93696047665102,0 92.05839411309941,23.93695231131186,0 92.05847361956255,23.93689107223706,0 92.0585177626002,23.93676057472962,0 92.05866239224031,23.93666647108965,0 92.05874004433595,23.93667943303489,0 92.05881528955855,23.93664177478666,0 92.0588851139203,23.93646564599,0 92.05898142445672,23.93637276751094,0 
					</coordinates>
				</LinearRing>
			</outerBoundaryIs>
		</Polygon>
		<atom:link rel="app" href="https://www.google.com/earth/about/versions/#earth-pro" title="Google Earth Pro 7.3.7.1155"></atom:link>
	</Placemark>
</Document>
</kml>
