<?xml version="1.0" encoding="UTF-8"?>
<kml xmlns="http://www.opengis.net/kml/2.2" xmlns:gx="http://www.google.com/kml/ext/2.2" xmlns:kml="http://www.opengis.net/kml/2.2" xmlns:atom="http://www.w3.org/2005/Atom">
<Document>
	<name>1778143744427.kml</name>
	<StyleMap id="msn_ylw-pushpin">
		<Pair>
			<key>normal</key>
			<styleUrl>#sn_ylw-pushpin</styleUrl>
		</Pair>
		<Pair>
			<key>highlight</key>
			<styleUrl>#sh_ylw-pushpin</styleUrl>
		</Pair>
	</StyleMap>
	<Style id="sh_ylw-pushpin">
		<IconStyle>
			<scale>1.3</scale>
			<Icon>
				<href>http://maps.google.com/mapfiles/kml/pushpin/ylw-pushpin.png</href>
			</Icon>
			<hotSpot x="20" y="2" xunits="pixels" yunits="pixels"/>
		</IconStyle>
		<BalloonStyle>
		</BalloonStyle>
		<PolyStyle>
			<fill>0</fill>
		</PolyStyle>
	</Style>
	<Style id="sn_ylw-pushpin">
		<IconStyle>
			<scale>1.1</scale>
			<Icon>
				<href>http://maps.google.com/mapfiles/kml/pushpin/ylw-pushpin.png</href>
			</Icon>
			<hotSpot x="20" y="2" xunits="pixels" yunits="pixels"/>
		</IconStyle>
		<BalloonStyle>
		</BalloonStyle>
		<PolyStyle>
			<fill>0</fill>
		</PolyStyle>
	</Style>
	<Placemark>
		<name>1778143744427</name>
		<styleUrl>#msn_ylw-pushpin</styleUrl>
		<Polygon>
			<tessellate>1</tessellate>
			<outerBoundaryIs>
				<LinearRing>
					<coordinates>
						91.59116699425022,23.50822953283351,0 91.59112432800312,23.50799594312734,0 91.59086822035292,23.50769896419206,0 91.59061658859612,23.50725158330498,0 91.59050047747046,23.50718362425452,0 91.59027993175556,23.5070311022529,0 91.59005048004737,23.50693811859464,0 91.58994484887056,23.50671158269619,0 91.5899657470422,23.50644729646617,0 91.59002598192887,23.50623013530225,0 91.5901632743324,23.50609574091595,0 91.59033974850792,23.50593358728506,0 91.59045629686476,23.50573666686967,0 91.59041915285341,23.50538680428014,0 91.59050113526962,23.50524919042647,0 91.59065930063096,23.50513836229974,0 91.59073033975918,23.50507634528689,0 91.5907821427493,23.50498416160833,0 91.59090525285454,23.50498222440697,0 91.59093253331275,23.50509559145237,0 91.59093281117161,23.50534472732505,0 91.59114234768403,23.5055108700779,0 91.5915012271128,23.50553737935743,0 91.59152735937133,23.50564357068835,0 91.59181432566102,23.50578347780277,0 91.59187521675415,23.50595862388563,0 91.5919441646614,23.50617631388438,0 91.59190095273325,23.50635447885005,0 91.59165524062227,23.50647403385795,0 91.59147745453426,23.50659887432649,0 91.59178109877853,23.50660478600918,0 91.59183577916055,23.50663021921405,0 91.59207504869057,23.50661618493479,0 91.59236942036034,23.50658783097466,0 91.59261226220225,23.5066394960718,0 91.59267943598711,23.50679280845076,0 91.59283721176479,23.50687021384239,0 91.59296142218594,23.5071156891496,0 91.59312359830751,23.50721647129307,0 91.59303538138714,23.50726257936299,0 91.59302739989587,23.50735617431076,0 91.59289496552108,23.50736195682791,0 91.5927618913622,23.50731608128208,0 91.59252253517045,23.50731237435554,0 91.5922817645445,23.50750457507449,0 91.59211346269855,23.50775420808192,0 91.59198941690148,23.50798004617037,0 91.59196279780987,23.50816523119208,0 91.59211348505244,23.50834710990923,0 91.59217019078494,23.50848118703138,0 91.59232152967768,23.50853880381203,0 91.59231281171796,23.50867758056943,0 91.59220151040289,23.50868005558375,0 91.59199035620964,23.50866899748222,0 91.59183908620543,23.50862675451271,0 91.59174779572702,23.50849395223192,0 91.59170748131316,23.50836737422908,0 91.59162377337881,23.50835224043421,0 91.59151778057262,23.50835816234174,0 91.59133881993074,23.50842265852509,0 91.59120463460057,23.50838458757728,0 91.59116699425022,23.50822953283351,0 
					</coordinates>
				</LinearRing>
			</outerBoundaryIs>
		</Polygon>
		<atom:link rel="app" href="https://www.google.com/earth/about/versions/#earth-pro" title="Google Earth Pro 7.3.7.1155"></atom:link>
	</Placemark>
</Document>
</kml>
