<?xml version="1.0" encoding="UTF-8"?>
<kml xmlns="http://www.opengis.net/kml/2.2" xmlns:gx="http://www.google.com/kml/ext/2.2" xmlns:kml="http://www.opengis.net/kml/2.2" xmlns:atom="http://www.w3.org/2005/Atom">
<Document>
	<name>1778142416732.kml</name>
	<StyleMap id="msn_ylw-pushpin">
		<Pair>
			<key>normal</key>
			<styleUrl>#sn_ylw-pushpin</styleUrl>
		</Pair>
		<Pair>
			<key>highlight</key>
			<styleUrl>#sh_ylw-pushpin</styleUrl>
		</Pair>
	</StyleMap>
	<Style id="sh_ylw-pushpin">
		<IconStyle>
			<scale>1.3</scale>
			<Icon>
				<href>http://maps.google.com/mapfiles/kml/pushpin/ylw-pushpin.png</href>
			</Icon>
			<hotSpot x="20" y="2" xunits="pixels" yunits="pixels"/>
		</IconStyle>
		<BalloonStyle>
		</BalloonStyle>
		<PolyStyle>
			<fill>0</fill>
		</PolyStyle>
	</Style>
	<Style id="sn_ylw-pushpin">
		<IconStyle>
			<scale>1.1</scale>
			<Icon>
				<href>http://maps.google.com/mapfiles/kml/pushpin/ylw-pushpin.png</href>
			</Icon>
			<hotSpot x="20" y="2" xunits="pixels" yunits="pixels"/>
		</IconStyle>
		<BalloonStyle>
		</BalloonStyle>
		<PolyStyle>
			<fill>0</fill>
		</PolyStyle>
	</Style>
	<Placemark>
		<name>1778142416732</name>
		<styleUrl>#msn_ylw-pushpin</styleUrl>
		<Polygon>
			<tessellate>1</tessellate>
			<outerBoundaryIs>
				<LinearRing>
					<coordinates>
						91.7477075731327,23.24725496971444,0 91.74755543646623,23.24716210146881,0 91.74751543108711,23.24706778405835,0 91.74748956594284,23.24704390093041,0 91.74733223666088,23.24690394694535,0 91.74753150618959,23.24668060862297,0 91.74769945598035,23.24645207546237,0 91.74786025999877,23.24634343821635,0 91.74824326261327,23.24631487374965,0 91.74838493582871,23.24608775625478,0 91.74859312374878,23.24604696173683,0 91.74886606935385,23.24601536386925,0 91.74893656025198,23.24611006604976,0 91.74893977562014,23.24615635918694,0 91.74904577740294,23.24629076524067,0 91.7491725553179,23.24643560526993,0 91.74939070252472,23.24648977556478,0 91.74943787810389,23.24651576795474,0 91.74949272463073,23.24664848213796,0 91.74943312057407,23.24672128415855,0 91.74935928147907,23.24688113436881,0 91.74930376258547,23.24702881393315,0 91.74917152383404,23.24717908283656,0 91.7490488368509,23.24722888533496,0 91.74879612926122,23.24723543483877,0 91.74870985345252,23.24726395967432,0 91.74852568822989,23.24739354749705,0 91.74830600557338,23.24739136755584,0 91.74821287762398,23.24730000154719,0 91.74815758767988,23.24730013118354,0 91.74797745477673,23.24736299520323,0 91.74779637470024,23.24742493690097,0 91.7477075731327,23.24725496971444,0 
					</coordinates>
				</LinearRing>
			</outerBoundaryIs>
		</Polygon>
		<atom:link rel="app" href="https://www.google.com/earth/about/versions/#earth-pro" title="Google Earth Pro 7.3.7.1155"></atom:link>
	</Placemark>
</Document>
</kml>
