<?xml version="1.0" encoding="UTF-8"?>
<kml xmlns="http://www.opengis.net/kml/2.2" xmlns:gx="http://www.google.com/kml/ext/2.2" xmlns:kml="http://www.opengis.net/kml/2.2" xmlns:atom="http://www.w3.org/2005/Atom">
<Document>
	<name>Pre-Survey Map of 5. 2 ha ANR Bamboo Plantation.kml</name>
	<StyleMap id="inline">
		<Pair>
			<key>normal</key>
			<styleUrl>#inline11</styleUrl>
		</Pair>
		<Pair>
			<key>highlight</key>
			<styleUrl>#inline8</styleUrl>
		</Pair>
	</StyleMap>
	<Style id="inline11">
		<LineStyle>
			<color>ff0000ff</color>
			<width>2</width>
		</LineStyle>
		<PolyStyle>
			<fill>0</fill>
		</PolyStyle>
	</Style>
	<Style id="inline8">
		<LineStyle>
			<color>ff0000ff</color>
			<width>2</width>
		</LineStyle>
		<PolyStyle>
			<fill>0</fill>
		</PolyStyle>
	</Style>
	<Placemark>
		<name>Polygon Measure</name>
		<styleUrl>#inline</styleUrl>
		<Polygon>
			<tessellate>1</tessellate>
			<outerBoundaryIs>
				<LinearRing>
					<coordinates>
						91.61538584715274,23.52356929047603,0 91.61555023129768,23.52368733693864,0 91.61597306344713,23.52396754740416,0 91.61607629069871,23.52405289514991,0 91.61612173777885,23.52411072212995,0 91.61626106179133,23.52440130345383,0 91.61626644181912,23.52463651100152,0 91.61630016085661,23.52496175237668,0 91.61646669299284,23.52548514192526,0 91.61644713407868,23.52569132806611,0 91.61635269494377,23.52596419924064,0 91.6163110694432,23.52604399038137,0 91.61628169940089,23.52610754299191,0 91.61622995134483,23.52627071122645,0 91.61589635571512,23.52649688109502,0 91.61574646350607,23.52675050937878,0 91.61556571898821,23.52676263006263,0 91.61509879110173,23.52665663345336,0 91.61497701016671,23.52663010274772,0 91.61486301349009,23.5263971158957,0 91.6147483221406,23.52618375691143,0 91.61472178063764,23.52591010256982,0 91.61468146337288,23.52567474509687,0 91.61461461873409,23.52538488913186,0 91.61449720065411,23.52496058503124,0 91.61458515237841,23.52459151998331,0 91.61466607698847,23.52444291210482,0 91.61475773864314,23.52429853916424,0 91.61495211420782,23.5238264768337,0 91.61504776716944,23.52373208626545,0 91.6150541510938,23.52373847236103,0 91.6150530915272,23.52376333309827,0 91.61502567613996,23.52372160740273,0 91.61508554084467,23.52363335248389,0 91.6152400759627,23.52355225236089,0 91.61538584715274,23.52356929047603,0 
					</coordinates>
				</LinearRing>
			</outerBoundaryIs>
		</Polygon>
		<atom:link rel="app" href="https://www.google.com/earth/about/versions/#earth-pro" title="Google Earth Pro 7.3.7.1155"></atom:link>
	</Placemark>
</Document>
</kml>
