<?xml version="1.0" encoding="UTF-8"?>
<kml xmlns="http://www.opengis.net/kml/2.2" xmlns:gx="http://www.google.com/kml/ext/2.2" xmlns:kml="http://www.opengis.net/kml/2.2" xmlns:atom="http://www.w3.org/2005/Atom">
<Document>
	<name>1778671757551.kml</name>
	<StyleMap id="msn_ylw-pushpin">
		<Pair>
			<key>normal</key>
			<styleUrl>#sn_ylw-pushpin</styleUrl>
		</Pair>
		<Pair>
			<key>highlight</key>
			<styleUrl>#sh_ylw-pushpin</styleUrl>
		</Pair>
	</StyleMap>
	<Style id="sh_ylw-pushpin">
		<IconStyle>
			<scale>1.3</scale>
			<Icon>
				<href>http://maps.google.com/mapfiles/kml/pushpin/ylw-pushpin.png</href>
			</Icon>
			<hotSpot x="20" y="2" xunits="pixels" yunits="pixels"/>
		</IconStyle>
		<BalloonStyle>
		</BalloonStyle>
		<PolyStyle>
			<fill>0</fill>
		</PolyStyle>
	</Style>
	<Style id="sn_ylw-pushpin">
		<IconStyle>
			<scale>1.1</scale>
			<Icon>
				<href>http://maps.google.com/mapfiles/kml/pushpin/ylw-pushpin.png</href>
			</Icon>
			<hotSpot x="20" y="2" xunits="pixels" yunits="pixels"/>
		</IconStyle>
		<BalloonStyle>
		</BalloonStyle>
		<PolyStyle>
			<fill>0</fill>
		</PolyStyle>
	</Style>
	<Placemark>
		<name>1778671757551</name>
		<styleUrl>#msn_ylw-pushpin</styleUrl>
		<Polygon>
			<tessellate>1</tessellate>
			<outerBoundaryIs>
				<LinearRing>
					<coordinates>
						91.85917893975449,23.57914399339407,0 91.85898428748274,23.5790837389982,0 91.85895794225243,23.57899410274743,0 91.85883889626855,23.57882586522597,0 91.85887637113676,23.57869417498082,0 91.8587845541529,23.57858574984624,0 91.85862200806352,23.57851253555125,0 91.85858314137688,23.57844239124656,0 91.85860020737098,23.5782714281667,0 91.85844566618894,23.57810351092221,0 91.85831042860261,23.57805566217564,0 91.85827242827943,23.57789649626805,0 91.85815679864361,23.57773643816122,0 91.85814704912154,23.57735880665714,0 91.85823114640075,23.57726554911928,0 91.85830669625689,23.5772187269,0 91.85839793040617,23.57718271824957,0 91.8584949415317,23.57719301418007,0 91.85852230980132,23.57712108388318,0 91.85863148312386,23.57699201169423,0 91.85882986937996,23.57683148737179,0 91.85918740036738,23.57688464100247,0 91.85938384067632,23.57688027091625,0 91.85957034975026,23.57700305737981,0 91.85963665327732,23.57702228159382,0 91.85982546157248,23.57716888000168,0 91.86000100046363,23.57716752680789,0 91.86029747572009,23.57711229414343,0 91.86043719207034,23.5771483737557,0 91.86048643462989,23.57725810418096,0 91.86051444342114,23.57741109783586,0 91.86064285044867,23.57758604532431,0 91.86100280908801,23.57778782436328,0 91.86096168661982,23.57790353246706,0 91.86088543754435,23.57814286762046,0 91.86085819123835,23.57832536820727,0 91.86085470859769,23.57832208000784,0 91.86084775357082,23.57831551333904,0 91.86084800361044,23.57833408803754,0 91.86085039753658,23.57836535888475,0 91.86085633990159,23.57839360018562,0 91.86086369650268,23.57842453584669,0 91.86073267660602,23.57857024409905,0 91.86063659191146,23.57876948030852,0 91.86049278005125,23.57885310483177,0 91.85997641690209,23.57909266134463,0 91.8595513119098,23.57911193750024,0 91.85935531210389,23.57921558356481,0 91.85917893975449,23.57914399339407,0 
					</coordinates>
				</LinearRing>
			</outerBoundaryIs>
		</Polygon>
		<atom:link rel="app" href="https://www.google.com/earth/about/versions/#earth-pro" title="Google Earth Pro 7.3.7.1155"></atom:link>
	</Placemark>
</Document>
</kml>
