<?xml version="1.0" encoding="UTF-8"?>
<kml xmlns="http://www.opengis.net/kml/2.2" xmlns:gx="http://www.google.com/kml/ext/2.2" xmlns:kml="http://www.opengis.net/kml/2.2" xmlns:atom="http://www.w3.org/2005/Atom">
<Document>
	<name>1778485371033.kml</name>
	<StyleMap id="msn_ylw-pushpin">
		<Pair>
			<key>normal</key>
			<styleUrl>#sn_ylw-pushpin</styleUrl>
		</Pair>
		<Pair>
			<key>highlight</key>
			<styleUrl>#sh_ylw-pushpin</styleUrl>
		</Pair>
	</StyleMap>
	<Style id="sh_ylw-pushpin">
		<IconStyle>
			<scale>1.3</scale>
			<Icon>
				<href>http://maps.google.com/mapfiles/kml/pushpin/ylw-pushpin.png</href>
			</Icon>
			<hotSpot x="20" y="2" xunits="pixels" yunits="pixels"/>
		</IconStyle>
		<BalloonStyle>
		</BalloonStyle>
		<PolyStyle>
			<fill>0</fill>
		</PolyStyle>
	</Style>
	<Style id="sn_ylw-pushpin">
		<IconStyle>
			<scale>1.1</scale>
			<Icon>
				<href>http://maps.google.com/mapfiles/kml/pushpin/ylw-pushpin.png</href>
			</Icon>
			<hotSpot x="20" y="2" xunits="pixels" yunits="pixels"/>
		</IconStyle>
		<BalloonStyle>
		</BalloonStyle>
		<PolyStyle>
			<fill>0</fill>
		</PolyStyle>
	</Style>
	<Placemark>
		<name>1778485371033</name>
		<styleUrl>#msn_ylw-pushpin</styleUrl>
		<Polygon>
			<tessellate>1</tessellate>
			<outerBoundaryIs>
				<LinearRing>
					<coordinates>
						91.42702026173508,23.55133355328823,0 91.42720178452373,23.5511223656741,0 91.42784329538124,23.55065691591366,0 91.42830127202276,23.55029176563623,0 91.42862618063023,23.55002958493538,0 91.42885273351681,23.55012964925376,0 91.42901436774596,23.55016281655564,0 91.42951475625571,23.5504081133685,0 91.42972440812933,23.55055214813386,0 91.42989139629135,23.5507159110798,0 91.43006364004229,23.5508180178296,0 91.43017368631951,23.55120657213219,0 91.43013002666589,23.55148547384397,0 91.43005003515999,23.55159127528572,0 91.4299589927449,23.55156318573274,0 91.42987122709935,23.55160399833234,0 91.42985148051203,23.55165415208338,0 91.42988253397934,23.55191261887072,0 91.42962838380643,23.55204075346444,0 91.42950035388026,23.55212994717282,0 91.42907199032994,23.55227417172004,0 91.42873757454376,23.55237433712953,0 91.42856677899118,23.55242701219142,0 91.42836794672333,23.55242353072256,0 91.42816745486665,23.55247029082456,0 91.42785043593432,23.55242545129494,0 91.42762809265749,23.55234191866642,0 91.42743541252602,23.55220513332281,0 91.42736880474754,23.5517977919394,0 91.42705618182775,23.55145864776922,0 91.42701297619783,23.55141259542182,0 91.42702026173508,23.55133355328823,0 
					</coordinates>
				</LinearRing>
			</outerBoundaryIs>
		</Polygon>
		<atom:link rel="app" href="https://www.google.com/earth/about/versions/#earth-pro" title="Google Earth Pro 7.3.7.1155"></atom:link>
	</Placemark>
</Document>
</kml>
