<?xml version="1.0" encoding="UTF-8"?>
<kml xmlns="http://www.opengis.net/kml/2.2" xmlns:gx="http://www.google.com/kml/ext/2.2" xmlns:kml="http://www.opengis.net/kml/2.2" xmlns:atom="http://www.w3.org/2005/Atom">
<Document>
	<name>1778077631004.kml</name>
	<StyleMap id="msn_ylw-pushpin">
		<Pair>
			<key>normal</key>
			<styleUrl>#sn_ylw-pushpin</styleUrl>
		</Pair>
		<Pair>
			<key>highlight</key>
			<styleUrl>#sh_ylw-pushpin</styleUrl>
		</Pair>
	</StyleMap>
	<Style id="sh_ylw-pushpin">
		<IconStyle>
			<scale>1.3</scale>
			<Icon>
				<href>http://maps.google.com/mapfiles/kml/pushpin/ylw-pushpin.png</href>
			</Icon>
			<hotSpot x="20" y="2" xunits="pixels" yunits="pixels"/>
		</IconStyle>
		<BalloonStyle>
		</BalloonStyle>
		<PolyStyle>
			<fill>0</fill>
		</PolyStyle>
	</Style>
	<Style id="sn_ylw-pushpin">
		<IconStyle>
			<scale>1.1</scale>
			<Icon>
				<href>http://maps.google.com/mapfiles/kml/pushpin/ylw-pushpin.png</href>
			</Icon>
			<hotSpot x="20" y="2" xunits="pixels" yunits="pixels"/>
		</IconStyle>
		<BalloonStyle>
		</BalloonStyle>
		<PolyStyle>
			<fill>0</fill>
		</PolyStyle>
	</Style>
	<Placemark>
		<name>1778077631004</name>
		<styleUrl>#msn_ylw-pushpin</styleUrl>
		<Polygon>
			<tessellate>1</tessellate>
			<outerBoundaryIs>
				<LinearRing>
					<coordinates>
						91.6407573755988,23.61017974509216,0 91.64091944777651,23.61015837247333,0 91.6412845309839,23.61013296413032,0 91.6414662535333,23.61015894011081,0 91.64177549619042,23.61007260184601,0 91.64192653019697,23.61002791828747,0 91.64194990951029,23.60991718978789,0 91.64222193326525,23.60981511305783,0 91.64228954881025,23.60975153039308,0 91.64252381837588,23.60971093149847,0 91.64262849890568,23.60959280487507,0 91.6427375822522,23.60944306749665,0 91.64284593234298,23.60939497181978,0 91.64309603275076,23.60938409620618,0 91.6433143065221,23.60943901964151,0 91.64343987952022,23.60955879234758,0 91.64353775576589,23.60961268267605,0 91.64357177483565,23.60976848776554,0 91.64363085797623,23.6098618719598,0 91.64363532313168,23.60998139780762,0 91.64358700019115,23.61016111185307,0 91.64345831292454,23.61029353759206,0 91.64340028664436,23.61041920340997,0 91.64317925174247,23.61044960809008,0 91.64310149183703,23.61049152781677,0 91.64284700480123,23.61058938801423,0 91.6427247213407,23.61056775032468,0 91.6424232731939,23.61055334006703,0 91.6422086622926,23.61058734823711,0 91.64203919383623,23.61055400151991,0 91.64177997809551,23.61058299707805,0 91.64149898302813,23.61055705716569,0 91.64131176127664,23.61063628001009,0 91.64114614102741,23.61062685713705,0 91.64104859482924,23.61051724270999,0 91.64088558519066,23.61043611774819,0 91.64069827500721,23.61023952578242,0 91.6407573755988,23.61017974509216,0 
					</coordinates>
				</LinearRing>
			</outerBoundaryIs>
		</Polygon>
		<atom:link rel="app" href="https://www.google.com/earth/about/versions/#earth-pro" title="Google Earth Pro 7.3.7.1155"></atom:link>
	</Placemark>
</Document>
</kml>
