<?xml version="1.0" encoding="UTF-8"?>
<kml xmlns="http://www.opengis.net/kml/2.2" xmlns:gx="http://www.google.com/kml/ext/2.2" xmlns:kml="http://www.opengis.net/kml/2.2" xmlns:atom="http://www.w3.org/2005/Atom">
<Document>
	<name>1778167033190.kml</name>
	<StyleMap id="msn_ylw-pushpin">
		<Pair>
			<key>normal</key>
			<styleUrl>#sn_ylw-pushpin</styleUrl>
		</Pair>
		<Pair>
			<key>highlight</key>
			<styleUrl>#sh_ylw-pushpin</styleUrl>
		</Pair>
	</StyleMap>
	<Style id="sh_ylw-pushpin">
		<IconStyle>
			<scale>1.3</scale>
			<Icon>
				<href>http://maps.google.com/mapfiles/kml/pushpin/ylw-pushpin.png</href>
			</Icon>
			<hotSpot x="20" y="2" xunits="pixels" yunits="pixels"/>
		</IconStyle>
		<BalloonStyle>
		</BalloonStyle>
		<LineStyle>
			<width>2.5</width>
		</LineStyle>
		<PolyStyle>
			<fill>0</fill>
		</PolyStyle>
	</Style>
	<Style id="sn_ylw-pushpin">
		<IconStyle>
			<scale>1.1</scale>
			<Icon>
				<href>http://maps.google.com/mapfiles/kml/pushpin/ylw-pushpin.png</href>
			</Icon>
			<hotSpot x="20" y="2" xunits="pixels" yunits="pixels"/>
		</IconStyle>
		<BalloonStyle>
		</BalloonStyle>
		<LineStyle>
			<width>2.5</width>
		</LineStyle>
		<PolyStyle>
			<fill>0</fill>
		</PolyStyle>
	</Style>
	<Placemark>
		<name>1778167033190</name>
		<styleUrl>#msn_ylw-pushpin</styleUrl>
		<Polygon>
			<tessellate>1</tessellate>
			<outerBoundaryIs>
				<LinearRing>
					<coordinates>
						92.09456963377129,24.10732920276211,0 92.0945153998851,24.10723935758908,0 92.09449785198845,24.1071926003716,0 92.09446107984819,24.10713430070004,0 92.09438851472665,24.10705273318322,0 92.09432549716287,24.10698872525315,0 92.09423690946713,24.10692164250667,0 92.09417965867907,24.10695326619588,0 92.09419032480884,24.10701184282761,0 92.09399187181104,24.10721687244884,0 92.09392942709361,24.10721119174278,0 92.09390876227168,24.10714043424702,0 92.09399521568318,24.1069243425057,0 92.09403099156049,24.10683857328846,0 92.09402129243774,24.10677025575653,0 92.09398492375836,24.10675328195786,0 92.09397988234451,24.10671831221818,0 92.09385578351754,24.10658297446627,0 92.09374716310248,24.10658728785121,0 92.09366379821124,24.10654924132902,0 92.09361443648565,24.10655670602207,0 92.09351055559983,24.10656950190562,0 92.09334973515121,24.10661565713706,0 92.09323554607126,24.10665234233745,0 92.09309278260604,24.10667072295984,0 92.09296315250116,24.10668620527574,0 92.09287819224316,24.10668826981931,0 92.09284017355996,24.1066616937766,0 92.09280580249261,24.10655469669756,0 92.09281224393735,24.10644099010067,0 92.09285336710502,24.10634016898146,0 92.09285329170206,24.10632953308837,0 92.0928558112206,24.10631569561172,0 92.09286254681673,24.10630924852289,0 92.09286867795504,24.10629935058505,0 92.09287279052809,24.10629622403781,0 92.0928823393033,24.10627991253676,0 92.09288735932381,24.10627354114167,0 92.09289424170537,24.10626067618109,0 92.09290462919076,24.10624339355386,0 92.09291130717344,24.10623077755304,0 92.09292614279602,24.1062076956257,0 92.09294276605078,24.10618817875116,0 92.09294807816386,24.10617862259275,0 92.09302281217431,24.10606611137205,0 92.09307418117652,24.10590920766943,0 92.09312183445716,24.10579702110969,0 92.09310167398492,24.10575716505083,0 92.09301520551325,24.10570101002283,0 92.09293035286447,24.10568717570585,0 92.09287194053681,24.10567884475628,0 92.09281460555393,24.10562627461579,0 92.09270636243785,24.10557725372383,0 92.09249644061349,24.10563060129325,0 92.09234285319019,24.1056822868863,0 92.09225718379047,24.10572228934449,0 92.09215117508928,24.10571535482889,0 92.09214801150308,24.10568414228086,0 92.09209274463274,24.10562928100628,0 92.09205914418027,24.10556805620905,0 92.09201315079078,24.1055316791372,0 92.0919784268399,24.10551697534706,0 92.09195125747122,24.10550853352648,0 92.09194369314957,24.1055044881793,0 92.09193160989078,24.10549651998634,0 92.09185372846738,24.10553497499396,0 92.09185513980395,24.10553482208649,0 92.09185802027565,24.10552662302009,0 92.09184836425496,24.10551205394358,0 92.09183744816924,24.10549782548096,0 92.09177350532602,24.10541636397907,0 92.09165473296659,24.10540258643443,0 92.0915772171051,24.1054486903761,0 92.0915772171051,24.1054486903761,0 92.09157093656374,24.10542049025893,0 92.09156605140886,24.10539940881695,0 92.09156467328225,24.10539346160612,0 92.09155985120638,24.10538459741512,0 92.09155015792405,24.10538457622452,0 92.09153778696339,24.10537868829028,0 92.09152478915767,24.10537592141457,0 92.09151788607677,24.1053758802327,0 92.09150534073881,24.10537539654197,0 92.09149935305054,24.105372872989,0 92.0914846413699,24.10536773616693,0 92.09142651559256,24.10532082120431,0 92.09128886713,24.1052909881798,0 92.09118640114967,24.10518015754844,0 92.09117642101103,24.1051238849175,0 92.0911923246653,24.10509624918752,0 92.09118764540396,24.10502696246125,0 92.09117588171274,24.10494727876161,0 92.09118439550051,24.10486601279509,0 92.09120682735407,24.10480586710369,0 92.09126567073193,24.10476787222646,0 92.09131429053838,24.10476869476282,0 92.09135076843009,24.10476469788403,0 92.09143491538902,24.10473177338521,0 92.09150388848721,24.10473293988553,0 92.09174991491037,24.10475119245613,0 92.09191083561164,24.10460999758567,0 92.09198935116143,24.10452216037182,0 92.09200592006603,24.10446715219029,0 92.09210179436712,24.10417826091684,0 92.09208641471309,24.10414006232104,0 92.09200594445385,24.10407328699864,0 92.09187533677593,24.10409161711101,0 92.09182459351942,24.10407739281465,0 92.09163831302722,24.10405630792588,0 92.0915630742246,24.1039582040344,0 92.09146539101008,24.10376347051979,0 92.09147459242763,24.10374338227681,0 92.09154865785969,24.10370764150547,0 92.09164719113743,24.10367732708301,0 92.09173147802549,24.10367278373618,0 92.09182948891514,24.10371410072668,0 92.09190524840218,24.1037295038016,0 92.09194387731738,24.10368833416107,0 92.09187115949226,24.10355695535854,0 92.09188287371141,24.10344236962997,0 92.09193887682096,24.1033716291864,0 92.09200253131775,24.10327891111555,0 92.09202854090536,24.10322277684159,0 92.09202812940912,24.10322145616152,0 92.09202978994406,24.10321691059281,0 92.09203144231654,24.1032123875249,0 92.09203240154596,24.10320250027498,0 92.09203511931965,24.10319509039353,0 92.09203712481542,24.10318246581724,0 92.0920393809794,24.10317108252596,0 92.09204011293617,24.10316422724875,0 92.09203026701185,24.10313722906478,0 92.0920293175103,24.10313736855997,0 92.09202480464222,24.10313281512628,0 92.09202025268932,24.10313098387789,0 92.09201668467728,24.103126273148,0 92.09201179050861,24.10312050434991,0 92.09200828269584,24.10311587304684,0 92.09200251830596,24.10311032852312,0 92.09199467084204,24.10310133092828,0 92.0919912408776,24.10309679534835,0 92.09198820998195,24.10309347168206,0 92.09194573421165,24.10305409033041,0 92.09190474803333,24.1030221875137,0 92.09185965878055,24.10301680163858,0 92.09185669208578,24.10300892308763,0 92.09185374290288,24.10300109093986,0 92.09184265386335,24.10300573328721,0 92.09183587894304,24.1030096590436,0 92.09182032782601,24.10301508059626,0 92.09180908987138,24.10301978540441,0 92.09172651781665,24.10302327415333,0 92.09166902819432,24.102987991916,0 92.09166618407833,24.10297674473167,0 92.09165985397588,24.1029741537502,0 92.0916496673386,24.10297734812427,0 92.09163313841125,24.10297795189242,0 92.09160756951889,24.1029788859952,0 92.09159251532003,24.10297943607569,0 92.09147857957208,24.10296795725914,0 92.09147984965441,24.10296246216068,0 92.09148399302745,24.10295426818986,0 92.09149259167644,24.10294613355959,0 92.09149596126525,24.10292522772925,0 92.09149988850346,24.10291604782027,0 92.09150507595014,24.10290392224565,0 92.09150909910618,24.1028977623327,0 92.09156454339443,24.10282995536154,0 92.09161176937118,24.10277202493835,0 92.09160842995456,24.10268058203337,0 92.09158612887182,24.10261778845551,0 92.09139092684748,24.1024703322155,0 92.09127249743248,24.10245977968264,0 92.09126880022308,24.1024617321323,0 92.09126379038405,24.10246555385082,0 92.09125766117251,24.10246761467661,0 92.09125261233908,24.10247146066228,0 92.0912460930606,24.10247905390482,0 92.09124208227601,24.10248475182443,0 92.09123071899626,24.10249078162095,0 92.09121313587018,24.10249719736546,0 92.09120434503757,24.10249970371848,0 92.09119799976089,24.10250205282065,0 92.09113053532502,24.10254440427025,0 92.09094141487097,24.10255603240264,0 92.09086529714584,24.10253772037225,0 92.09082136772113,24.10245379273578,0 92.09083685282074,24.10237853796533,0 92.09086211282938,24.10236670957386,0 92.09092243439233,24.10234380375304,0 92.09092708573893,24.10233951897359,0 92.09093339419891,24.10233689408621,0 92.09094229266032,24.10233293185332,0 92.09094596591666,24.10233166306793,0 92.09095222914988,24.10232905695192,0 92.09095892287449,24.10232497819801,0 92.0909630146873,24.10232224389924,0 92.09096966494964,24.10231819209044,0 92.09097820932716,24.10231130865041,0 92.09098691747865,24.10230744120887,0 92.09099706595335,24.10230221317828,0 92.09100931201495,24.10229709148116,0 92.0910165655628,24.10229443428534,0 92.09108329010988,24.10229246131332,0 92.09114946835213,24.10226660719918,0 92.09116742445049,24.10222046842356,0 92.09111675835449,24.10211089161325,0 92.09116194612646,24.10203784833265,0 92.09131373476195,24.10198911311571,0 92.09135424992938,24.10200383993978,0 92.09143084543855,24.10208172367594,0 92.09149805850943,24.10206554730141,0 92.09152592194131,24.10203050452694,0 92.09162368072725,24.10200408518664,0 92.09165099964198,24.10204137407077,0 92.09169941266094,24.10205928817969,0 92.09175636515278,24.10206159592135,0 92.09178511651412,24.10203606343917,0 92.09178799176047,24.10203231521907,0 92.0917950798551,24.10203114060385,0 92.09179985380499,24.10203144357488,0 92.0918069064552,24.10203027295311,0 92.09181593869391,24.10202877371413,0 92.09182368026167,24.10202857809466,0 92.09182941236347,24.10202871454694,0 92.09183438757491,24.10202788612865,0 92.0918590088321,24.1020581212925,0 92.09186279788292,24.1020585914705,0 92.09186636610633,24.10206022644112,0 92.0918721852929,24.10206027410285,0 92.09187756538783,24.10206267880324,0 92.09188194974823,24.10206527767516,0 92.09189216104035,24.10206792403833,0 92.09190318443083,24.1020715703186,0 92.09190699125317,24.10207199307702,0 92.0919645914055,24.10207237645328,0 92.09200603093363,24.10209574086758,0 92.09200625354843,24.10209332012744,0 92.09200852717444,24.10208931138591,0 92.0920147033704,24.10208423863746,0 92.09201686448264,24.10208129417736,0 92.0920200869531,24.1020769036886,0 92.09202232674217,24.10207277463061,0 92.09202656359368,24.10206700717293,0 92.09203151839066,24.10206346644595,0 92.09203454971261,24.10206039673734,0 92.09203850871889,24.10205711107651,0 92.09204432368992,24.10205337047466,0 92.09204908435154,24.1020510581071,0 92.09205560694896,24.1020494796977,0 92.09205839339448,24.10204880537304,0 92.09209999463668,24.10205368166141,0 92.09217314778894,24.10201456027827,0 92.09222328543858,24.1019772072261,0 92.09228381873119,24.10196076713974,0 92.09231598460084,24.10192618624534,0 92.09235941537413,24.10191365547544,0 92.09240852344055,24.10191129986831,0 92.09245539036337,24.10192696532063,0 92.0925028291464,24.10189442628995,0 92.09255131381744,24.1018878108615,0 92.09258741452929,24.10191732607402,0 92.09264572743268,24.10192636583977,0 92.09266323975343,24.10192562803906,0 92.0927534520838,24.10193603418032,0 92.09276631354074,24.10197506820757,0 92.09282722699569,24.10207051290063,0 92.09287326905246,24.10207418503701,0 92.09292337632192,24.10210017938466,0 92.09292627303336,24.10209997560334,0 92.09292971859426,24.1021005163452,0 92.09293244193698,24.10210110841062,0 92.09293572242174,24.10210244724235,0 92.09293828448894,24.10210383991931,0 92.09294190439316,24.10210358277126,0 92.09294552048918,24.10210332593699,0 92.09294856959227,24.10210232293903,0 92.09295161187549,24.10210132218517,0 92.09295665245921,24.10210096527768,0 92.09296096718315,24.10210065977253,0 92.09296426418294,24.10210199458169,0 92.0929675670438,24.10210333174447,0 92.09297073259407,24.10210547082288,0 92.09297548997907,24.10210671098748,0 92.09297895108311,24.10210725400793,0 92.09298326767627,24.10210694349234,0 92.09298600993253,24.10210753811767,0 92.09299221793688,24.10210867647537,0 92.09300046367154,24.10211046428672,0 92.09301076239342,24.10211290537544,0 92.09302218681559,24.10211773093343,0 92.09302567313431,24.10211829185347,0 92.09306770328502,24.10211675469284,0 92.09306911479266,24.10211670267406,0 92.09307205357108,24.10211511795571,0 92.0930748587257,24.10211507882077,0 92.09307760368208,24.10211580448332,0 92.09308356740732,24.10212039579292,0 92.09308632683053,24.10212113894978,0 92.09308963029355,24.1021242326094,0 92.09309502236019,24.10212810340851,0 92.09309912506131,24.10213042498691,0 92.09311742255764,24.10214871914072,0 92.09316388526125,24.10217904989476,0 92.09324109293678,24.10218035659156,0 92.09326512748709,24.10218829001292,0 92.09331138163631,24.10218428706269,0 92.09336401202241,24.10220062391184,0 92.09338571163744,24.1022365145906,0 92.09341621767949,24.10226786014184,0 92.09347946516321,24.10238154136782,0 92.09352532928428,24.1024343113702,0 92.09355907352968,24.10248269204566,0 92.09360027974027,24.10251846085411,0 92.09369994277603,24.10252762929551,0 92.09375277275146,24.10254606349198,0 92.09377967780348,24.10256335590332,0 92.0937976919802,24.1025820909668,0 92.09380882983571,24.10260681236042,0 92.09381248974337,24.10259061379129,0 92.09382588242693,24.10258400621504,0 92.09385729415258,24.10257415782288,0 92.09387564946978,24.10256146871189,0 92.0939074925306,24.1025456562364,0 92.09394991344051,24.10253998525631,0 92.09397181526039,24.10254296223424,0 92.09394036286417,24.10256294557107,0 92.09393154918472,24.10257861751232,0 92.09392475372876,24.10260094847065,0 92.09392627982272,24.1026051108765,0 92.09393546142421,24.10260887507507,0 92.09396477075093,24.1026263952936,0 92.09399585734751,24.10264580440911,0 92.09392888937818,24.10265230370976,0 92.09393607811747,24.10270054045966,0 92.09394212086968,24.10272208079446,0 92.09393834487652,24.10275396524323,0 92.09394360745709,24.10281831063752,0 92.09392329476269,24.1028847916327,0 92.09388871705072,24.10292405301084,0 92.09390037110128,24.10296664909272,0 92.09391963346326,24.10302209604094,0 92.09390447881893,24.10305230301145,0 92.09390240776112,24.10310988864772,0 92.09389633658216,24.1031609988583,0 92.0938800019121,24.1032077651532,0 92.09387693466284,24.10325492243597,0 92.0938925126424,24.10329391907022,0 92.0939324579445,24.1033296664516,0 92.09395333760034,24.10337263629074,0 92.0939594577939,24.10341077308204,0 92.09397320463053,24.10345218301743,0 92.09397357094551,24.10348467668919,0 92.09399968090841,24.10352452712681,0 92.09400234969584,24.1035562577991,0 92.0939983751402,24.10359099409453,0 92.0939788517704,24.10362843692145,0 92.09398506319425,24.10367680658696,0 92.09401174811748,24.10371900094185,0 92.09403613111431,24.10374724257806,0 92.09407833288918,24.10379940691874,0 92.09408575244652,24.10383855320206,0 92.09408203424844,24.10386764588856,0 92.09407818087354,24.10393402216939,0 92.09402995205089,24.10408321553076,0 92.09397490729374,24.1041093561331,0 92.09395043932756,24.10412849571959,0 92.09392669898591,24.10416584955152,0 92.09392675884411,24.10421604735745,0 92.09393751551063,24.10425355049843,0 92.0939376977929,24.1043078121595,0 92.09392750029733,24.10435741405442,0 92.09391909424991,24.10444273428386,0 92.09393720657279,24.10448415107002,0 92.09398449642123,24.10452305111536,0 92.09402013116743,24.10454407880898,0 92.09406107720814,24.10459944544078,0 92.09409672610829,24.10461489782937,0 92.09415950892891,24.10470412066504,0 92.0941760839364,24.10477116734086,0 92.09412860743403,24.10489638204144,0 92.09406808518393,24.10493222920023,0 92.09403769470549,24.10496507949842,0 92.09398624839123,24.10498369918952,0 92.09392457459069,24.10498750545029,0 92.09387158369321,24.10501164644687,0 92.09381897213703,24.10506892144758,0 92.09381892718483,24.10506977198117,0 92.09381794825413,24.10507145076393,0 92.09381738712115,24.10507357991335,0 92.09381729319101,24.10507530265527,0 92.0938171041049,24.10507877047873,0 92.09381703276476,24.10508007864902,0 92.09381591500808,24.10508399919857,0 92.0938148369886,24.1050870679067,0 92.09381359498846,24.10509285420552,0 92.09381249308022,24.10509601020956,0 92.09381192471686,24.10509782918644,0 92.0938042796036,24.10512960787565,0 92.09380344713603,24.10515673328977,0 92.09380521020012,24.10520067849841,0 92.09382241881349,24.10523686547003,0 92.0938442229934,24.10528918313451,0 92.09388464960936,24.1053703183387,0 92.09392477903411,24.10543059850602,0 92.09395897020049,24.10548877732476,0 92.09398200756938,24.10557572322822,0 92.09397936080721,24.10561141884996,0 92.09393313944273,24.10571256286327,0 92.09392050743368,24.10574892993689,0 92.09389232594941,24.10580196772939,0 92.09387968014765,24.1058444276621,0 92.09387623823429,24.10591205676813,0 92.09386770397863,24.1059446068098,0 92.09385439013045,24.10599857793398,0 92.09385366718459,24.1060191587189,0 92.09386420437802,24.10606381104002,0 92.09386739048708,24.10610657264776,0 92.09386829143287,24.10614358809416,0 92.09387744827217,24.10616367441581,0 92.09389226836343,24.1062285541162,0 92.09389384487952,24.10627853313176,0 92.09392599263582,24.10634312504255,0 92.09397876373427,24.1063861524636,0 92.09408271650921,24.10649509580352,0 92.09414690523842,24.10655389687143,0 92.09419967139446,24.10664415432423,0 92.09423233837711,24.10666756964714,0 92.09430406396142,24.10670580704148,0 92.09439474006928,24.10677291523966,0 92.09444703125007,24.10679669802515,0 92.09445544143837,24.10683742812547,0 92.09446601967834,24.10685020529991,0 92.09449005927937,24.10688372945934,0 92.09448585569557,24.10694066560858,0 92.09450210610646,24.10698759413092,0 92.09454218722533,24.10702122213532,0 92.09459342794747,24.10701574051884,0 92.09463951405296,24.10702987947698,0 92.09465253506978,24.10710537816972,0 92.09466123903741,24.10718320649153,0 92.09466701693741,24.10724506730616,0 92.09465675307645,24.10730411480016,0 92.09460095926416,24.10734303058759,0 92.09456963377129,24.10732920276211,0 
					</coordinates>
				</LinearRing>
			</outerBoundaryIs>
		</Polygon>
		<atom:link rel="app" href="https://www.google.com/earth/about/versions/#earth-pro" title="Google Earth Pro 7.3.7.1155"></atom:link>
	</Placemark>
</Document>
</kml>
