<?xml version="1.0" encoding="UTF-8"?>
<kml xmlns="http://www.opengis.net/kml/2.2" xmlns:gx="http://www.google.com/kml/ext/2.2" xmlns:kml="http://www.opengis.net/kml/2.2" xmlns:atom="http://www.w3.org/2005/Atom">
<Document>
	<name>Greenland ANR.kml</name>
	<StyleMap id="m_ylw-pushpin">
		<Pair>
			<key>normal</key>
			<styleUrl>#s_ylw-pushpin</styleUrl>
		</Pair>
		<Pair>
			<key>highlight</key>
			<styleUrl>#s_ylw-pushpin_hl</styleUrl>
		</Pair>
	</StyleMap>
	<Style id="s_ylw-pushpin">
		<IconStyle>
			<scale>1.1</scale>
			<Icon>
				<href>http://maps.google.com/mapfiles/kml/pushpin/ylw-pushpin.png</href>
			</Icon>
			<hotSpot x="20" y="2" xunits="pixels" yunits="pixels"/>
		</IconStyle>
		<PolyStyle>
			<fill>0</fill>
		</PolyStyle>
	</Style>
	<Style id="s_ylw-pushpin_hl">
		<IconStyle>
			<scale>1.3</scale>
			<Icon>
				<href>http://maps.google.com/mapfiles/kml/pushpin/ylw-pushpin.png</href>
			</Icon>
			<hotSpot x="20" y="2" xunits="pixels" yunits="pixels"/>
		</IconStyle>
		<PolyStyle>
			<fill>0</fill>
		</PolyStyle>
	</Style>
	<Placemark>
		<name>Greenland ANR</name>
		<styleUrl>#m_ylw-pushpin</styleUrl>
		<Polygon>
			<tessellate>1</tessellate>
			<outerBoundaryIs>
				<LinearRing>
					<coordinates>
						91.42677072796468,23.55255572532685,0 91.42725965928823,23.55261162233203,0 91.42907305003367,23.55295958351448,0 91.429231138294,23.55294033777874,0 91.42943469600232,23.55328970450608,0 91.43018678695496,23.55359952794119,0 91.43050771429162,23.55409246311549,0 91.4305492443608,23.55426703765921,0 91.43045225585982,23.55494613437822,0 91.43050323796668,23.55547282719573,0 91.43046847656149,23.55586520524584,0 91.43025098158425,23.55608223149094,0 91.42979498733956,23.55629389799841,0 91.42941195722018,23.5564023387035,0 91.42911539866407,23.55643926382224,0 91.42890919629077,23.5563694705424,0 91.42862925146179,23.55625664462242,0 91.42835112534165,23.55610347933167,0 91.42806104712152,23.55601204401872,0 91.42776309746529,23.55585971195881,0 91.42760344119861,23.55575968602641,0 91.42735181077354,23.55561648685626,0 91.4271987525544,23.55550248731195,0 91.42701260454773,23.55540959638457,0 91.42680673130502,23.55523920609577,0 91.42664722515202,23.5551805827552,0 91.42647138249798,23.55507081097004,0 91.42636492777216,23.55491069896421,0 91.42616544272755,23.55478423479022,0 91.42608835498844,23.55464614835896,0 91.42603470373004,23.55451729039536,0 91.42594463628302,23.55441949291422,0 91.4257742668873,23.55424413510008,0 91.4256050410998,23.5540883561792,0 91.42540483614499,23.55398071692778,0 91.42524161617585,23.5538439788185,0 91.42508048044037,23.55377614403573,0 91.42501869387323,23.55376644675314,0 91.42483622735854,23.5535478704068,0 91.42677072796468,23.55255572532685,0 
					</coordinates>
				</LinearRing>
			</outerBoundaryIs>
		</Polygon>
		<atom:link rel="app" href="https://www.google.com/earth/about/versions/#earth-pro" title="Google Earth Pro 7.3.7.1155"></atom:link>
	</Placemark>
</Document>
</kml>
