<?xml version="1.0" encoding="UTF-8"?>
<kml xmlns="http://www.opengis.net/kml/2.2" xmlns:gx="http://www.google.com/kml/ext/2.2" xmlns:kml="http://www.opengis.net/kml/2.2" xmlns:atom="http://www.w3.org/2005/Atom">
<Document>
	<name>1778073102374.kml</name>
	<StyleMap id="msn_ylw-pushpin">
		<Pair>
			<key>normal</key>
			<styleUrl>#sn_ylw-pushpin</styleUrl>
		</Pair>
		<Pair>
			<key>highlight</key>
			<styleUrl>#sh_ylw-pushpin</styleUrl>
		</Pair>
	</StyleMap>
	<Style id="sh_ylw-pushpin">
		<IconStyle>
			<scale>1.3</scale>
			<Icon>
				<href>http://maps.google.com/mapfiles/kml/pushpin/ylw-pushpin.png</href>
			</Icon>
			<hotSpot x="20" y="2" xunits="pixels" yunits="pixels"/>
		</IconStyle>
		<BalloonStyle>
		</BalloonStyle>
		<PolyStyle>
			<fill>0</fill>
		</PolyStyle>
	</Style>
	<Style id="sn_ylw-pushpin">
		<IconStyle>
			<scale>1.1</scale>
			<Icon>
				<href>http://maps.google.com/mapfiles/kml/pushpin/ylw-pushpin.png</href>
			</Icon>
			<hotSpot x="20" y="2" xunits="pixels" yunits="pixels"/>
		</IconStyle>
		<BalloonStyle>
		</BalloonStyle>
		<PolyStyle>
			<fill>0</fill>
		</PolyStyle>
	</Style>
	<Placemark>
		<name>1778073102374</name>
		<styleUrl>#msn_ylw-pushpin</styleUrl>
		<Polygon>
			<tessellate>1</tessellate>
			<outerBoundaryIs>
				<LinearRing>
					<coordinates>
						91.61133455068548,22.99153626930753,0 91.61181284434316,22.99147804344929,0 91.61203047669918,22.99154779801965,0 91.61245832575207,22.99164923334602,0 91.61284150855865,22.99166134724629,0 91.61329682280807,22.99160165739271,0 91.61383344901473,22.99142279603708,0 91.61426257160856,22.99130589556141,0 91.61444193409318,22.99131514646369,0 91.61455277139001,22.99130027960869,0 91.61440134168259,22.99154178118689,0 91.61440635136442,22.99189508573638,0 91.61449663888804,22.99248583990385,0 91.61437374622351,22.99289936829572,0 91.61435217027793,22.99307497818636,0 91.61453090419535,22.99370338265962,0 91.61467498176498,22.99410031705533,0 91.61467794741783,22.9945019500233,0 91.614451658779,22.99476998799161,0 91.61423265234565,22.99495301922425,0 91.61393565644474,22.99493486116473,0 91.61363229164378,22.9952135510325,0 91.61346652479546,22.99544103384551,0 91.61322550646544,22.99577995960916,0 91.61300721346636,22.99605703157856,0 91.61272988860544,22.99627487063151,0 91.61263210000355,22.99632630079959,0 91.61265041440218,22.99661660930486,0 91.61253528078363,22.99699049995342,0 91.61239186771141,22.99710016479663,0 91.61194427235,22.99685674275493,0 91.61180057615346,22.99687774467878,0 91.61153721391224,22.99705202049667,0 91.61134586136075,22.99711916661174,0 91.61119010884099,22.99731799394331,0 91.61088249391162,22.99742626536223,0 91.610605610026,22.99768291188602,0 91.61043338701435,22.99748584710361,0 91.61000220861372,22.99727507699898,0 91.60996185857853,22.99701127038538,0 91.60992019551361,22.99682482808831,0 91.60973159938038,22.99671742305055,0 91.60994852889881,22.99644871895178,0 91.6103859316087,22.99532394987189,0 91.61068194241213,22.99486504911013,0 91.610803790791,22.99420878226999,0 91.61111272049206,22.99376781792784,0 91.61102186810508,22.99318766133908,0 91.6111170939264,22.99258387401677,0 91.61125516424302,22.99176613632258,0 91.61133455068548,22.99153626930753,0 
					</coordinates>
				</LinearRing>
			</outerBoundaryIs>
		</Polygon>
		<atom:link rel="app" href="https://www.google.com/earth/about/versions/#earth-pro" title="Google Earth Pro 7.3.7.1155"></atom:link>
	</Placemark>
</Document>
</kml>
