<?xml version="1.0" encoding="UTF-8"?>
<kml xmlns="http://www.opengis.net/kml/2.2" xmlns:gx="http://www.google.com/kml/ext/2.2" xmlns:kml="http://www.opengis.net/kml/2.2" xmlns:atom="http://www.w3.org/2005/Atom">
<Document>
	<name>1778671638271.kml</name>
	<StyleMap id="msn_ylw-pushpin">
		<Pair>
			<key>normal</key>
			<styleUrl>#sn_ylw-pushpin</styleUrl>
		</Pair>
		<Pair>
			<key>highlight</key>
			<styleUrl>#sh_ylw-pushpin</styleUrl>
		</Pair>
	</StyleMap>
	<Style id="sh_ylw-pushpin">
		<IconStyle>
			<scale>1.3</scale>
			<Icon>
				<href>http://maps.google.com/mapfiles/kml/pushpin/ylw-pushpin.png</href>
			</Icon>
			<hotSpot x="20" y="2" xunits="pixels" yunits="pixels"/>
		</IconStyle>
		<BalloonStyle>
		</BalloonStyle>
		<PolyStyle>
			<fill>0</fill>
		</PolyStyle>
	</Style>
	<Style id="sn_ylw-pushpin">
		<IconStyle>
			<scale>1.1</scale>
			<Icon>
				<href>http://maps.google.com/mapfiles/kml/pushpin/ylw-pushpin.png</href>
			</Icon>
			<hotSpot x="20" y="2" xunits="pixels" yunits="pixels"/>
		</IconStyle>
		<BalloonStyle>
		</BalloonStyle>
		<PolyStyle>
			<fill>0</fill>
		</PolyStyle>
	</Style>
	<Placemark>
		<name>1778671638271</name>
		<styleUrl>#msn_ylw-pushpin</styleUrl>
		<Polygon>
			<tessellate>1</tessellate>
			<outerBoundaryIs>
				<LinearRing>
					<coordinates>
						91.85096895175153,23.59615942396862,0 91.85059996940461,23.59585279147384,0 91.85059224443374,23.59576392584101,0 91.85062642128153,23.59567718113081,0 91.85100544254239,23.59534556158011,0 91.85124020323065,23.59526565536702,0 91.85140188925401,23.59515570005006,0 91.85165691868218,23.59498396702105,0 91.85171346691081,23.59489172227824,0 91.85169804305573,23.59477725544498,0 91.85177094887531,23.59451567730781,0 91.85198188362526,23.594363058975,0 91.85236667219847,23.59430914697771,0 91.85254428539155,23.59438570123822,0 91.85266049290655,23.59442426428851,0 91.85349831095017,23.59420851246627,0 91.85363721651287,23.59436035884495,0 91.85364738928098,23.59443177144137,0 91.85370809833029,23.59457645466044,0 91.85382753539484,23.59463555540686,0 91.85439582057407,23.59457741023732,0 91.85443982243582,23.59463207833522,0 91.85439586358119,23.59473119113588,0 91.85437427904775,23.59481953611327,0 91.85439234241431,23.59492961737253,0 91.8545135910329,23.59507471564984,0 91.85451034973462,23.5952350077117,0 91.8541977016074,23.59534888235974,0 91.85405553024648,23.5953870465863,0 91.8540383058329,23.5953878271229,0 91.85402451482177,23.59538845208496,0 91.85400350325169,23.59538586282827,0 91.85398939007369,23.59538296072537,0 91.85396145250368,23.5953806808807,0 91.8539473468649,23.595377807207,0 91.85391876616058,23.59537427702569,0 91.85390811182576,23.59537418392854,0 91.85389035734416,23.59537402881277,0 91.85385159429259,23.59537727839938,0 91.85380216735334,23.59538043564302,0 91.85377076830589,23.59538743641128,0 91.85374560360928,23.59538642240972,0 91.85372046916407,23.59538540964971,0 91.8535423188909,23.59548264942418,0 91.85347170389809,23.59560684709728,0 91.85347035162907,23.5958902556242,0 91.85321036922291,23.59594725037324,0 91.85286449344945,23.59596126427787,0 91.85244537830621,23.59598330747091,0 91.85224049712308,23.59604009602699,0 91.85182982196888,23.59619685125147,0 91.85165246484824,23.59619345745659,0 91.85135601892927,23.59624225755619,0 91.85109937037383,23.5962550778836,0 91.85096895175153,23.59615942396862,0 
					</coordinates>
				</LinearRing>
			</outerBoundaryIs>
		</Polygon>
		<atom:link rel="app" href="https://www.google.com/earth/about/versions/#earth-pro" title="Google Earth Pro 7.3.7.1155"></atom:link>
	</Placemark>
</Document>
</kml>
