<?xml version="1.0" encoding="UTF-8"?>
<kml xmlns="http://www.opengis.net/kml/2.2" xmlns:gx="http://www.google.com/kml/ext/2.2" xmlns:kml="http://www.opengis.net/kml/2.2" xmlns:atom="http://www.w3.org/2005/Atom">
<Document>
	<name>1778171161112.kml</name>
	<StyleMap id="msn_ylw-pushpin">
		<Pair>
			<key>normal</key>
			<styleUrl>#sn_ylw-pushpin</styleUrl>
		</Pair>
		<Pair>
			<key>highlight</key>
			<styleUrl>#sh_ylw-pushpin</styleUrl>
		</Pair>
	</StyleMap>
	<Style id="sh_ylw-pushpin">
		<IconStyle>
			<scale>1.3</scale>
			<Icon>
				<href>http://maps.google.com/mapfiles/kml/pushpin/ylw-pushpin.png</href>
			</Icon>
			<hotSpot x="20" y="2" xunits="pixels" yunits="pixels"/>
		</IconStyle>
		<BalloonStyle>
		</BalloonStyle>
		<LineStyle>
			<color>ffff55ff</color>
			<width>4.3</width>
		</LineStyle>
		<PolyStyle>
			<color>4dffffff</color>
		</PolyStyle>
	</Style>
	<Style id="sn_ylw-pushpin">
		<IconStyle>
			<scale>1.1</scale>
			<Icon>
				<href>http://maps.google.com/mapfiles/kml/pushpin/ylw-pushpin.png</href>
			</Icon>
			<hotSpot x="20" y="2" xunits="pixels" yunits="pixels"/>
		</IconStyle>
		<BalloonStyle>
		</BalloonStyle>
		<LineStyle>
			<color>ffff55ff</color>
			<width>4.3</width>
		</LineStyle>
		<PolyStyle>
			<color>4dffffff</color>
		</PolyStyle>
	</Style>
	<Placemark>
		<name>1778171161112</name>
		<styleUrl>#msn_ylw-pushpin</styleUrl>
		<Polygon>
			<tessellate>1</tessellate>
			<outerBoundaryIs>
				<LinearRing>
					<coordinates>
						91.77132956125054,23.8497557791071,0 91.77117788401345,23.84964116277417,0 91.77117449886549,23.84943461419515,0 91.77114677113119,23.84924007230009,0 91.77107596498104,23.84901619216309,0 91.77107794518612,23.84878586720545,0 91.77100402546893,23.84858975964146,0 91.77100163371837,23.84840473465703,0 91.7708022194731,23.84803517719477,0 91.7706926781249,23.84795431513457,0 91.7706153077263,23.84780573845749,0 91.77052491697201,23.84767589403126,0 91.77044450213535,23.84750109853131,0 91.77044968665884,23.84730845364446,0 91.77036153774782,23.84706285755297,0 91.77036935313448,23.84695903830001,0 91.77039582362644,23.84683262724026,0 91.77043992429915,23.84671435537648,0 91.77059877882229,23.84666654611338,0 91.77073461145055,23.84663854393364,0 91.77087345318594,23.84664610037816,0 91.77109975997861,23.84680350141502,0 91.77131097408861,23.84693860527374,0 91.77158074542048,23.84714343207619,0 91.77185263614058,23.84723695057241,0 91.7719140930531,23.84735610878556,0 91.77214424630247,23.84753634699426,0 91.77237456563009,23.84773614486793,0 91.77249408553722,23.84785165211779,0 91.77260008166458,23.84801182300452,0 91.77271269631754,23.84808114316753,0 91.77282020563403,23.84818250410404,0 91.77299749428515,23.848311662032,0 91.77311653177169,23.84844292796525,0 91.77317831806954,23.84854504797093,0 91.77326227691549,23.84867119630617,0 91.77336059203422,23.84878281655986,0 91.77336173340137,23.84896538787561,0 91.77320861153004,23.84904358341857,0 91.77302983241692,23.84908650758293,0 91.77285176311182,23.84914759955522,0 91.77269255455836,23.84917617367877,0 91.77244949385415,23.84924947644536,0 91.77224340526108,23.8493493534978,0 91.77208305632527,23.84939330159329,0 91.77192732394069,23.84950104619749,0 91.77179373852221,23.84960958101657,0 91.77163864845893,23.84968340478313,0 91.7714587945261,23.84975767432073,0 91.77125998299294,23.84974766313697,0 91.77132956125054,23.8497557791071,0 
					</coordinates>
				</LinearRing>
			</outerBoundaryIs>
		</Polygon>
		<atom:link rel="app" href="https://www.google.com/earth/about/versions/#earth-pro" title="Google Earth Pro 7.3.7.1155"></atom:link>
	</Placemark>
</Document>
</kml>
