<?xml version="1.0" encoding="UTF-8"?>
<kml xmlns="http://www.opengis.net/kml/2.2" xmlns:gx="http://www.google.com/kml/ext/2.2" xmlns:kml="http://www.opengis.net/kml/2.2" xmlns:atom="http://www.w3.org/2005/Atom">
<Document>
	<name>1778223386527.kml</name>
	<StyleMap id="msn_ylw-pushpin">
		<Pair>
			<key>normal</key>
			<styleUrl>#sn_ylw-pushpin</styleUrl>
		</Pair>
		<Pair>
			<key>highlight</key>
			<styleUrl>#sh_ylw-pushpin</styleUrl>
		</Pair>
	</StyleMap>
	<Style id="sh_ylw-pushpin">
		<IconStyle>
			<scale>1.3</scale>
			<Icon>
				<href>http://maps.google.com/mapfiles/kml/pushpin/ylw-pushpin.png</href>
			</Icon>
			<hotSpot x="20" y="2" xunits="pixels" yunits="pixels"/>
		</IconStyle>
		<BalloonStyle>
		</BalloonStyle>
		<PolyStyle>
			<fill>0</fill>
		</PolyStyle>
	</Style>
	<Style id="sn_ylw-pushpin">
		<IconStyle>
			<scale>1.1</scale>
			<Icon>
				<href>http://maps.google.com/mapfiles/kml/pushpin/ylw-pushpin.png</href>
			</Icon>
			<hotSpot x="20" y="2" xunits="pixels" yunits="pixels"/>
		</IconStyle>
		<BalloonStyle>
		</BalloonStyle>
		<PolyStyle>
			<fill>0</fill>
		</PolyStyle>
	</Style>
	<Placemark>
		<name>1778223386527</name>
		<styleUrl>#msn_ylw-pushpin</styleUrl>
		<Polygon>
			<tessellate>1</tessellate>
			<outerBoundaryIs>
				<LinearRing>
					<coordinates>
						91.76302015161338,23.21150790469893,0 91.76303359536385,23.21140383830461,0 91.76306124454931,23.21109106768624,0 91.76309084644473,23.2110232613154,0 91.76303878962055,23.21091724404364,0 91.76306107025997,23.21047136300502,0 91.76305118262853,23.21020838813256,0 91.76297938095253,23.21008351434428,0 91.76294316034058,23.20992556332953,0 91.76301097400119,23.20968692487098,0 91.76310098917722,23.2097047739797,0 91.76324219586476,23.20970712841006,0 91.76328362506079,23.209737417587,0 91.76341246021315,23.20985420012375,0 91.7635527553031,23.21001633243529,0 91.76394569714159,23.21002178063896,0 91.76435926308969,23.21008889924181,0 91.76473353825334,23.20998920198905,0 91.76502102692905,23.2101015422148,0 91.76504357568679,23.21020077087164,0 91.76506002880258,23.21038502585413,0 91.76506825039387,23.21056887717403,0 91.76511715229088,23.21072852260602,0 91.76512194953771,23.21089142381027,0 91.76509630017917,23.21115343094326,0 91.76504482010432,23.2113398501189,0 91.76494147427746,23.2115443009322,0 91.76493746779755,23.21183592231224,0 91.76487023576354,23.21187062018463,0 91.76485904042836,23.21188310380216,0 91.7648371500112,23.21191032886194,0 91.76482248868484,23.21192855058348,0 91.76480039856011,23.21195600615061,0 91.76478248681923,23.21198457679268,0 91.76472852148494,23.21207324505097,0 91.76466422715428,23.21215216941929,0 91.76415662029186,23.21218671969255,0 91.76401836274697,23.21231983425774,0 91.76375444513468,23.21227370790496,0 91.76334561070934,23.21211096630841,0 91.76296692098444,23.21198948827994,0 91.76273790218934,23.2117533595952,0 91.76302015161338,23.21150790469893,0 
					</coordinates>
				</LinearRing>
			</outerBoundaryIs>
		</Polygon>
		<atom:link rel="app" href="https://www.google.com/earth/about/versions/#earth-pro" title="Google Earth Pro 7.3.7.1155"></atom:link>
	</Placemark>
</Document>
</kml>
