<?xml version="1.0" encoding="UTF-8"?>
<kml xmlns="http://www.opengis.net/kml/2.2" xmlns:gx="http://www.google.com/kml/ext/2.2" xmlns:kml="http://www.opengis.net/kml/2.2" xmlns:atom="http://www.w3.org/2005/Atom">
<Document>
	<name>Pre Survey Map of KML at Natun Bazar under Laljuri Beat of Element ANR Bamboo 10.70 Ha.kml</name>
	<Style id="s_ylw-pushpin_hl">
		<IconStyle>
			<scale>1.3</scale>
			<Icon>
				<href>https://maps.google.com/mapfiles/kml/pushpin/ylw-pushpin.png</href>
			</Icon>
			<hotSpot x="20" y="2" xunits="pixels" yunits="pixels"/>
		</IconStyle>
		<PolyStyle>
			<fill>0</fill>
		</PolyStyle>
	</Style>
	<Style id="s_ylw-pushpin">
		<IconStyle>
			<scale>1.1</scale>
			<Icon>
				<href>https://maps.google.com/mapfiles/kml/pushpin/ylw-pushpin.png</href>
			</Icon>
			<hotSpot x="20" y="2" xunits="pixels" yunits="pixels"/>
		</IconStyle>
		<PolyStyle>
			<fill>0</fill>
		</PolyStyle>
	</Style>
	<StyleMap id="m_ylw-pushpin">
		<Pair>
			<key>normal</key>
			<styleUrl>#s_ylw-pushpin</styleUrl>
		</Pair>
		<Pair>
			<key>highlight</key>
			<styleUrl>#s_ylw-pushpin_hl</styleUrl>
		</Pair>
	</StyleMap>
	<Placemark id="09064338283F3AE73641">
		<name>Untitled Polygon</name>
		<styleUrl>#m_ylw-pushpin</styleUrl>
		<Polygon>
			<tessellate>1</tessellate>
			<outerBoundaryIs>
				<LinearRing>
					<coordinates>
						92.20464283621739,24.09616210959026,0 92.20460698553188,24.0961168098258,0 92.20457129395859,24.09607171112868,0 92.20453547135283,24.09601189000809,0 92.20448862646718,24.09596725523147,0 92.20444176915946,24.09590804792187,0 92.20439537014219,24.09586386999785,0 92.20433790522793,24.09583452566488,0 92.20430341358851,24.09580526707295,0 92.20424632502019,24.09579066974922,0 92.20418928650308,24.09576153899212,0 92.20413240565321,24.09574700541961,0 92.20406430406449,24.09571800168954,0 92.2040075389677,24.09571800173662,0 92.20396212688892,24.09571800179213,0 92.20387090610144,24.09574700570699,0 92.20384816700727,24.09574700575697,0 92.20376858017215,24.09574700596338,0 92.20373417340672,24.09576153963449,0 92.20367728425225,24.09576153982772,0 92.2035976394248,24.09576154014038,0 92.2035407502533,24.09576154039382,0 92.20348386107334,24.09576154067236,0 92.20342697188413,24.09576154097598,0 92.20339283836589,24.0957615411702,0 92.20334732700225,24.09576154144322,0 92.20330242843194,24.09574700815592,0 92.20323816579985,24.09566024952071,0 92.20323015597928,24.09558852458434,0 92.20322352790511,24.09548897533992,0 92.20322747755316,24.09540444083436,0 92.20323139343158,24.09532062886743,0 92.20324380208876,24.09529285040551,0 92.20330055552151,24.09526515064286,0 92.20335603055165,24.09526515032448,0 92.20341150557127,24.09526515002777,0 92.20344578206043,24.09523752902868,0 92.20348090037301,24.09518252157126,0 92.20350525409428,24.09511419847438,0 92.20352943678385,24.09504635518807,0 92.20353158633867,24.09497898676103,0 92.20353414602322,24.09489876440595,0 92.20353541785434,24.09485890422522,0 92.20351543860177,24.09480601546106,0 92.20350637331177,24.09475341916623,0 92.2034758107781,24.09470111323825,0 92.2034454163983,24.09464909500826,0 92.20342590329531,24.09459736224622,0 92.2033952998146,24.09455874859592,0 92.20333280993286,24.09452029344278,0 92.20330137352147,24.09450751005272,0 92.20326997999321,24.09449474410712,0 92.20321796276627,24.0944692644394,0 92.20318864067472,24.09441851242251,0 92.20318064522171,24.09436803536101,0 92.20318389679656,24.0943053223419,0 92.20318841227871,24.09421823216568,0 92.20318969462549,24.09419349947755,0 92.20321316169705,24.09414423282161,0 92.20326661763386,24.09411969799944,0 92.20330838708479,24.09411969780682,0 92.20335015652941,24.09411969762361,0 92.20339192596805,24.09411969744978,0 92.20343274484284,24.09414423184453,0 92.20347367314372,24.09416883202016,0 92.20351471131777,24.09419349806459,0 92.20358735527837,24.09421823049877,0 92.20366051996749,24.09423062148243,0 92.20369173263306,24.09424302927181,0 92.20377583359374,24.09424302907998,0 92.2038176646161,24.09425545375748,0 92.20385955201425,24.09426789501014,0 92.20390149589906,24.09428035305018,0 92.20394363143204,24.09428035299781,0 92.20397523308077,24.09428035296509,0 92.20404903414187,24.0942678948091,0 92.20405956092604,24.09426789480383,0 92.20409128276468,24.09421822965069,0 92.20409145855653,24.09415652231554,0 92.20411251085396,24.09408301712362,0 92.20413339529654,24.09401009782624,0 92.20414377519828,24.09397385576745,0 92.20415410704629,24.09392575678776,0 92.20415407299366,24.09386598961868,0 92.20415402569553,24.0937829745388,0 92.20415400555771,24.09374762960402,0 92.20412335459723,24.09371242327058,0 92.20407239639637,24.09368902910217,0 92.20402149135354,24.09367735492502,0 92.20397053974965,24.09367735496076,0 92.20391958814388,24.09367735500883,0 92.20385863221209,24.09366569593384,0 92.20380793273779,24.09365405221676,0 92.20373748743181,24.09361921164104,0 92.20370758304185,24.09359605992,0 92.20365812438907,24.09354993655573,0 92.20365906614491,24.09351550042841,0 92.20367069321972,24.0934584027956,0 92.20370174435639,24.09342432034215,0 92.2037522269335,24.09341298871087,0 92.20379238573743,24.09341298864575,0 92.20386266363865,24.0934129885487,0 92.20388274303779,24.09341298852492,0 92.20395302093154,24.09341298845562,0 92.20400321942446,24.09341298841931,0 92.20406345761401,24.09341298839026,0 92.20411365610434,24.09341298837816,0 92.20415381489632,24.0934129883764,0 92.2042040133864,24.0934129883841,0 92.20425421187711,24.0934129884028,0 92.20431445006771,24.09341298843976,0 92.2043847279601,24.09341298850293,0 92.2044048073588,24.09341298852492,0 92.20444477272086,24.09340167142772,0 92.2045145292698,24.09337908111311,0 92.20455434745683,24.09336780769177,0 92.20457409953752,24.09335654852027,0 92.20461322754599,24.0933228576777,0 92.2046412840894,24.09325586229613,0 92.20464994472449,24.09321148221401,0 92.2046477037299,24.09313435759695,0 92.20464579861871,24.09306879237032,0 92.20464328076343,24.09298213907379,0 92.20462159540743,24.09290702753673,0 92.2046106782341,24.09286440039746,0 92.20459981530631,24.0928219850532,0 92.20454085755128,24.09279031189098,0 92.20450189579154,24.09277978011019,0 92.20446278476808,24.09275875600648,0 92.20441444997918,24.0927587559577,0 92.2043661151931,24.09275875591691,0 92.2043177804092,24.09275875588413,0 92.20426967934614,24.09279031164503,0 92.20424068461789,24.09280085612546,0 92.20419229009622,24.09282198469192,0 92.20414377519828,24.09283256882449,0 92.20410491500881,24.09284316612719,0 92.20404662472401,24.09284316614124,0 92.20400759516575,24.09286440004091,0 92.20393950514612,24.09286440008236,0 92.2039005965617,24.09286440011348,0 92.20384223368197,24.09286440017031,0 92.20378387079784,24.09286440023932,0 92.20374570575456,24.09283256910412,0 92.20370795309339,24.09279031194693,0 92.20367009428011,24.09275875621631,0 92.20365228098478,24.09270642259607,0 92.20365439415291,24.09263369596232,0 92.2036660438619,24.09256159169441,0 92.20366750026223,24.09251046563898,0 92.20368766366134,24.09246978848025,0 92.20368849440173,24.09243941064439,0 92.20370878490833,24.09238902537355,0 92.2037473300467,24.0923589404141,0 92.20378530331521,24.0923489364808,0 92.20383284617063,24.09232896427643,0 92.2038706992292,24.09231899650809,0 92.20390864832207,24.09229909643804,0 92.20396540091821,24.09226933659465,0 92.20400312244263,24.09224955586281,0 92.20403145523639,24.09221997394242,0 92.20406907424166,24.09218069658628,0 92.20410646931478,24.09216112796628,0 92.20413446540047,24.09213186277715,0 92.20416236156736,24.09210270231291,0 92.20416231744869,24.09206398273325,0 92.20416227353897,24.09202544652911,0 92.20413454787889,24.09198709267482,0 92.20411614220183,24.09195844585868,0 92.20408863923288,24.09192040727222,0 92.20408883313034,24.09186368393813,0 92.20408899367224,24.09181671843992,0 92.20409825693184,24.09177002659776,0 92.204116575185,24.09170511301399,0 92.20414377519828,24.09166825599792,0 92.20415280518671,24.09164072493927,0 92.20417981183726,24.09160416494254,0 92.20422467104267,24.09156777347322,0 92.20425151235595,24.09154964021586,0 92.2042692522288,24.09152251860212,0 92.20431367558908,24.09148650150561,0 92.20434027703013,24.09146855472982,0 92.20436656326035,24.09143278375068,0 92.20441096846879,24.09142386644507,0 92.20444659424264,24.09142386646029,0 92.20450003290657,24.09142386648666,0 92.20456261679288,24.09143278384568,0 92.20461635551077,24.09144171138315,0 92.20462554707719,24.09145064883026,0 92.20467105891905,24.09147752304857,0 92.20471672723981,24.09150448966358,0 92.20475323521713,24.09152251889379,0 92.20481674592486,24.09154058983344,0 92.20486243616845,24.0915587020608,0 92.20490823162559,24.09157685599686,0 92.20495413267403,24.09159505204746,0 92.20498211090992,24.09161328980841,0 92.20503671236092,24.09162242467688,0 92.20505580457342,24.09164072569214,0 92.20511222359376,24.09167745498018,0 92.20513146986249,24.09169588378176,0 92.20516950034758,24.09172360704142,0 92.20522647995429,24.0917607219117,0 92.20528372567877,24.09179801037306,0 92.20533140353028,24.09182609114,0 92.20536023303258,24.09184486635429,0 92.20539902290477,24.09187311188385,0 92.205466262179,24.09191092769934,0 92.20549699597827,24.09194892139745,0 92.20554632974174,24.09198709494675,0 92.20558750266625,24.09203506600809,0 92.20562051543142,24.09209300777031,0 92.20565106674105,24.09212213398343,0 92.20567240646888,24.09215136442486,0 92.20570409295968,24.09219050132761,0 92.20573688649611,24.0922396869527,0 92.20575853483835,24.09226934009365,0 92.20578026135234,24.09229910005741,0 92.20579363940826,24.09233894802842,0 92.20580708221112,24.09237898883389,0 92.20582160763223,24.09242931292468,0 92.20585523779408,24.09247994337888,0 92.20588694499918,24.09251046994771,0 92.20593675922808,24.0925308831731,0 92.20598669529656,24.09255134661031,0 92.20602604105126,24.09256159689597,0 92.20606543511931,24.09257186002818,0 92.20613479592532,24.09259242368665,0 92.20616351262622,24.09259242386995,0 92.20620432678531,24.09261303812264,0 92.20623821838301,24.09265441785261,0 92.20628757466167,24.09266479504857,0 92.20633564235857,24.09266479539112,0 92.20638508902033,24.09267518508824,0 92.2064345968995,24.09268558789712,0 92.20646490299656,24.092696003394,0 92.20651452118896,24.09270643159857,0 92.20655753716218,24.09273779332874,0 92.20657319787375,24.09277979007918,0 92.20658074695999,24.09283257930441,0 92.20659502637248,24.09286441074877,0 92.20661089801575,24.09290703818924,0 92.20663818606374,24.09296062259664,0 92.20667228210046,24.09299293482107,0 92.20671309591894,24.09300373284036,0 92.20678838273676,24.0930470601549,0 92.20680972312134,24.09305792607954,0 92.20685248466077,24.09307969919934,0 92.20689535420236,24.09310152731198,0 92.20692209467688,24.09314534853162,0 92.20691107687769,24.09320043751294,0 92.20689178898016,24.09326700777286,0 92.20687884815024,24.09331167144686,0 92.20688410099319,24.09334531952249,0 92.20688110915954,24.09339038501058,0 92.20686804927149,24.09343568235868,0 92.20683476457968,24.09348121340104,0 92.20679958982761,24.09351551581826,0 92.2067457278616,24.09356146009448,0 92.20670173679534,24.09360764313287,0 92.20666605043883,24.09364243826224,0 92.20662165016621,24.09368904371662,0 92.20658724138595,24.09373589328037,0 92.20656290275667,24.09378298887625,0 92.20654001226113,24.09384220736512,0 92.20650353519768,24.09387792564074,0 92.20646537908162,24.0939018161828,0 92.20641679022232,24.0939257699775,0 92.20636513029714,24.09392576938477,0 92.20631347063934,24.09392576880564,0 92.20626181076489,24.09392576824017,0 92.2062204829797,24.09392576779759,0 92.20616115988022,24.09394978479947,0 92.20609908615766,24.09394978416566,0 92.20605897202152,24.09396181662011,0 92.2059877266901,24.09397386456578,0 92.20596700803411,24.09397386436918,0 92.20592557073228,24.09397386398263,0 92.20586455587539,24.09398592805168,0 92.20582420616441,24.09399800833758,0 92.20577234080956,24.09399800789051,0 92.20573190306061,24.09401010441824,0 92.20569347226531,24.0940464909941,0 92.20567675330481,24.09409523335372,0 92.20566096032509,24.09415652856761,0 92.20566605831547,24.09421823604785,0 92.20567965333846,24.09425546004368,0 92.20572492654357,24.09429283502201,0 92.2057598209889,24.09433036145107,0 92.20581489291884,24.09435546409685,0 92.20585952313589,24.09438063473507,0 92.20591488002898,24.09440587384944,0 92.20595976758474,24.09443118150562,0 92.20596596124193,24.09449475168366,0 92.2059721973052,24.09455875697079,0 92.20596774691427,24.09462320173096,0 92.20595000995803,24.09466208132821,0 92.20591065223536,24.0947011215651,0 92.20586152241738,24.09475342718044,0 92.20583144622393,24.09477968859862,0 92.2058144372234,24.09483243083899,0 92.20585172705623,24.09488546740363,0 92.20588922523126,24.09493880028127,0 92.20591723576491,24.09500588668715,0 92.20592097203293,24.09504636453511,0 92.20592723426223,24.09511420793018,0 92.20592375165171,24.09519625365075,0 92.20591771771603,24.09525133897253,0 92.20592403530429,24.09532063718391,0 92.20591796340567,24.09537643197113,0 92.20586339941758,24.09539042990309,0 92.20581873367027,24.09539042935588,0 92.20577174055464,24.09536245160021,0 92.20572713860051,24.09536245108614,0 92.20566023569474,24.09536245034185,0 92.2056044832958,24.09536244974614,0 92.20555988139074,24.09536244928563,0 92.20549297855599,24.09536244862165,0 92.20543907536324,24.09539042528593,0 92.20542130853131,24.09546071916217,0 92.20540341380338,24.09553151920364,0 92.20538449328679,24.09558852722829,0 92.20536546317146,24.09564586550635,0 92.20535766731362,24.09570353704809,0 92.20535070511316,24.09577609938541,0 92.20531026193852,24.09586387512324,0 92.20530221812442,24.09592282211849,0 92.20528178535079,24.09596725996554,0 92.20526291288739,24.09604176080728,0 92.20521994216934,24.09610175859406,0 92.2051991441318,24.09614699089652,0 92.20515425463249,24.09617725760284,0 92.20510779574414,24.09617725721971,0 92.20507295158383,24.09617725694421,0 92.20501487799406,24.09617725650754,0 92.20498003384637,24.09617725625909,0 92.20493357498952,24.09617725594358,0 92.20487550142884,24.09617725557453,0 92.20484065729762,24.09617725536663,0 92.20479419846164,24.09617725510521,0 92.20473568482231,24.09616211001221,0 92.20467765444189,24.09616210974007,0 92.20464283621739,24.09616210959026,0 
					</coordinates>
				</LinearRing>
			</outerBoundaryIs>
		</Polygon>
		<atom:link rel="app" href="https://www.google.com/earth/about/versions/#earth-pro" title="Google Earth Pro 7.3.7.1155"></atom:link>
	</Placemark>
</Document>
</kml>
