<?xml version="1.0" encoding="UTF-8"?>
<kml xmlns="http://www.opengis.net/kml/2.2" xmlns:gx="http://www.google.com/kml/ext/2.2" xmlns:kml="http://www.opengis.net/kml/2.2" xmlns:atom="http://www.w3.org/2005/Atom">
<Document>
	<name>1778053154177.kml</name>
	<StyleMap id="msn_ylw-pushpin">
		<Pair>
			<key>normal</key>
			<styleUrl>#sn_ylw-pushpin</styleUrl>
		</Pair>
		<Pair>
			<key>highlight</key>
			<styleUrl>#sh_ylw-pushpin</styleUrl>
		</Pair>
	</StyleMap>
	<Style id="sh_ylw-pushpin">
		<IconStyle>
			<scale>1.3</scale>
			<Icon>
				<href>http://maps.google.com/mapfiles/kml/pushpin/ylw-pushpin.png</href>
			</Icon>
			<hotSpot x="20" y="2" xunits="pixels" yunits="pixels"/>
		</IconStyle>
		<BalloonStyle>
		</BalloonStyle>
		<PolyStyle>
			<fill>0</fill>
		</PolyStyle>
	</Style>
	<Style id="sn_ylw-pushpin">
		<IconStyle>
			<scale>1.1</scale>
			<Icon>
				<href>http://maps.google.com/mapfiles/kml/pushpin/ylw-pushpin.png</href>
			</Icon>
			<hotSpot x="20" y="2" xunits="pixels" yunits="pixels"/>
		</IconStyle>
		<BalloonStyle>
		</BalloonStyle>
		<PolyStyle>
			<fill>0</fill>
		</PolyStyle>
	</Style>
	<Placemark>
		<name>1778053154177</name>
		<styleUrl>#msn_ylw-pushpin</styleUrl>
		<Polygon>
			<tessellate>1</tessellate>
			<outerBoundaryIs>
				<LinearRing>
					<coordinates>
						91.64912170136428,23.66316580846201,0 91.64969514762144,23.66295097405252,0 91.65020147260934,23.66295600663713,0 91.6504289214913,23.66335092063079,0 91.65049771170331,23.66350772633182,0 91.65050800546551,23.66373302284356,0 91.65070678112365,23.66389475042944,0 91.65078997062078,23.66431340367155,0 91.65061927507548,23.66457199303138,0 91.65062713301621,23.66487618326843,0 91.65063618304922,23.66505007432725,0 91.65087115642814,23.66533388229747,0 91.65085719761666,23.66576157172073,0 91.65130056768189,23.66614721827264,0 91.65141796641474,23.66650104690445,0 91.65101467618605,23.66675562978133,0 91.65079599652475,23.66702791566636,0 91.6507735275964,23.66741569055109,0 91.65069302119909,23.66755880368757,0 91.65043363930369,23.66786912685501,0 91.65017715492706,23.66790172601193,0 91.64991224564167,23.66773921294283,0 91.64970617102342,23.66715731518329,0 91.64960772349529,23.66703195938576,0 91.64929184215254,23.66721393913527,0 91.64904386742158,23.66735126558783,0 91.64891547725597,23.66755931616931,0 91.64926368704333,23.66802223778191,0 91.64981420223397,23.66806080347542,0 91.65005897341281,23.6680962877853,0 91.65025265345589,23.66862387773743,0 91.65074515378446,23.66850160209901,0 91.65086282790907,23.66865434728847,0 91.65056547170236,23.6689394842468,0 91.65032938721944,23.66889481085278,0 91.65018340646091,23.66908970841192,0 91.6498434249969,23.66866271537199,0 91.64954999755192,23.66870461997896,0 91.6492746912932,23.66887215737263,0 91.64908616298716,23.66918595626671,0 91.6492940128028,23.66936804072488,0 91.64957918875101,23.6695851992048,0 91.6493330528438,23.66990908490362,0 91.64882847008766,23.66963372888029,0 91.6485210260328,23.66912298176423,0 91.64845211835755,23.66873384489366,0 91.64830270503825,23.66830159408914,0 91.64819495521678,23.66824624077404,0 91.64841129600134,23.66793070242301,0 91.6486175706563,23.66730721048242,0 91.64869569190893,23.66708135481035,0 91.64879488188424,23.66655543539981,0 91.64916243206005,23.6664918130395,0 91.64927097282491,23.666310862918,0 91.6492300503256,23.66597499364544,0 91.64925918039883,23.66548416784075,0 91.64917854762263,23.66503629730464,0 91.64917064990286,23.6641246015148,0 91.64910196621156,23.66385481474364,0 91.64901366834539,23.66363997792972,0 91.64912170136428,23.66316580846201,0 
					</coordinates>
				</LinearRing>
			</outerBoundaryIs>
		</Polygon>
		<atom:link rel="app" href="https://www.google.com/earth/about/versions/#earth-pro" title="Google Earth Pro 7.3.7.1155"></atom:link>
	</Placemark>
</Document>
</kml>
