<?xml version="1.0" encoding="UTF-8"?>
<kml xmlns="http://www.opengis.net/kml/2.2" xmlns:gx="http://www.google.com/kml/ext/2.2" xmlns:kml="http://www.opengis.net/kml/2.2" xmlns:atom="http://www.w3.org/2005/Atom">
<Document>
	<name>1778066474104.kml</name>
	<StyleMap id="msn_ylw-pushpin">
		<Pair>
			<key>normal</key>
			<styleUrl>#sn_ylw-pushpin</styleUrl>
		</Pair>
		<Pair>
			<key>highlight</key>
			<styleUrl>#sh_ylw-pushpin</styleUrl>
		</Pair>
	</StyleMap>
	<Style id="sh_ylw-pushpin">
		<IconStyle>
			<scale>1.3</scale>
			<Icon>
				<href>http://maps.google.com/mapfiles/kml/pushpin/ylw-pushpin.png</href>
			</Icon>
			<hotSpot x="20" y="2" xunits="pixels" yunits="pixels"/>
		</IconStyle>
		<BalloonStyle>
		</BalloonStyle>
		<PolyStyle>
			<fill>0</fill>
		</PolyStyle>
	</Style>
	<Style id="sn_ylw-pushpin">
		<IconStyle>
			<scale>1.1</scale>
			<Icon>
				<href>http://maps.google.com/mapfiles/kml/pushpin/ylw-pushpin.png</href>
			</Icon>
			<hotSpot x="20" y="2" xunits="pixels" yunits="pixels"/>
		</IconStyle>
		<BalloonStyle>
		</BalloonStyle>
		<PolyStyle>
			<fill>0</fill>
		</PolyStyle>
	</Style>
	<Placemark>
		<name>1778066474104</name>
		<styleUrl>#msn_ylw-pushpin</styleUrl>
		<Polygon>
			<tessellate>1</tessellate>
			<outerBoundaryIs>
				<LinearRing>
					<coordinates>
						91.8202492202182,23.45538523311495,0 91.82009954958043,23.45534891589909,0 91.81991125070689,23.4551414674735,0 91.81990113725051,23.45499733356841,0 91.81978526144636,23.45469960005499,0 91.81983983941849,23.45423928152684,0 91.82006554675156,23.4539047807335,0 91.82006453984252,23.453728432635,0 91.82017682405893,23.45338249877577,0 91.82051322286495,23.45299903466856,0 91.82069859242084,23.4528906468028,0 91.82083370224142,23.45270865691733,0 91.82102669302562,23.4525628421041,0 91.82266749846556,23.45270863731291,0 91.82303169538694,23.45292849115866,0 91.82307728364495,23.45308624613421,0 91.82326361722804,23.45328424588556,0 91.8233393184174,23.45363352343627,0 91.82344998079625,23.45372243825184,0 91.82345238187216,23.45403276911256,0 91.8234178110398,23.45417340128826,0 91.82349577815272,23.45508014302094,0 91.82349389381572,23.45531845119095,0 91.82293336368065,23.4554456112867,0 91.82270289784591,23.45557966844221,0 91.82268626508846,23.45559953784734,0 91.82266317142776,23.45561925886797,0 91.82263911028903,23.45563203701212,0 91.82261411224324,23.45563784241847,0 91.82258821056764,23.45563666400185,0 91.82255585490685,23.45563519184389,0 91.82252999397792,23.45563403268348,0 91.82249233632005,23.45563462858886,0 91.8224609737775,23.45563518743834,0 91.82243508532875,23.45562873213046,0 91.82240921300823,23.45562228065664,0 91.82238412708553,23.45562272620868,0 91.82235277469852,23.45562331088727,0 91.82232149631136,23.45562409120894,0 91.82229025040046,23.45562497638381,0 91.82225273754112,23.45562603937016,0 91.82221520493654,23.45562710270035,0 91.82218391233738,23.45562798942036,0 91.82215191703534,23.45562192446946,0 91.82212061025537,23.45562280994295,0 91.82209489141171,23.45561656933878,0 91.8220622749716,23.45560356979589,0 91.82203723287672,23.45560427428436,0 91.82201718700273,23.45559093826521,0 91.82197907537315,23.45558523063746,0 91.82194663460623,23.4555724286327,0 91.82192110860422,23.45556648161455,0 91.82188936218587,23.45556078847578,0 91.82186328197325,23.45554790321453,0 91.82183100882129,23.45553528430858,0 91.82179877317667,23.45552268003,0 91.82176657528304,23.45551009052144,0 91.82174172121375,23.45551124743568,0 91.82170958606905,23.45549873839177,0 91.82167752188333,23.45548636622968,0 91.82165142301862,23.45547269866065,0 91.82163206909172,23.4554657380928,0 91.82160020482515,23.45545892278762,0 91.82156740670608,23.45543806573463,0 91.82154814877647,23.45543118587697,0 91.82151639458215,23.4554244012542,0 91.8214976226196,23.45542453464074,0 91.82147259130116,23.45542471258408,0 91.82144171681711,23.45543194374144,0 91.82141666784976,23.45543212207314,0 91.8213857440871,23.45543936147229,0 91.82134888913656,23.45545368480677,0 91.82133006841917,23.45545381955431,0 91.82130551863237,23.45546723303415,0 91.82128120515726,23.45548737113659,0 91.8212504954522,23.45550735544745,0 91.82122545438031,23.45551355317209,0 91.82120039100457,23.45551969497622,0 91.8211688370022,23.45552468452399,0 91.82113737268932,23.45553029794384,0 91.82109951643196,23.45553015322268,0 91.82106166284925,23.4555300086244,0 91.82103638483588,23.45552952501811,0 91.82100472092296,23.45552820611234,0 91.82098573264145,23.45552741519724,0 91.82095425568528,23.45552775158555,0 91.82092895829589,23.4555215662761,0 91.8209035642852,23.45550885639208,0 91.82087810065804,23.45548964726368,0 91.82085888370793,23.45546407906767,0 91.82083986077031,23.45544594438894,0 91.82081459602037,23.45542791569721,0 91.82078327856733,23.45542379720906,0 91.82075194999661,23.45541980641567,0 91.8207205695727,23.45540970295715,0 91.82069550607275,23.45541140922838,0 91.820676700059,23.45541297107152,0 91.82063901989285,23.45540406811357,0 91.82058873724961,23.45539018335468,0 91.82056987026259,23.4553857250572,0 91.82055099622274,23.45538126528585,0 91.82052583031994,23.45537130888291,0 91.82035553896141,23.45533718603808,0 91.8202492202182,23.45538523311495,0 
					</coordinates>
				</LinearRing>
			</outerBoundaryIs>
		</Polygon>
		<atom:link rel="app" href="https://www.google.com/earth/about/versions/#earth-pro" title="Google Earth Pro 7.3.7.1155"></atom:link>
	</Placemark>
</Document>
</kml>
