<?xml version="1.0" encoding="UTF-8"?>
<kml xmlns="http://www.opengis.net/kml/2.2" xmlns:gx="http://www.google.com/kml/ext/2.2" xmlns:kml="http://www.opengis.net/kml/2.2" xmlns:atom="http://www.w3.org/2005/Atom">
<Document>
	<name>1778486831889.kml</name>
	<StyleMap id="msn_ylw-pushpin">
		<Pair>
			<key>normal</key>
			<styleUrl>#sn_ylw-pushpin</styleUrl>
		</Pair>
		<Pair>
			<key>highlight</key>
			<styleUrl>#sh_ylw-pushpin</styleUrl>
		</Pair>
	</StyleMap>
	<Style id="sh_ylw-pushpin">
		<IconStyle>
			<scale>1.3</scale>
			<Icon>
				<href>http://maps.google.com/mapfiles/kml/pushpin/ylw-pushpin.png</href>
			</Icon>
			<hotSpot x="20" y="2" xunits="pixels" yunits="pixels"/>
		</IconStyle>
		<BalloonStyle>
		</BalloonStyle>
		<PolyStyle>
			<fill>0</fill>
		</PolyStyle>
	</Style>
	<Style id="sn_ylw-pushpin">
		<IconStyle>
			<scale>1.1</scale>
			<Icon>
				<href>http://maps.google.com/mapfiles/kml/pushpin/ylw-pushpin.png</href>
			</Icon>
			<hotSpot x="20" y="2" xunits="pixels" yunits="pixels"/>
		</IconStyle>
		<BalloonStyle>
		</BalloonStyle>
		<PolyStyle>
			<fill>0</fill>
		</PolyStyle>
	</Style>
	<Placemark>
		<name>1778486831889</name>
		<styleUrl>#msn_ylw-pushpin</styleUrl>
		<Polygon>
			<tessellate>1</tessellate>
			<outerBoundaryIs>
				<LinearRing>
					<coordinates>
						91.58663505096126,23.54073974664967,0 91.58645895600289,23.54070134414334,0 91.58643949378192,23.54057841311086,0 91.58637728878813,23.54045282298598,0 91.58633279406486,23.54045338496596,0 91.5862909065431,23.54034651135322,0 91.58623278959192,23.54022913430011,0 91.58623798113192,23.54020713296062,0 91.58624625586273,23.54019251182592,0 91.58624753521801,23.54017428828518,0 91.58623799113947,23.54015610873141,0 91.58623155780086,23.54014522631948,0 91.58621767258204,23.54013797286368,0 91.58619300759527,23.54013071777815,0 91.58618221043162,23.54013070892636,0 91.58616393199718,23.54013431572209,0 91.58613865265164,23.5401344234572,0 91.58611691423189,23.54013462288185,0 91.58608429628855,23.54013492206477,0 91.58606979523823,23.54013505505476,0 91.58604867297601,23.5401280144245,0 91.58602491823348,23.54011018044984,0 91.58601141960534,23.54009949658891,0 91.58600418487045,23.54009956141191,0 91.58597952703288,23.5400925934453,0 91.58596173674215,23.54008922106313,0 91.58593772770736,23.54007518721658,0 91.58591445197018,23.54005405157337,0 91.58590138175396,23.54003997177639,0 91.58588798882271,23.54002946943431,0 91.5858710103125,23.54001902066638,0 91.5858612639982,23.54000851234398,0 91.58586411824774,23.53998027504794,0 91.58585837656327,23.539966256527,0 91.58585514356375,23.53996277961308,0 91.58585521462335,23.53992770968565,0 91.58585688967393,23.53991039192216,0 91.58586243241236,23.53988967042869,0 91.58586179084276,23.53985881636558,0 91.58586536074593,23.53982125094765,0 91.58586668616579,23.53980761084517,0 91.58587189613496,23.53972257219678,0 91.58589347380845,23.53968518469969,0 91.58589770317811,23.5396784088629,0 91.58590331872445,23.53965822363946,0 91.58590995500738,23.53962809575732,0 91.58591837933486,23.53961466145586,0 91.58591939911355,23.5396046988427,0 91.5859613928223,23.53957097945533,0 91.58597635022122,23.53956090394466,0 91.58598801104912,23.5395476931976,0 91.5860178209663,23.53952461093152,0 91.58603598621653,23.53951470568211,0 91.58604318443803,23.53951139912132,0 91.58604779165707,23.53949838254128,0 91.58606091837507,23.53946601067531,0 91.58606544277671,23.53945313301815,0 91.58610864622673,23.53942728733986,0 91.58614772255315,23.53940796103896,0 91.58616139194226,23.53940490311343,0 91.58619592074362,23.53938951171684,0 91.58620302001488,23.5393832918264,0 91.58622350975327,23.53937721352247,0 91.58625125751703,23.53936179236547,0 91.58625814113034,23.53935872443463,0 91.58628657795904,23.53933672089932,0 91.58630072641297,23.53932725603791,0 91.58630452298863,23.53932095466863,0 91.58632201008952,23.53931151456741,0 91.58632988818297,23.53929275938492,0 91.58635376559474,23.53928362592825,0 91.58636080425264,23.53927744448044,0 91.58636185199785,23.53926175528429,0 91.58636999245684,23.53923988944051,0 91.58638471185694,23.53921525343829,0 91.58638871627049,23.53920296180085,0 91.58638972886989,23.53918454322663,0 91.58639040229841,23.53917229293257,0 91.58639141002135,23.53915396071877,0 91.58639555877421,23.53913873636582,0 91.58643898944419,23.5390778507849,0 91.58644281813068,23.53906877384715,0 91.58645404885124,23.53904178706893,0 91.58647165526236,23.5390207889801,0 91.58647196744697,23.53901480534651,0 91.58649274755432,23.53899680755775,0 91.58650674084561,23.5389789743732,0 91.58651414610593,23.53896118681238,0 91.58653131733941,23.53894347116266,0 91.5865413979033,23.53893757401019,0 91.58655851272118,23.53892277349438,0 91.58655880550738,23.53891687046873,0 91.58657245585616,23.53890507234844,0 91.58658614934494,23.53889040409566,0 91.58660626189764,23.538872958203,0 91.58662272694261,23.53886714466805,0 91.58663875840513,23.53887583673917,0 91.5867129728675,23.5388734844415,0 91.58673224054053,23.53887372172591,0 91.58674182001425,23.53887675163334,0 91.58675134643718,23.53888269929031,0 91.5867705638293,23.53888878071761,0 91.58678319861748,23.5389006856463,0 91.58679598099448,23.53890676257004,0 91.58681188562232,23.53891881537737,0 91.58682452054803,23.53893382948545,0 91.58684730891979,23.5389341681966,0 91.5868931981727,23.53892299389091,0 91.5868964633553,23.53892304652916,0 91.58693240163686,23.53892659844172,0 91.58694551760981,23.5389268110453,0 91.58696850807901,23.53892718363799,0 91.58698493056974,23.53893043290993,0 91.58699481546024,23.53893059439084,0 91.58702788047769,23.53892219342774,0 91.58705108790507,23.53890770875153,0 91.58707428977006,23.53889621057703,0 91.58710082720307,23.53887586520645,0 91.58711077932033,23.5388730579211,0 91.58711077287651,23.53885527575125,0 91.58711408276852,23.53884645010755,0 91.58715373113159,23.53879672599229,0 91.58716360615635,23.53878211402249,0 91.58717340407387,23.53875579807373,0 91.5871963907384,23.53872965943298,0 91.5871995878897,23.53871509880614,0 91.58719933770682,23.53868312533631,0 91.5872025868987,23.53867734603257,0 91.5872156414228,23.53866293488254,0 91.58722876895483,23.53865720581419,0 91.58722864984711,23.53864565652914,0 91.58724818919133,23.53862554679517,0 91.58725463720437,23.53861406202939,0 91.58727084170367,23.5385940055858,0 91.58728714577541,23.53858256510267,0 91.58729360312134,23.53857398673979,0 91.58730650165342,23.53855685126696,0 91.58732600321451,23.53854258427876,0 91.58734224564303,23.5385311783896,0 91.58736184980948,23.53852261073776,0 91.58737809020559,23.53851120969685,0 91.58738785998102,23.53850550622961,0 91.58740093597851,23.53849979205206,0 91.58742386739539,23.5384912058591,0 91.58744340920272,23.53847979684054,0 91.5874664570199,23.53847403114974,0 91.58749286183487,23.53846824171152,0 91.58750941143799,23.53846532702038,0 91.58752576326813,23.53845674515333,0 91.58753891216266,23.5384510049143,0 91.58755852648383,23.53843956392562,0 91.58757503439122,23.53843379585339,0 91.5875849789596,23.5384308957363,0 91.58760514567133,23.53843074400724,0 91.58762872919871,23.53843056651125,0 91.58764616302133,23.5384417930019,0 91.58766337866089,23.53844736658318,0 91.5876772450227,23.53845297736114,0 91.58769114595312,23.53845860216455,0 91.58771178223112,23.53846422405222,0 91.58774294742351,23.53847556678044,0 91.58776385902476,23.53848411657379,0 91.58778518612596,23.53849846761494,0 91.58779614936739,23.53851000766762,0 91.58780750537161,23.53852738924731,0 91.58781853862921,23.53853901063792,0 91.58782234673998,23.53854483575849,0 91.58785088243408,23.53856235313865,0 91.58787200055001,23.53857114438584,0 91.58788222016996,23.5385711445108,0 91.58789274706052,23.53857701732941,0 91.5879141782264,23.53859467393663,0 91.58792824112356,23.53860057857356,0 91.58794923857815,23.53860649945456,0 91.58796321299681,23.53860946849025,0 91.58797777033382,23.53862427421471,0 91.58798889160062,23.53863910935313,0 91.58800743432477,23.53866291756232,0 91.58801906943364,23.53868678878307,0 91.58802760604603,23.53871671799468,0 91.58803270669961,23.53874972565454,0 91.5880405936626,23.53877079118398,0 91.58804809675684,23.53878882956554,0 91.58806590969475,23.5388128795851,0 91.58807678347279,23.53883095740336,0 91.5880875263848,23.53884603005756,0 91.58810118066722,23.53885200410967,0 91.58812500004521,23.53886094367117,0 91.58814198960388,23.53886689487654,0 91.58815595167422,23.53887893361269,0 91.58817694821006,23.53889701677543,0 91.58818091151682,23.53890615595855,0 91.58819176667691,23.53891831232003,0 91.58820284771356,23.53893354749242,0 91.58821103475393,23.53895497882429,0 91.58821232768756,23.53897344150355,0 91.58820963015516,23.53898272189575,0 91.5882088686097,23.53901985979347,0 91.58820995068805,23.53903537236461,0 91.58820135971284,23.53905724782254,0 91.58819827731918,23.53906345231571,0 91.58819618876149,23.53908221284182,0 91.58819711797335,23.53909475506052,0 91.58819944771332,23.53912620428022,0 91.58820061627145,23.53914197928588,0 91.58820796647161,23.5391482665598,0 91.58823249448216,23.53915445912434,0 91.58825040106262,23.53916385589875,0 91.58826637538944,23.5391923248118,0 91.58827400870166,23.53920182335284,0 91.58828904833844,23.53921766435378,0 91.58829619584746,23.53922081053456,0 91.58831571522985,23.5392463777049,0 91.58832088616174,23.53926261026893,0 91.58832330165338,23.53928544514041,0 91.58832433979967,23.53929525928907,0 91.58832364306943,23.53932153757559,0 91.58831943031964,23.5393479437855,0 91.58831762268696,23.53936756640922,0 91.58831493898427,23.53937739010584,0 91.5883098497699,23.5394003712367,0 91.58830795312677,23.5394200937128,0 91.58830268639788,23.53944310478519,0 91.58829713740101,23.53946287870883,0 91.58829104404217,23.53947607713927,0 91.58828825783804,23.53948600047753,0 91.58829015011455,23.53951239819716,0 91.58831986285054,23.53957244050714,0 91.58833202384291,23.53958927462378,0 91.58834033311842,23.53960276542889,0 91.58834839989279,23.53961292655816,0 91.58836483011609,23.53963665682554,0 91.58836927488389,23.53964681206883,0 91.58837059147136,23.53966367535932,0 91.58837191070053,23.53968057389462,0 91.58837296811625,23.53969411814696,0 91.58836720973414,23.53971436023957,0 91.58836165367913,23.53973801106498,0 91.58835939752191,23.53975827074871,0 91.58836116552546,23.53978213563828,0 91.58836217818829,23.53979580304973,0 91.58836344614024,23.53981291830847,0 91.58835726489272,23.53982988169714,0 91.58835404422831,23.53983665642879,0 91.58833368044976,23.53986360883858,0 91.58832008982689,23.53988374890345,0 91.58830595304711,23.5398969644244,0 91.58829932061738,23.53991044428131,0 91.58828191824868,23.53993052372988,0 91.58827544639858,23.53994425240407,0 91.58827325405868,23.53996515191779,0 91.58826701728509,23.53998243987583,0 91.58826422653746,23.53999630686263,0 91.58826143159754,23.54001019455135,0 91.58825080611405,23.54002026893676,0 91.58826341820486,23.54003835236231,0 91.58828265824211,23.54004268125672,0 91.58830979902228,23.54005087371446,0 91.58833727025905,23.54006262789297,0 91.58835307977759,23.54007037300934,0 91.5883648027298,23.54007439596562,0 91.58838839741536,23.54008581506023,0 91.58840756781255,23.54009311102559,0 91.58842303535772,23.54010038110653,0 91.58843253193052,23.54012548078241,0 91.58844176338393,23.54014706813066,0 91.58845476275989,23.54016875253349,0 91.5884600816932,23.54018690645518,0 91.58846136506456,23.5402014539927,0 91.58847416406171,23.54021970282488,0 91.5884938050061,23.54023070064758,0 91.58851754653077,23.54024538386009,0 91.58853385264761,23.54026007844339,0 91.58854541793862,23.54026377410904,0 91.58856467367359,23.5402742578108,0 91.58858423212757,23.54029162461578,0 91.58859278160486,23.54030595982543,0 91.58859530156705,23.54033185115163,0 91.58859746837514,23.54035411359312,0 91.58859570497492,23.5403729370472,0 91.58858963589077,23.54038456835097,0 91.58858391441363,23.54039996158189,0 91.58857494792768,23.54041937020808,0 91.58856559651215,23.54043508011885,0 91.58854203859082,23.54045869556543,0 91.5885213335694,23.54047795043016,0 91.58850433478543,23.54049721797529,0 91.58848693200977,23.54051271309403,0 91.58847094494178,23.54054366000553,0 91.58846036240705,23.54055155413053,0 91.58844742259818,23.5405749956229,0 91.5884310083411,23.54060246635934,0 91.5884172504273,23.54061825659551,0 91.58841068762432,23.54063003611252,0 91.58840046971252,23.54064549810933,0 91.5884031535826,23.54068006930368,0 91.58839042408611,23.54071475688911,0 91.58837691580558,23.54074159335912,0 91.58837020293244,23.54075682792884,0 91.5883635098625,23.54077214022836,0 91.58836068622442,23.54078750066598,0 91.5883578004436,23.54080617109626,0 91.58833161955843,23.54083155341633,0 91.58831684706099,23.54084985179961,0 91.58830519584269,23.54085319446017,0 91.58827859581851,23.54087118149058,0 91.58825515682712,23.5408742193158,0 91.58822798671449,23.54088093022176,0 91.58819294065539,23.54089076457108,0 91.58816965106185,23.54090086063969,0 91.58815042984243,23.54091138478945,0 91.58812771723464,23.54092959868067,0 91.58810834057348,23.54093641966589,0 91.58807315435251,23.54094251589355,0 91.58805303130607,23.54093389179922,0 91.58800494874663,23.54092633027649,0 91.58785635570587,23.54087559286602,0 91.58784421732149,23.54087030008324,0 91.5878166827512,23.54087479840507,0 91.5878009495726,23.54087681038166,0 91.58778545734317,23.54088292683039,0 91.58776968934171,23.54088135432369,0 91.58775035050833,23.54088730772201,0 91.58772283991409,23.5408845547664,0 91.58769157649719,23.54088513975096,0 91.58766020955304,23.54088831418006,0 91.58764441774601,23.54088594848061,0 91.58761314479869,23.5408855318565,0 91.58758177041433,23.54087749646672,0 91.5875700917383,23.54087600220982,0 91.58755066085756,23.54087351615479,0 91.58750045936452,23.54086779388697,0 91.58746976585326,23.54086476495554,0 91.58745455598817,23.54086725337963,0 91.58743178637837,23.5408728075909,0 91.58740908503565,23.54088201620636,0 91.58738265567543,23.54089472397918,0 91.58736739156649,23.54089297292873,0 91.58733687276106,23.54088230700018,0 91.58731790387691,23.5408770334901,0 91.58729514241443,23.54086758493914,0 91.58725722188105,23.54084149283279,0 91.58724209091228,23.54082876407964,0 91.58723081112805,23.54082409216259,0 91.58721945185405,23.54080779512624,0 91.58720071365011,23.54079876066357,0 91.58717460466777,23.54079698799104,0 91.58712253628592,23.54080005087349,0 91.58708534869452,23.54080331715954,0 91.58706303188612,23.54080678770691,0 91.58704071085245,23.54081025889601,0 91.58700350474854,23.54082026902932,0 91.58698859182867,23.54082416429769,0 91.58696624659554,23.54082447932179,0 91.58694762082605,23.54082474189006,0 91.58693271703385,23.54082495193081,0 91.58689175831455,23.54082184160186,0 91.58686939919048,23.54082206982737,0 91.58672045469677,23.54079292325001,0 91.58663505096126,23.54073974664967,0 
					</coordinates>
				</LinearRing>
			</outerBoundaryIs>
		</Polygon>
		<atom:link rel="app" href="https://www.google.com/earth/about/versions/#earth-pro" title="Google Earth Pro 7.3.7.1155"></atom:link>
	</Placemark>
</Document>
</kml>
