<?xml version="1.0" encoding="UTF-8"?>
<kml xmlns="http://www.opengis.net/kml/2.2" xmlns:gx="http://www.google.com/kml/ext/2.2" xmlns:kml="http://www.opengis.net/kml/2.2" xmlns:atom="http://www.w3.org/2005/Atom">
<Document>
	<name>1778252239231.kml</name>
	<StyleMap id="msn_ylw-pushpin">
		<Pair>
			<key>normal</key>
			<styleUrl>#sn_ylw-pushpin</styleUrl>
		</Pair>
		<Pair>
			<key>highlight</key>
			<styleUrl>#sh_ylw-pushpin</styleUrl>
		</Pair>
	</StyleMap>
	<Style id="sh_ylw-pushpin">
		<IconStyle>
			<scale>1.3</scale>
			<Icon>
				<href>http://maps.google.com/mapfiles/kml/pushpin/ylw-pushpin.png</href>
			</Icon>
			<hotSpot x="20" y="2" xunits="pixels" yunits="pixels"/>
		</IconStyle>
		<BalloonStyle>
		</BalloonStyle>
		<LineStyle>
			<width>2.5</width>
		</LineStyle>
		<PolyStyle>
			<fill>0</fill>
		</PolyStyle>
	</Style>
	<Style id="sn_ylw-pushpin">
		<IconStyle>
			<scale>1.1</scale>
			<Icon>
				<href>http://maps.google.com/mapfiles/kml/pushpin/ylw-pushpin.png</href>
			</Icon>
			<hotSpot x="20" y="2" xunits="pixels" yunits="pixels"/>
		</IconStyle>
		<BalloonStyle>
		</BalloonStyle>
		<LineStyle>
			<width>2.5</width>
		</LineStyle>
		<PolyStyle>
			<fill>0</fill>
		</PolyStyle>
	</Style>
	<Placemark>
		<name>1778252239231</name>
		<styleUrl>#msn_ylw-pushpin</styleUrl>
		<Polygon>
			<tessellate>1</tessellate>
			<outerBoundaryIs>
				<LinearRing>
					<coordinates>
						92.05969246287518,24.18923165421259,0 92.0596974250923,24.18909936735881,0 92.05969423925011,24.18893979077455,0 92.05969399367959,24.18879975769094,0 92.05969596199401,24.18862735679744,0 92.05975863290968,24.18845588927377,0 92.05977724066572,24.18823686922079,0 92.05986961983628,24.18796482484305,0 92.0598563217618,24.18782472914731,0 92.05985164534899,24.18771540639001,0 92.05991450380466,24.18768863116399,0 92.06000832784824,24.18770066027741,0 92.06009978593438,24.18772073816996,0 92.06033012858933,24.18773652015169,0 92.06045873346932,24.18770959443086,0 92.06058285274318,24.18771553857922,0 92.06069371803109,24.18767340580911,0 92.06085053074885,24.18762011358629,0 92.0610545271679,24.18758406721219,0 92.06152398566253,24.18758303114835,0 92.06168077487311,24.1875572782141,0 92.06179941435943,24.18750702548768,0 92.06180797870945,24.18749276891133,0 92.06191117759217,24.18748430269826,0 92.06198030745361,24.18742953502115,0 92.06210769849451,24.18731633188138,0 92.06209407301897,24.18733703202019,0 92.06212326514897,24.18731281730835,0 92.06236370264209,24.18728260377753,0 92.06247833110312,24.18724998860491,0 92.0626543146802,24.18720713070648,0 92.06277589692139,24.18718159810329,0 92.06281244546938,24.18716811001717,0 92.06299860931556,24.18714066752216,0 92.06310692197592,24.18709658739345,0 92.06315847664969,24.18707861566375,0 92.06320083051803,24.1870508005774,0 92.06339046983688,24.18703181574276,0 92.0634238159812,24.18701323041649,0 92.06372908350053,24.18700508767308,0 92.06381894244278,24.18697843232344,0 92.06402328458427,24.18691156036092,0 92.06408100799145,24.18690456724634,0 92.06432249023261,24.18681465959802,0 92.06442532038041,24.18681299997955,0 92.06448934549374,24.18681513562037,0 92.06454941127448,24.18681060520003,0 92.06461536136875,24.18678293934952,0 92.06471224856949,24.1867588691738,0 92.06476216525708,24.18671488541746,0 92.06489677577773,24.18669523033009,0 92.06502294157758,24.18668913098207,0 92.06511234161739,24.18668263350619,0 92.06519382566817,24.18664834376813,0 92.06529507736276,24.18664989045975,0 92.06537270267771,24.18663673226426,0 92.06546609279094,24.18671479256071,0 92.06551359276698,24.18671962541956,0 92.06555571224344,24.18674973763704,0 92.06562547581784,24.18683068266413,0 92.06569976099544,24.18693760223609,0 92.06577745328561,24.18703363092576,0 92.06582395180297,24.18719215456101,0 92.06586305608039,24.18732074216983,0 92.0658837861574,24.18742612654371,0 92.06591761204272,24.18745783141131,0 92.06595655351074,24.18747139455998,0 92.06601870903307,24.18746524125212,0 92.06606289455023,24.187516767162,0 92.06593951543567,24.18754705400763,0 92.06579487378865,24.18757853153519,0 92.06567928914495,24.18764840398883,0 92.06559398713526,24.18773510840887,0 92.06557353848621,24.18775745304981,0 92.06554084252262,24.18782045340384,0 92.06552831165001,24.18787074177231,0 92.06553588734667,24.18789438447888,0 92.06554046252955,24.18790866703526,0 92.0654919651287,24.18794006127572,0 92.06546883764616,24.18806189028344,0 92.06546426445786,24.18819016797819,0 92.06548281778633,24.18827226930425,0 92.06545133984447,24.18834496030271,0 92.06544942405208,24.18846034675647,0 92.06540208952842,24.18844137450775,0 92.06536489871158,24.18841887123465,0 92.0652913453402,24.18837436565912,0 92.06525964113038,24.18837498532463,0 92.06515142638153,24.18838027793333,0 92.06512102343578,24.18838627391998,0 92.06500970896049,24.18840851332833,0 92.06491323687933,24.1883927681633,0 92.06489382744411,24.18840111163329,0 92.0648196844879,24.18843620905702,0 92.06477374706131,24.18845400976154,0 92.06475699636121,24.18845831210347,0 92.06474024906501,24.18846270016552,0 92.06472298935392,24.18846285620353,0 92.06469942855205,24.18846779436464,0 92.06467929081509,24.18847270817821,0 92.0646689180596,24.18847280212462,0 92.06464759919081,24.18846826295366,0 92.06461649515251,24.18846854467863,0 92.06458301355508,24.18847844301896,0 92.06455879628007,24.18847873491618,0 92.06453152550966,24.18848341587504,0 92.06450471957615,24.18849297289703,0 92.06448481093557,24.18850260076385,0 92.06448181130455,24.18850746968992,0 92.06445531100451,24.18852199205746,0 92.06442868676666,24.18853649433302,0 92.06442256891755,24.18854629700708,0 92.06438907265682,24.18856516854075,0 92.06437883891165,24.18856943659468,0 92.06435874489776,24.18858299722261,0 92.06434156985837,24.18859063774856,0 92.06432719958232,24.18858873084578,0 92.0642555743475,24.1885792253607,0 92.0642415749421,24.18858200730102,0 92.06419351556215,24.18860894714522,0 92.06414849877737,24.18863131305017,0 92.06412459458849,24.18865232146199,0 92.06411449719189,24.18866555039012,0 92.06409452620167,24.18869855320609,0 92.06406070781296,24.18874795600687,0 92.06404988395725,24.18874678961371,0 92.06389558138545,24.18873402853934,0 92.06347537977631,24.18873632336554,0 92.06306260397585,24.18877174322166,0 92.06269738801538,24.18862727963579,0 92.0622284438129,24.18876974541302,0 92.06215119797309,24.18877275372159,0 92.06181018231935,24.18890917640634,0 92.06143505627915,24.1889268641202,0 92.06120815495395,24.18896745666835,0 92.0610007464939,24.18898261121987,0 92.06075921313419,24.18900575987713,0 92.06052733618918,24.18900905879996,0 92.05969246287518,24.18923165421259,0 
					</coordinates>
				</LinearRing>
			</outerBoundaryIs>
		</Polygon>
		<atom:link rel="app" href="https://www.google.com/earth/about/versions/#earth-pro" title="Google Earth Pro 7.3.7.1155"></atom:link>
	</Placemark>
</Document>
</kml>
