<?xml version="1.0" encoding="UTF-8"?>
<kml xmlns="http://www.opengis.net/kml/2.2" xmlns:gx="http://www.google.com/kml/ext/2.2" xmlns:kml="http://www.opengis.net/kml/2.2" xmlns:atom="http://www.w3.org/2005/Atom">
<Document>
	<name>7.4 HA AR BIJOY MASTER PARA JFMC</name>
	<open>1</open>
	<snippet>Created Thu May 7 13:49:29 2026</snippet>
	<LookAt>
		<gx:TimeSpan>
			<begin>2026-05-06T03:59:05Z</begin>
			<end>2026-05-06T04:34:55Z</end>
		</gx:TimeSpan>
		<longitude>92.100323</longitude>
		<latitude>23.89242</latitude>
		<altitude>0</altitude>
		<heading>0</heading>
		<tilt>0</tilt>
		<range>1300</range>
	</LookAt>
	<atom:link rel="app" href="https://www.google.com/earth/about/versions/#earth-pro" title="Google Earth Pro 7.3.7.1155"></atom:link>
	<StyleMap id="m_ylw-pushpin">
		<Pair>
			<key>normal</key>
			<styleUrl>#s_ylw-pushpin</styleUrl>
		</Pair>
		<Pair>
			<key>highlight</key>
			<styleUrl>#s_ylw-pushpin_hl</styleUrl>
		</Pair>
	</StyleMap>
	<StyleMap id="multiTrack">
		<Pair>
			<key>normal</key>
			<styleUrl>#multiTrack_n</styleUrl>
		</Pair>
		<Pair>
			<key>highlight</key>
			<styleUrl>#multiTrack_h</styleUrl>
		</Pair>
	</StyleMap>
	<Style id="multiTrack_h">
		<IconStyle>
			<scale>1.2</scale>
			<Icon>
				<href>https://earth.google.com/images/kml-icons/track-directional/track-0.png</href>
			</Icon>
		</IconStyle>
		<LineStyle>
			<color>99ffac59</color>
			<width>8</width>
		</LineStyle>
	</Style>
	<Style id="multiTrack_n">
		<IconStyle>
			<Icon>
				<href>https://earth.google.com/images/kml-icons/track-directional/track-0.png</href>
			</Icon>
		</IconStyle>
		<LineStyle>
			<color>99ffac59</color>
			<width>6</width>
		</LineStyle>
	</Style>
	<Style id="s_ylw-pushpin">
		<IconStyle>
			<scale>1.1</scale>
			<Icon>
				<href>http://maps.google.com/mapfiles/kml/pushpin/ylw-pushpin.png</href>
			</Icon>
			<hotSpot x="20" y="2" xunits="pixels" yunits="pixels"/>
		</IconStyle>
		<LineStyle>
			<color>ffffaa00</color>
			<width>5</width>
		</LineStyle>
		<PolyStyle>
			<fill>0</fill>
		</PolyStyle>
	</Style>
	<Style id="s_ylw-pushpin_hl">
		<IconStyle>
			<scale>1.3</scale>
			<Icon>
				<href>http://maps.google.com/mapfiles/kml/pushpin/ylw-pushpin.png</href>
			</Icon>
			<hotSpot x="20" y="2" xunits="pixels" yunits="pixels"/>
		</IconStyle>
		<LineStyle>
			<color>ffffaa00</color>
			<width>5</width>
		</LineStyle>
		<PolyStyle>
			<fill>0</fill>
		</PolyStyle>
	</Style>
	<Folder>
		<name>Tracks</name>
		<Placemark>
			<name>ARBMAY-26 10:04:59</name>
			<styleUrl>#multiTrack</styleUrl>
			<gx:Track>
				<when>2026-05-06T03:59:05Z</when>
				<when>2026-05-06T03:59:15Z</when>
				<when>2026-05-06T03:59:31Z</when>
				<when>2026-05-06T03:59:48Z</when>
				<when>2026-05-06T04:00:00Z</when>
				<when>2026-05-06T04:00:14Z</when>
				<when>2026-05-06T04:00:27Z</when>
				<when>2026-05-06T04:00:43Z</when>
				<when>2026-05-06T04:00:46Z</when>
				<when>2026-05-06T04:01:02Z</when>
				<when>2026-05-06T04:01:09Z</when>
				<when>2026-05-06T04:01:21Z</when>
				<when>2026-05-06T04:01:34Z</when>
				<when>2026-05-06T04:01:49Z</when>
				<when>2026-05-06T04:02:00Z</when>
				<when>2026-05-06T04:02:13Z</when>
				<when>2026-05-06T04:02:27Z</when>
				<when>2026-05-06T04:02:40Z</when>
				<when>2026-05-06T04:02:54Z</when>
				<when>2026-05-06T04:03:10Z</when>
				<when>2026-05-06T04:03:21Z</when>
				<when>2026-05-06T04:03:40Z</when>
				<when>2026-05-06T04:03:55Z</when>
				<when>2026-05-06T04:04:08Z</when>
				<when>2026-05-06T04:04:23Z</when>
				<when>2026-05-06T04:04:35Z</when>
				<when>2026-05-06T04:04:50Z</when>
				<when>2026-05-06T04:05:05Z</when>
				<when>2026-05-06T04:05:20Z</when>
				<when>2026-05-06T04:05:35Z</when>
				<when>2026-05-06T04:05:49Z</when>
				<when>2026-05-06T04:06:12Z</when>
				<when>2026-05-06T04:06:25Z</when>
				<when>2026-05-06T04:06:36Z</when>
				<when>2026-05-06T04:06:52Z</when>
				<when>2026-05-06T04:07:05Z</when>
				<when>2026-05-06T04:07:18Z</when>
				<when>2026-05-06T04:07:32Z</when>
				<when>2026-05-06T04:07:46Z</when>
				<when>2026-05-06T04:07:59Z</when>
				<when>2026-05-06T04:08:16Z</when>
				<when>2026-05-06T04:08:30Z</when>
				<when>2026-05-06T04:08:51Z</when>
				<when>2026-05-06T04:09:10Z</when>
				<when>2026-05-06T04:09:26Z</when>
				<when>2026-05-06T04:09:43Z</when>
				<when>2026-05-06T04:10:02Z</when>
				<when>2026-05-06T04:10:19Z</when>
				<when>2026-05-06T04:10:35Z</when>
				<when>2026-05-06T04:10:50Z</when>
				<when>2026-05-06T04:11:07Z</when>
				<when>2026-05-06T04:11:21Z</when>
				<when>2026-05-06T04:11:34Z</when>
				<when>2026-05-06T04:11:50Z</when>
				<when>2026-05-06T04:12:06Z</when>
				<when>2026-05-06T04:12:21Z</when>
				<when>2026-05-06T04:12:33Z</when>
				<when>2026-05-06T04:12:47Z</when>
				<when>2026-05-06T04:12:59Z</when>
				<when>2026-05-06T04:13:12Z</when>
				<when>2026-05-06T04:13:28Z</when>
				<when>2026-05-06T04:13:44Z</when>
				<when>2026-05-06T04:13:46Z</when>
				<when>2026-05-06T04:13:59Z</when>
				<when>2026-05-06T04:14:13Z</when>
				<when>2026-05-06T04:14:27Z</when>
				<when>2026-05-06T04:14:44Z</when>
				<when>2026-05-06T04:15:01Z</when>
				<when>2026-05-06T04:15:16Z</when>
				<when>2026-05-06T04:15:29Z</when>
				<when>2026-05-06T04:15:30Z</when>
				<when>2026-05-06T04:15:43Z</when>
				<when>2026-05-06T04:15:55Z</when>
				<when>2026-05-06T04:16:10Z</when>
				<when>2026-05-06T04:16:15Z</when>
				<when>2026-05-06T04:16:28Z</when>
				<when>2026-05-06T04:16:35Z</when>
				<when>2026-05-06T04:16:49Z</when>
				<when>2026-05-06T04:17:04Z</when>
				<when>2026-05-06T04:17:21Z</when>
				<when>2026-05-06T04:17:34Z</when>
				<when>2026-05-06T04:17:46Z</when>
				<when>2026-05-06T04:18:00Z</when>
				<when>2026-05-06T04:18:14Z</when>
				<when>2026-05-06T04:18:28Z</when>
				<when>2026-05-06T04:18:40Z</when>
				<when>2026-05-06T04:18:56Z</when>
				<when>2026-05-06T04:19:09Z</when>
				<when>2026-05-06T04:19:22Z</when>
				<when>2026-05-06T04:19:28Z</when>
				<when>2026-05-06T04:19:42Z</when>
				<when>2026-05-06T04:19:54Z</when>
				<when>2026-05-06T04:20:07Z</when>
				<when>2026-05-06T04:20:19Z</when>
				<when>2026-05-06T04:20:32Z</when>
				<when>2026-05-06T04:20:45Z</when>
				<when>2026-05-06T04:20:59Z</when>
				<when>2026-05-06T04:21:12Z</when>
				<when>2026-05-06T04:21:27Z</when>
				<when>2026-05-06T04:21:42Z</when>
				<when>2026-05-06T04:21:58Z</when>
				<when>2026-05-06T04:22:12Z</when>
				<when>2026-05-06T04:22:26Z</when>
				<when>2026-05-06T04:22:36Z</when>
				<when>2026-05-06T04:22:50Z</when>
				<when>2026-05-06T04:23:03Z</when>
				<when>2026-05-06T04:23:15Z</when>
				<when>2026-05-06T04:23:31Z</when>
				<when>2026-05-06T04:23:45Z</when>
				<when>2026-05-06T04:23:58Z</when>
				<when>2026-05-06T04:24:11Z</when>
				<when>2026-05-06T04:24:27Z</when>
				<when>2026-05-06T04:24:41Z</when>
				<when>2026-05-06T04:24:53Z</when>
				<when>2026-05-06T04:25:07Z</when>
				<when>2026-05-06T04:25:21Z</when>
				<when>2026-05-06T04:25:37Z</when>
				<when>2026-05-06T04:25:51Z</when>
				<when>2026-05-06T04:26:06Z</when>
				<when>2026-05-06T04:26:19Z</when>
				<when>2026-05-06T04:26:32Z</when>
				<when>2026-05-06T04:26:47Z</when>
				<when>2026-05-06T04:27:01Z</when>
				<when>2026-05-06T04:27:18Z</when>
				<when>2026-05-06T04:27:34Z</when>
				<when>2026-05-06T04:27:50Z</when>
				<when>2026-05-06T04:28:06Z</when>
				<when>2026-05-06T04:28:21Z</when>
				<when>2026-05-06T04:28:37Z</when>
				<when>2026-05-06T04:28:40Z</when>
				<when>2026-05-06T04:28:52Z</when>
				<when>2026-05-06T04:29:05Z</when>
				<when>2026-05-06T04:29:18Z</when>
				<when>2026-05-06T04:29:33Z</when>
				<when>2026-05-06T04:29:45Z</when>
				<when>2026-05-06T04:30:01Z</when>
				<when>2026-05-06T04:30:16Z</when>
				<when>2026-05-06T04:30:34Z</when>
				<when>2026-05-06T04:30:48Z</when>
				<when>2026-05-06T04:31:01Z</when>
				<when>2026-05-06T04:31:19Z</when>
				<when>2026-05-06T04:31:34Z</when>
				<when>2026-05-06T04:31:49Z</when>
				<when>2026-05-06T04:32:01Z</when>
				<when>2026-05-06T04:32:14Z</when>
				<when>2026-05-06T04:32:28Z</when>
				<when>2026-05-06T04:32:43Z</when>
				<when>2026-05-06T04:32:58Z</when>
				<when>2026-05-06T04:33:10Z</when>
				<when>2026-05-06T04:33:24Z</when>
				<when>2026-05-06T04:33:35Z</when>
				<when>2026-05-06T04:33:50Z</when>
				<when>2026-05-06T04:34:04Z</when>
				<when>2026-05-06T04:34:20Z</when>
				<when>2026-05-06T04:34:33Z</when>
				<when>2026-05-06T04:34:55Z</when>
				<gx:coord>92.09791300000001 23.892251 215.95</gx:coord>
				<gx:coord>92.09790099999999 23.892243 214.99</gx:coord>
				<gx:coord>92.09792899999999 23.89226 214.03</gx:coord>
				<gx:coord>92.097987 23.892304 213.07</gx:coord>
				<gx:coord>92.09807000000001 23.892325 210.67</gx:coord>
				<gx:coord>92.098161 23.892417 207.3</gx:coord>
				<gx:coord>92.098274 23.892521 209.22</gx:coord>
				<gx:coord>92.09846 23.892626 212.11</gx:coord>
				<gx:coord>92.098491 23.892614 212.59</gx:coord>
				<gx:coord>92.09864000000002 23.892476 210.67</gx:coord>
				<gx:coord>92.09869999999999 23.892454 211.15</gx:coord>
				<gx:coord>92.098765 23.892473 211.63</gx:coord>
				<gx:coord>92.09879700000002 23.892521 213.07</gx:coord>
				<gx:coord>92.098883 23.892572 213.07</gx:coord>
				<gx:coord>92.09893700000001 23.892583 213.07</gx:coord>
				<gx:coord>92.098994 23.892594 213.55</gx:coord>
				<gx:coord>92.09907 23.892632 213.07</gx:coord>
				<gx:coord>92.099136 23.892658 211.63</gx:coord>
				<gx:coord>92.09922200000001 23.892656 210.67</gx:coord>
				<gx:coord>92.09927999999999 23.892649 207.78</gx:coord>
				<gx:coord>92.09931000000002 23.892665 205.86</gx:coord>
				<gx:coord>92.099343 23.892673 203.46</gx:coord>
				<gx:coord>92.099363 23.89269 202.01</gx:coord>
				<gx:coord>92.09939 23.89271 201.05</gx:coord>
				<gx:coord>92.09944900000001 23.892741 198.65</gx:coord>
				<gx:coord>92.099478 23.892757 198.65</gx:coord>
				<gx:coord>92.09950899999998 23.89278 199.13</gx:coord>
				<gx:coord>92.09955200000002 23.892795 200.09</gx:coord>
				<gx:coord>92.09966 23.892907 200.57</gx:coord>
				<gx:coord>92.09979800000001 23.892964 203.94</gx:coord>
				<gx:coord>92.09987999999998 23.892995 205.38</gx:coord>
				<gx:coord>92.09993600000001 23.893031 206.34</gx:coord>
				<gx:coord>92.099982 23.893037 206.82</gx:coord>
				<gx:coord>92.10004000000001 23.893092 207.78</gx:coord>
				<gx:coord>92.100129 23.893199 210.67</gx:coord>
				<gx:coord>92.100188 23.893263 212.59</gx:coord>
				<gx:coord>92.100258 23.89332 213.55</gx:coord>
				<gx:coord>92.10033500000002 23.893423 214.51</gx:coord>
				<gx:coord>92.10041 23.893482 211.63</gx:coord>
				<gx:coord>92.100509 23.893547 208.74</gx:coord>
				<gx:coord>92.100611 23.893531 208.74</gx:coord>
				<gx:coord>92.100677 23.893502 205.38</gx:coord>
				<gx:coord>92.100747 23.893384 206.34</gx:coord>
				<gx:coord>92.10077800000001 23.893291 200.57</gx:coord>
				<gx:coord>92.100836 23.893224 198.65</gx:coord>
				<gx:coord>92.10089600000001 23.893144 201.05</gx:coord>
				<gx:coord>92.100945 23.893131 202.49</gx:coord>
				<gx:coord>92.10101800000001 23.893025 201.53</gx:coord>
				<gx:coord>92.10107600000001 23.892977 196.25</gx:coord>
				<gx:coord>92.101101 23.892886 186.63</gx:coord>
				<gx:coord>92.101186 23.892825 184.23</gx:coord>
				<gx:coord>92.101258 23.892738 182.31</gx:coord>
				<gx:coord>92.10131800000001 23.892656 182.79</gx:coord>
				<gx:coord>92.10136700000001 23.892647 177.5</gx:coord>
				<gx:coord>92.10145 23.89268300000001 176.54</gx:coord>
				<gx:coord>92.1015 23.892689 177.5</gx:coord>
				<gx:coord>92.10157499999998 23.89267 180.38</gx:coord>
				<gx:coord>92.10164699999999 23.892709 181.35</gx:coord>
				<gx:coord>92.101654 23.892756 180.38</gx:coord>
				<gx:coord>92.101674 23.892778 178.94</gx:coord>
				<gx:coord>92.10177 23.892855 177.98</gx:coord>
				<gx:coord>92.10188899999999 23.892928 180.38</gx:coord>
				<gx:coord>92.10191099999999 23.892926 180.87</gx:coord>
				<gx:coord>92.10203199999999 23.89291100000001 177.02</gx:coord>
				<gx:coord>92.102132 23.892908 175.58</gx:coord>
				<gx:coord>92.10222200000001 23.89292 175.58</gx:coord>
				<gx:coord>92.10232999999999 23.892922 176.06</gx:coord>
				<gx:coord>92.10244 23.892938 176.06</gx:coord>
				<gx:coord>92.10254300000001 23.892897 175.58</gx:coord>
				<gx:coord>92.10265099999999 23.892854 176.54</gx:coord>
				<gx:coord>92.102656 23.89284 177.02</gx:coord>
				<gx:coord>92.102682 23.892732 175.1</gx:coord>
				<gx:coord>92.102683 23.892664 170.29</gx:coord>
				<gx:coord>92.102655 23.89256200000001 167.41</gx:coord>
				<gx:coord>92.102662 23.892563 167.89</gx:coord>
				<gx:coord>92.102693 23.892482 167.41</gx:coord>
				<gx:coord>92.10272200000001 23.892432 166.93</gx:coord>
				<gx:coord>92.10277900000001 23.892363 166.93</gx:coord>
				<gx:coord>92.10279300000001 23.892323 168.37</gx:coord>
				<gx:coord>92.10270199999999 23.892194 171.73</gx:coord>
				<gx:coord>92.102645 23.892138 175.58</gx:coord>
				<gx:coord>92.102667 23.892084 177.98</gx:coord>
				<gx:coord>92.10270999999999 23.891964 179.9</gx:coord>
				<gx:coord>92.10265099999999 23.891898 178.94</gx:coord>
				<gx:coord>92.10258999999999 23.891886 176.54</gx:coord>
				<gx:coord>92.10258099999999 23.891883 178.94</gx:coord>
				<gx:coord>92.10253899999999 23.891761 177.5</gx:coord>
				<gx:coord>92.10252100000001 23.891672 177.5</gx:coord>
				<gx:coord>92.102491 23.891563 178.46</gx:coord>
				<gx:coord>92.10243900000002 23.891544 178.94</gx:coord>
				<gx:coord>92.10235799999998 23.891498 180.87</gx:coord>
				<gx:coord>92.102272 23.891479 181.83</gx:coord>
				<gx:coord>92.102206 23.891458 182.79</gx:coord>
				<gx:coord>92.10214499999999 23.89143 179.9</gx:coord>
				<gx:coord>92.10209399999998 23.89137 177.98</gx:coord>
				<gx:coord>92.10203300000002 23.891355 175.58</gx:coord>
				<gx:coord>92.10193200000001 23.891321 176.54</gx:coord>
				<gx:coord>92.101899 23.891341 179.9</gx:coord>
				<gx:coord>92.10184 23.891315 186.63</gx:coord>
				<gx:coord>92.10165999999998 23.891366 187.59</gx:coord>
				<gx:coord>92.101506 23.891436 184.23</gx:coord>
				<gx:coord>92.101422 23.891417 183.75</gx:coord>
				<gx:coord>92.10133399999999 23.891372 182.79</gx:coord>
				<gx:coord>92.101297 23.891365 183.27</gx:coord>
				<gx:coord>92.10124500000001 23.891331 184.71</gx:coord>
				<gx:coord>92.10111999999999 23.891343 184.71</gx:coord>
				<gx:coord>92.101061 23.891403 184.23</gx:coord>
				<gx:coord>92.100979 23.891435 179.9</gx:coord>
				<gx:coord>92.10085499999998 23.89146 176.54</gx:coord>
				<gx:coord>92.10074299999999 23.891495 177.98</gx:coord>
				<gx:coord>92.100692 23.891532 179.9</gx:coord>
				<gx:coord>92.10060899999999 23.891557 185.19</gx:coord>
				<gx:coord>92.100489 23.891592 190.96</gx:coord>
				<gx:coord>92.10042199999999 23.891576 193.36</gx:coord>
				<gx:coord>92.100331 23.891587 198.65</gx:coord>
				<gx:coord>92.10020799999999 23.891635 201.53</gx:coord>
				<gx:coord>92.10008099999999 23.891638 198.17</gx:coord>
				<gx:coord>92.10000800000002 23.891629 201.05</gx:coord>
				<gx:coord>92.09997700000001 23.891553 204.42</gx:coord>
				<gx:coord>92.099926 23.891485 205.38</gx:coord>
				<gx:coord>92.099835 23.891417 198.17</gx:coord>
				<gx:coord>92.099754 23.891368 188.08</gx:coord>
				<gx:coord>92.09966599999998 23.891312 184.71</gx:coord>
				<gx:coord>92.099542 23.891292 182.31</gx:coord>
				<gx:coord>92.099419 23.891305 183.27</gx:coord>
				<gx:coord>92.09934200000001 23.891356 183.75</gx:coord>
				<gx:coord>92.09932000000001 23.89136 184.23</gx:coord>
				<gx:coord>92.09924099999999 23.891387 183.27</gx:coord>
				<gx:coord>92.099158 23.891391 186.63</gx:coord>
				<gx:coord>92.09914600000002 23.89139 187.11</gx:coord>
				<gx:coord>92.099042 23.891381 191.92</gx:coord>
				<gx:coord>92.09898800000001 23.891368 198.65</gx:coord>
				<gx:coord>92.098883 23.891374 203.46</gx:coord>
				<gx:coord>92.09875700000001 23.891443 206.82</gx:coord>
				<gx:coord>92.09869400000001 23.891475 205.86</gx:coord>
				<gx:coord>92.098592 23.891516 208.74</gx:coord>
				<gx:coord>92.098506 23.891541 211.63</gx:coord>
				<gx:coord>92.09844199999999 23.891566 217.4</gx:coord>
				<gx:coord>92.098399 23.891561 221.72</gx:coord>
				<gx:coord>92.09835400000001 23.89159 226.05</gx:coord>
				<gx:coord>92.098338 23.891609 227.49</gx:coord>
				<gx:coord>92.09835200000001 23.891637 234.7</gx:coord>
				<gx:coord>92.09832899999999 23.891664 236.14</gx:coord>
				<gx:coord>92.09822500000001 23.891753 229.89</gx:coord>
				<gx:coord>92.098144 23.891779 223.16</gx:coord>
				<gx:coord>92.098063 23.89181200000001 214.03</gx:coord>
				<gx:coord>92.09800500000001 23.891842 205.86</gx:coord>
				<gx:coord>92.09796100000001 23.891857 201.05</gx:coord>
				<gx:coord>92.09791 23.891902 199.13</gx:coord>
				<gx:coord>92.097869 23.891945 202.01</gx:coord>
				<gx:coord>92.097852 23.891983 203.46</gx:coord>
				<gx:coord>92.09790499999998 23.892068 205.38</gx:coord>
				<gx:coord>92.097925 23.892145 208.26</gx:coord>
				<gx:coord>92.09790700000002 23.892201 209.22</gx:coord>
				<gx:coord>92.09790099999999 23.892242 210.19</gx:coord>
				<gx:coord>92.09789800000001 23.892249 210.67</gx:coord>
			</gx:Track>
		</Placemark>
	</Folder>
	<Placemark>
		<name>5 HA ANR BIJOY MASTER PARA JFMC</name>
		<styleUrl>#m_ylw-pushpin</styleUrl>
		<Polygon>
			<tessellate>1</tessellate>
			<outerBoundaryIs>
				<LinearRing>
					<coordinates>
						92.10042401902562,23.88140961795973,0 92.10041647836205,23.88130955414028,0 92.10041618028296,23.88125599914003,0 92.10038241202693,23.88119049960573,0 92.10034222502617,23.88116656320175,0 92.10028201336827,23.88114860348799,0 92.10020189301719,23.88110608521891,0 92.10009506552849,23.88103328019204,0 92.1000613982433,23.88100349730033,0 92.09990016207968,23.88095644090042,0 92.09985905769371,23.88092159835997,0 92.09978354714644,23.88085759051625,0 92.09962092595997,23.88079303551767,0 92.09951947711664,23.88072709610725,0 92.09941195257102,23.88069075841561,0 92.0993068283473,23.88066423916317,0 92.09926711120491,23.88062731384986,0 92.09922745021582,23.88059037575304,0 92.09919461587533,23.88055336531975,0 92.09909673492886,23.88050273365864,0 92.09903171946354,23.88046492896843,0 92.09893397025401,23.88036023282237,0 92.09891274251824,23.88021572447864,0 92.09889192650613,23.88013744525872,0 92.09880363574514,23.8800533815539,0 92.09863566646331,23.87993858823207,0 92.09863640799945,23.8798776574456,0 92.09858414904453,23.87979234684563,0 92.09852759749465,23.87967608034011,0 92.09852929671766,23.87962715927403,0 92.09870178316314,23.87952464939898,0 92.09893800071478,23.87943504548488,0 92.09907053883086,23.87935051160074,0 92.09917138440963,23.8792473486629,0 92.09922694656483,23.87911974571511,0 92.09930602166612,23.87905935103901,0 92.09937957297386,23.8789987703491,0 92.09942695331199,23.87891998299953,0 92.09949333649186,23.87888972860298,0 92.09951322087508,23.87888368026095,0 92.09954653856549,23.87885945349552,0 92.09961270513834,23.87885948014112,0 92.09966014115894,23.87879282141132,0 92.09971347229893,23.87877464588197,0 92.09976666401684,23.87876857830589,0 92.0999004838574,23.87873828647301,0 92.09994698015662,23.87876251544192,0 92.10000724382658,23.87876251803225,0 92.10008785292119,23.87874435503069,0 92.1002210662715,23.87881100404919,0 92.10028132727604,23.87881705775585,0 92.1003211299241,23.87883525307073,0 92.10052119207703,23.8788292212966,0 92.10056133050513,23.87880495158239,0 92.10061499205905,23.87875034947779,0 92.10065526997417,23.87868363918686,0 92.10068899577108,23.87859275694372,0 92.10075611554419,23.87851408268649,0 92.10088267437004,23.87851978415731,0 92.10093584616705,23.87856803689542,0 92.10096905627891,23.87863468237316,0 92.10098906547749,23.87868328154408,0 92.10095536643925,23.87884759477286,0 92.10100899323609,23.87891461224038,0 92.10102904218735,23.87903654629442,0 92.1010828289087,23.87910356815232,0 92.10108291994557,23.8792434525227,0 92.10110989921579,23.87938304668317,0 92.10112336635935,23.87944366756834,0 92.10117037172903,23.87954675350116,0 92.10120392083768,23.87961950861222,0 92.10120392293871,23.87966808456514,0 92.10114355595961,23.87975331878323,0 92.10111004035812,23.8799051394586,0 92.10109664520698,23.88001440774674,0 92.10104977599762,23.88012940327472,0 92.10098958836893,23.88021367187569,0 92.10100296348335,23.88027453841898,0 92.1010230245749,23.88045094543121,0 92.10102302331579,23.88052384963705,0 92.10098956834847,23.88056600723578,0 92.10094943504699,23.88056560898738,0 92.10096280829322,23.88066289510934,0 92.10100296958275,23.88074816693267,0 92.10094285213198,23.88080766382407,0 92.10085611469442,23.88086670065669,0 92.10078952951825,23.8809137142635,0 92.10072962901737,23.88099132396619,0 92.10068286774008,23.8810336695554,0 92.10070292127543,23.88110631140333,0 92.10060937342557,23.88113054881205,0 92.10054264773891,23.88116657274524,0 92.10049615904038,23.8812746435886,0 92.10042401902562,23.88140961795973,0 
					</coordinates>
				</LinearRing>
			</outerBoundaryIs>
		</Polygon>
	</Placemark>
</Document>
</kml>
