<?xml version="1.0" encoding="UTF-8"?>
<kml xmlns="http://www.opengis.net/kml/2.2" xmlns:gx="http://www.google.com/kml/ext/2.2" xmlns:kml="http://www.opengis.net/kml/2.2" xmlns:atom="http://www.w3.org/2005/Atom">
<Document>
	<name>Nesekha.kml</name>
	<StyleMap id="m_ylw-pushpin">
		<Pair>
			<key>normal</key>
			<styleUrl>#s_ylw-pushpin</styleUrl>
		</Pair>
		<Pair>
			<key>highlight</key>
			<styleUrl>#s_ylw-pushpin_hl</styleUrl>
		</Pair>
	</StyleMap>
	<Style id="s_ylw-pushpin">
		<IconStyle>
			<scale>1.1</scale>
			<Icon>
				<href>http://maps.google.com/mapfiles/kml/pushpin/ylw-pushpin.png</href>
			</Icon>
			<hotSpot x="20" y="2" xunits="pixels" yunits="pixels"/>
		</IconStyle>
		<PolyStyle>
			<fill>0</fill>
		</PolyStyle>
	</Style>
	<Style id="s_ylw-pushpin_hl">
		<IconStyle>
			<scale>1.3</scale>
			<Icon>
				<href>http://maps.google.com/mapfiles/kml/pushpin/ylw-pushpin.png</href>
			</Icon>
			<hotSpot x="20" y="2" xunits="pixels" yunits="pixels"/>
		</IconStyle>
		<PolyStyle>
			<fill>0</fill>
		</PolyStyle>
	</Style>
	<Placemark>
		<name>Nesekha</name>
		<styleUrl>#m_ylw-pushpin</styleUrl>
		<Polygon>
			<tessellate>1</tessellate>
			<outerBoundaryIs>
				<LinearRing>
					<coordinates>
						91.72316955726936,23.23630031890552,0 91.72164755654579,23.23610791050992,0 91.72121519348455,23.23576834703359,0 91.72111437977709,23.235563476611,0 91.72134308772016,23.23544287473375,0 91.7215804070043,23.23512844613938,0 91.72168790849577,23.23501929409845,0 91.72176099176465,23.23475490884779,0 91.72189357175468,23.23462528099722,0 91.72201740377176,23.23453400319024,0 91.72222220393054,23.23438460899477,0 91.72237857245891,23.23432183068704,0 91.72255834658894,23.23402698501926,0 91.7229982891524,23.2340465882284,0 91.72332979091203,23.23411280186376,0 91.72355244847179,23.23413018194322,0 91.72371648496818,23.23407877791081,0 91.72394856145137,23.23409155867186,0 91.72417292241937,23.23405292560577,0 91.72426805056513,23.23401935278872,0 91.72444163092713,23.23373215451057,0 91.72456245511091,23.23356411865923,0 91.7246788557562,23.23336121638685,0 91.72472208254922,23.23333606389895,0 91.72486266177124,23.23337596383278,0 91.72506066040341,23.23341286735622,0 91.72524065624552,23.23346638822346,0 91.7254257516871,23.23350278311657,0 91.72554095218692,23.23356428907117,0 91.72566486816694,23.23367696170657,0 91.72569474321459,23.23381682459684,0 91.72574909283639,23.23392978463469,0 91.72582917554786,23.23408070665093,0 91.72611622863243,23.23424036272468,0 91.72628062987754,23.23432186408721,0 91.72650977171168,23.23447590755278,0 91.72663632059673,23.23465535092151,0 91.72676328199536,23.23484994142791,0 91.72677304810877,23.23501199809507,0 91.72677487064749,23.23514207282615,0 91.72676938084571,23.23528696493432,0 91.72671653666409,23.23536497189598,0 91.72661428530138,23.23548244897658,0 91.72657219495706,23.23554229447923,0 91.72656160362189,23.23561635763913,0 91.7265850651301,23.23581288778735,0 91.72662781373567,23.23598430789823,0 91.72680494417986,23.23626931087257,0 91.72687485743781,23.23638027512542,0 91.72706030372629,23.23660329868947,0 91.72701704301436,23.23657383884862,0 91.726914819485,23.23655514495826,0 91.72676914302251,23.23655394994543,0 91.72652915998627,23.23653308864857,0 91.72636582948067,23.23654502864363,0 91.72597747372967,23.23643136816948,0 91.72588490897328,23.23643059475769,0 91.72578258189552,23.23643176535687,0 91.7257049544837,23.23645480037766,0 91.72556266149243,23.23650383945779,0 91.72546524506538,23.23651635575103,0 91.72533591051672,23.23656941676207,0 91.7252004793709,23.23662178425289,0 91.72507269411436,23.23664265286958,0 91.72494859823662,23.23671872232941,0 91.72485190160992,23.23673307617093,0 91.72474836646266,23.23683795740263,0 91.7246636951957,23.23688718406429,0 91.7245265329627,23.23697599723963,0 91.72441838036646,23.23702628892902,0 91.72430483648048,23.23705991077257,0 91.72423655469018,23.23716948981839,0 91.72413007910544,23.23721756368776,0 91.72407720466188,23.23723495923927,0 91.72397405573969,23.23711486177657,0 91.72385203438455,23.23710750915888,0 91.72376031307775,23.23705299430891,0 91.72359170717711,23.23698432402779,0 91.72316955726936,23.23630031890552,0 
					</coordinates>
				</LinearRing>
			</outerBoundaryIs>
		</Polygon>
		<atom:link rel="app" href="https://www.google.com/earth/about/versions/#earth-pro" title="Google Earth Pro 7.3.7.1155"></atom:link>
	</Placemark>
</Document>
</kml>
