<?xml version="1.0" encoding="UTF-8"?>
<kml xmlns="http://www.opengis.net/kml/2.2" xmlns:gx="http://www.google.com/kml/ext/2.2" xmlns:kml="http://www.opengis.net/kml/2.2" xmlns:atom="http://www.w3.org/2005/Atom">
<Document>
	<name>1778477955075.kml</name>
	<StyleMap id="msn_ylw-pushpin">
		<Pair>
			<key>normal</key>
			<styleUrl>#sn_ylw-pushpin</styleUrl>
		</Pair>
		<Pair>
			<key>highlight</key>
			<styleUrl>#sh_ylw-pushpin</styleUrl>
		</Pair>
	</StyleMap>
	<Style id="sh_ylw-pushpin">
		<IconStyle>
			<scale>1.3</scale>
			<Icon>
				<href>http://maps.google.com/mapfiles/kml/pushpin/ylw-pushpin.png</href>
			</Icon>
			<hotSpot x="20" y="2" xunits="pixels" yunits="pixels"/>
		</IconStyle>
		<BalloonStyle>
		</BalloonStyle>
		<PolyStyle>
			<fill>0</fill>
		</PolyStyle>
	</Style>
	<Style id="sn_ylw-pushpin">
		<IconStyle>
			<scale>1.1</scale>
			<Icon>
				<href>http://maps.google.com/mapfiles/kml/pushpin/ylw-pushpin.png</href>
			</Icon>
			<hotSpot x="20" y="2" xunits="pixels" yunits="pixels"/>
		</IconStyle>
		<BalloonStyle>
		</BalloonStyle>
		<PolyStyle>
			<fill>0</fill>
		</PolyStyle>
	</Style>
	<Placemark>
		<name>1778477955075</name>
		<styleUrl>#msn_ylw-pushpin</styleUrl>
		<Polygon>
			<tessellate>1</tessellate>
			<outerBoundaryIs>
				<LinearRing>
					<coordinates>
						91.42551121765243,23.56027043099753,0 91.42538065646578,23.5602841397489,0 91.42529507407848,23.56034125587899,0 91.42514213654356,23.56037868573079,0 91.42502226120737,23.56034411522903,0 91.42492427391474,23.56028924822644,0 91.42484387159674,23.56024235703671,0 91.42478636321144,23.56016261267529,0 91.42468555328428,23.56010250321549,0 91.42454178517566,23.55999461867734,0 91.42435238210535,23.55981994212938,0 91.42427178072494,23.55967468425719,0 91.42432942902228,23.55961033268462,0 91.42436851609065,23.55953955593191,0 91.4244779408219,23.55940647721367,0 91.42456842935719,23.55927179153656,0 91.42466518117635,23.55918902814933,0 91.42472015024134,23.55910013845247,0 91.42489038914444,23.55889499154394,0 91.42508517943493,23.55878818475433,0 91.42520639835615,23.55882661074996,0 91.42522955791442,23.55885744641019,0 91.42531677687199,23.55889431356973,0 91.42548769049917,23.55895543089757,0 91.42560325748239,23.55901393932043,0 91.42570885478625,23.55917066831893,0 91.42573047925163,23.55939852843576,0 91.42571457412313,23.55946979146411,0 91.42571545837964,23.5594847074366,0 91.42571634940386,23.55949969538102,0 91.4257119768545,23.55951225544124,0 91.42571242206809,23.55951980763367,0 91.42571301719698,23.5595299034143,0 91.42571376362143,23.55954256521192,0 91.42571466298114,23.55955782158668,0 91.42571526555444,23.55956803240537,0 91.42571617340909,23.55958340743469,0 91.42571662891584,23.55959112086191,0 91.42571754287182,23.55960659984727,0 91.42571585904331,23.55962215540035,0 91.42571646947476,23.55963256046502,0 91.42571738867804,23.55964822697153,0 91.4257153880272,23.55965871778394,0 91.42572369882301,23.55966656725815,0 91.425731989909,23.55967433042337,0 91.42574292170718,23.55968210239303,0 91.42575140144993,23.55969250599536,0 91.42576237888856,23.55970031488554,0 91.42577090544123,23.55971076815588,0 91.42577929274988,23.55971862149194,0 91.42578786286285,23.55972912492825,0 91.42579347747842,23.55973438373366,0 91.42580208469029,23.55974493043568,0 91.42580824030986,23.55975816783324,0 91.42581406575927,23.55976612618789,0 91.42582271182545,23.55977669879137,0 91.42582888082404,23.55978992991733,0 91.42583470557052,23.55979784326523,0 91.42584091051984,23.55981114372383,0 91.42584959799434,23.55982173303084,0 91.42586076710889,23.55982958842356,0 91.42586930268949,23.5598375170088,0 91.42587804516428,23.55984815520962,0 91.42588680961596,23.55985881998972,0 91.42589293425399,23.55986957298959,0 91.42590173965313,23.5598802918505,0 91.42591056717501,23.55989103763063,0 91.42591407519208,23.55990193687578,0 91.42592315516862,23.5599154904313,0 91.42593226442555,23.55992908759357,0 91.42594118205959,23.55993995774648,0 91.42594967399782,23.55994530475275,0 91.42595840270857,23.55995343556193,0 91.42597252097362,23.55996144840963,0 91.42598666236759,23.55996947437611,0 91.42599814177761,23.55997759024246,0 91.42601233759022,23.55998566211114,0 91.42602116685146,23.55999387655669,0 91.42603540686063,23.56000197626498,0 91.42604722141485,23.56001295003255,0 91.42605312980319,23.56001842759303,0 91.42606470894707,23.56002659035953,0 91.42607683440475,23.56004040353566,0 91.42608304407764,23.56004873868775,0 91.42609495778586,23.56005978670595,0 91.42610662547835,23.56006802208148,0 91.42611803452147,23.56007342921476,0 91.42612945521314,23.56007884184751,0 91.42615175075323,23.56008398484335,0 91.42616620778736,23.56009218594646,0 91.42617465009974,23.56009482140891,0 91.42618611371459,23.56010024141626,0 91.42619758892002,23.5601056668894,0 91.42620876485603,23.56010823500791,0 91.42622297666756,23.56011359448666,0 91.42623176511073,23.56011910674646,0 91.42624295974063,23.56012168001907,0 91.42625589390913,23.56011557584284,0 91.42626337916352,23.5601096292681,0 91.42627683812042,23.56010909712991,0 91.42628795490323,23.5601115614658,0 91.42628704490824,23.56012614925282,0 91.4262857317815,23.56013781087185,0 91.4262819755039,23.56015238431448,0 91.42627513889478,23.56016418847437,0 91.42626794784235,23.56017312299763,0 91.42626382574301,23.56018494245837,0 91.42625663671171,23.56019398717077,0 91.42624976966734,23.56020600185053,0 91.42624288087285,23.56021805490601,0 91.42623529865763,23.5602242163638,0 91.42622803644956,23.5602333572211,0 91.42622351239466,23.56024243132413,0 91.42621400882182,23.56025747428821,0 91.42620940188894,23.56026650353006,0 91.42620262936504,23.56028157742288,0 91.42619768211343,23.5602876714838,0 91.42618745405866,23.56029689137672,0 91.42617501747067,23.56031220421267,0 91.42616472980831,23.56032148281153,0 91.42616253297498,23.56032757868802,0 91.42615784809607,23.56033681444272,0 91.42615036664496,23.56034619070577,0 91.42614317316531,23.56035865096048,0 91.42613845128578,23.56036796955822,0 91.42612530175025,23.56037762725075,0 91.42611464283058,23.5603841509472,0 91.42610368360241,23.56038763043962,0 91.4260929883538,23.56039417344951,0 91.42608199971944,23.56039766402576,0 91.426071267661,23.56040422648622,0 91.42606051555128,23.56041080125923,0 91.42603363014454,23.56042751227235,0 91.42603080539143,23.56042764169285,0 91.42601719310252,23.56043450997391,0 91.4260087046418,23.56043489995285,0 91.42599763307801,23.56043853604251,0 91.42598629869134,23.56043905503594,0 91.42597852753491,23.56044880848477,0 91.42596504900813,23.56045884840148,0 91.42595106006544,23.56046263752649,0 91.42594298298184,23.56046931148515,0 91.42592899078704,23.56047322566339,0 91.42591807750608,23.56048023030401,0 91.42590383221682,23.56048104136215,0 91.42589265096201,23.56048487671296,0 91.42587837895556,23.56048569061165,0 91.42586388225564,23.56048331583708,0 91.42584959179541,23.56048412946831,0 91.42583508766916,23.56048175353,0 91.4258203865874,23.56047619059979,0 91.42580603253514,23.56047682843836,0 91.42579148034844,23.56047426400083,0 91.42577962274818,23.56046838948558,0 91.42576777743729,23.56046252111767,0 91.42575290272687,23.56045360662929,0 91.42574092142787,23.56044458439921,0 91.42573485741538,23.56043849714515,0 91.42572291113629,23.56042950431415,0 91.42571353944264,23.56041410593076,0 91.42570450208237,23.56040503695816,0 91.42559581027373,23.56033672681963,0 91.42551121765243,23.56027043099753,0 
					</coordinates>
				</LinearRing>
			</outerBoundaryIs>
		</Polygon>
		<atom:link rel="app" href="https://www.google.com/earth/about/versions/#earth-pro" title="Google Earth Pro 7.3.7.1155"></atom:link>
	</Placemark>
</Document>
</kml>
