<?xml version="1.0" encoding="UTF-8"?>
<kml xmlns="http://www.opengis.net/kml/2.2" xmlns:gx="http://www.google.com/kml/ext/2.2" xmlns:kml="http://www.opengis.net/kml/2.2" xmlns:atom="http://www.w3.org/2005/Atom">
<Document>
	<name>1778157609731.kml</name>
	<StyleMap id="msn_ylw-pushpin">
		<Pair>
			<key>normal</key>
			<styleUrl>#sn_ylw-pushpin</styleUrl>
		</Pair>
		<Pair>
			<key>highlight</key>
			<styleUrl>#sh_ylw-pushpin</styleUrl>
		</Pair>
	</StyleMap>
	<Style id="sh_ylw-pushpin">
		<IconStyle>
			<scale>1.3</scale>
			<Icon>
				<href>http://maps.google.com/mapfiles/kml/pushpin/ylw-pushpin.png</href>
			</Icon>
			<hotSpot x="20" y="2" xunits="pixels" yunits="pixels"/>
		</IconStyle>
		<BalloonStyle>
		</BalloonStyle>
		<LineStyle>
			<width>2.5</width>
		</LineStyle>
		<PolyStyle>
			<fill>0</fill>
		</PolyStyle>
	</Style>
	<Style id="sn_ylw-pushpin">
		<IconStyle>
			<scale>1.1</scale>
			<Icon>
				<href>http://maps.google.com/mapfiles/kml/pushpin/ylw-pushpin.png</href>
			</Icon>
			<hotSpot x="20" y="2" xunits="pixels" yunits="pixels"/>
		</IconStyle>
		<BalloonStyle>
		</BalloonStyle>
		<LineStyle>
			<width>2.5</width>
		</LineStyle>
		<PolyStyle>
			<fill>0</fill>
		</PolyStyle>
	</Style>
	<Placemark>
		<name>1778157609731</name>
		<styleUrl>#msn_ylw-pushpin</styleUrl>
		<Polygon>
			<tessellate>1</tessellate>
			<outerBoundaryIs>
				<LinearRing>
					<coordinates>
						92.2963362020909,24.15964185525616,0 92.29638453782991,24.15967312697193,0 92.29663038349422,24.15973420582268,0 92.2967111603764,24.15974898918786,0 92.29681445300953,24.15977884879643,0 92.29697716997839,24.15986035480061,0 92.29703972794843,24.15990537196086,0 92.29708055367679,24.15999312269508,0 92.29714520145336,24.16006801964461,0 92.29724031413622,24.16012876350374,0 92.29724671757164,24.16016439918756,0 92.29729516753412,24.16023593953742,0 92.29743120675823,24.16042842846384,0 92.29743817637232,24.16047064488961,0 92.2975073732336,24.16064402466797,0 92.29751606343012,24.16076221388609,0 92.29753295573188,24.1608487786406,0 92.29756883599913,24.1609841430784,0 92.29746174200785,24.16113590773744,0 92.29740889361851,24.16116657347505,0 92.29733758192707,24.16121629674792,0 92.29730263859921,24.16120632494787,0 92.29726148517577,24.16121419270748,0 92.29719038205383,24.16121347214945,0 92.29695512312072,24.1612177735674,0 92.29673376314497,24.16121716239457,0 92.29665217424322,24.161252821233,0 92.29660826410557,24.1612606283783,0 92.2965455203838,24.16125075113329,0 92.29644759560755,24.16129906590945,0 92.29637714775996,24.16130391823561,0 92.2962784013589,24.16131983165129,0 92.29627058027404,24.16132733120677,0 92.29610814490201,24.16138201673811,0 92.29604919713326,24.16141271780589,0 92.29598987695066,24.16141393907544,0 92.29598137284827,24.16141619573112,0 92.29588839524594,24.16142487585374,0 92.29582996068282,24.16143426896982,0 92.29574903636207,24.16145753100559,0 92.2956978135133,24.16149839425014,0 92.29550876448455,24.16159429997944,0 92.29539049489922,24.16161603298459,0 92.29530088499136,24.16162630273314,0 92.29523416825603,24.16166333404071,0 92.2951266592961,24.16177986757724,0 92.29507480157199,24.16190147547015,0 92.29501992881053,24.16196353455006,0 92.29496338835186,24.16211372407112,0 92.29493211754811,24.16214248005047,0 92.29488996861488,24.1622321841258,0 92.29489037399301,24.16231334374222,0 92.29483939310855,24.1624448783397,0 92.29474018245101,24.16249158287969,0 92.29463529372202,24.16264685215679,0 92.29461729965371,24.16270849442459,0 92.29455044158759,24.16278055666805,0 92.29452294148012,24.16282907199231,0 92.29452226328294,24.16296028785336,0 92.29447669908933,24.16300756104741,0 92.29443622099924,24.16307362785077,0 92.29443339560557,24.16326977381445,0 92.29433755425347,24.16337804006055,0 92.29434873709137,24.16338760288819,0 92.29433264794,24.16362312430727,0 92.29431818585131,24.16373885538626,0 92.29427969731292,24.16392205738924,0 92.29427076217084,24.16401279718902,0 92.29418697047046,24.16412862604876,0 92.29416646718528,24.16424820660755,0 92.29415049758224,24.16429598093361,0 92.29412850773254,24.16431687974476,0 92.29403513442153,24.16437649011821,0 92.29392437518798,24.16443999395357,0 92.29374693266148,24.16443964528974,0 92.2936010883343,24.16447789336922,0 92.29332895340156,24.16449385084309,0 92.29305298601614,24.1645145925213,0 92.29295773467564,24.16434000216,0 92.29294998671361,24.1641942354539,0 92.29293400230225,24.16400009086165,0 92.29292521618702,24.16396016498995,0 92.29294237826805,24.16392271124235,0 92.29304700484509,24.16372837287526,0 92.29306673785324,24.16356770242537,0 92.29303166363491,24.16345343904892,0 92.2930314315912,24.1633618241426,0 92.29307488654096,24.16323772709177,0 92.29315888505687,24.163101271772,0 92.29320543134645,24.16304366488887,0 92.29344322640888,24.16282406597732,0 92.29361461920904,24.16271848599325,0 92.29372841389539,24.16262360307667,0 92.29377944626216,24.16255716939552,0 92.29388140771185,24.16244239469073,0 92.2938343327972,24.16227886549184,0 92.29374824209464,24.16222072793489,0 92.29363062257219,24.16209942265815,0 92.2935272984686,24.1619085711606,0 92.29352466053689,24.1617280651884,0 92.29364647268746,24.16146458588788,0 92.29386064463876,24.16122462779184,0 92.29398412323769,24.16088768156227,0 92.2941241116185,24.16066644485998,0 92.2943565016825,24.16046282167702,0 92.29450094563977,24.16040775412554,0 92.29460880591384,24.16030467068035,0 92.29476042275476,24.16020552507389,0 92.29490707767121,24.16013998446657,0 92.29499893024381,24.16008013199821,0 92.29517339067486,24.15989076993528,0 92.29539028420744,24.15973561461002,0 92.29548842987343,24.15968341540684,0 92.29558280874755,24.15967239257255,0 92.29579953103311,24.1595781816022,0 92.29604595014993,24.15957792022403,0 92.29609003262756,24.15958866254284,0 92.29625671590726,24.15961098184014,0 92.2963362020909,24.15964185525616,0 
					</coordinates>
				</LinearRing>
			</outerBoundaryIs>
		</Polygon>
		<atom:link rel="app" href="https://www.google.com/earth/about/versions/#earth-pro" title="Google Earth Pro 7.3.7.1155"></atom:link>
	</Placemark>
</Document>
</kml>
