<?xml version="1.0" encoding="UTF-8"?>
<kml xmlns="http://www.opengis.net/kml/2.2" xmlns:gx="http://www.google.com/kml/ext/2.2" xmlns:kml="http://www.opengis.net/kml/2.2" xmlns:atom="http://www.w3.org/2005/Atom">
<Document>
	<name>1778489871583.kml</name>
	<StyleMap id="msn_ylw-pushpin">
		<Pair>
			<key>normal</key>
			<styleUrl>#sn_ylw-pushpin</styleUrl>
		</Pair>
		<Pair>
			<key>highlight</key>
			<styleUrl>#sh_ylw-pushpin</styleUrl>
		</Pair>
	</StyleMap>
	<Style id="sh_ylw-pushpin">
		<IconStyle>
			<scale>1.3</scale>
			<Icon>
				<href>http://maps.google.com/mapfiles/kml/pushpin/ylw-pushpin.png</href>
			</Icon>
			<hotSpot x="20" y="2" xunits="pixels" yunits="pixels"/>
		</IconStyle>
		<BalloonStyle>
		</BalloonStyle>
		<LineStyle>
			<width>2.5</width>
		</LineStyle>
		<PolyStyle>
			<fill>0</fill>
		</PolyStyle>
	</Style>
	<Style id="sn_ylw-pushpin">
		<IconStyle>
			<scale>1.1</scale>
			<Icon>
				<href>http://maps.google.com/mapfiles/kml/pushpin/ylw-pushpin.png</href>
			</Icon>
			<hotSpot x="20" y="2" xunits="pixels" yunits="pixels"/>
		</IconStyle>
		<BalloonStyle>
		</BalloonStyle>
		<LineStyle>
			<width>2.5</width>
		</LineStyle>
		<PolyStyle>
			<fill>0</fill>
		</PolyStyle>
	</Style>
	<Placemark>
		<name>1778489871583</name>
		<visibility>0</visibility>
		<styleUrl>#msn_ylw-pushpin</styleUrl>
		<Polygon>
			<tessellate>1</tessellate>
			<outerBoundaryIs>
				<LinearRing>
					<coordinates>
						92.07251845939967,24.31397526400932,0 92.07254016464995,24.31390301800393,0 92.07250615076225,24.31382984786672,0 92.07250067397082,24.31372029626163,0 92.07252000709781,24.31366616466888,0 92.07249356747072,24.31354455712277,0 92.07248206152596,24.31333854577024,0 92.07249895621669,24.31327928587285,0 92.0725268574765,24.31325231236956,0 92.07252991555207,24.31316049595614,0 92.07255879958714,24.31315711522898,0 92.07257474021904,24.31311546957163,0 92.07255579060801,24.31305924783564,0 92.07251286600965,24.31295353752104,0 92.07246537469325,24.31289385696667,0 92.0724720867567,24.31276545209727,0 92.07252968730201,24.31264690406435,0 92.07252955846019,24.3124984650558,0 92.0725619167553,24.31230309385398,0 92.07257507741507,24.31212421378197,0 92.07261539411169,24.31203828633349,0 92.07264313744164,24.31194250889276,0 92.07268564997199,24.31182207762134,0 92.07272505191933,24.31174101246589,0 92.07275375884241,24.31169459272738,0 92.07278392816397,24.31165214302458,0 92.07283708523831,24.31161260932184,0 92.07285565458929,24.31157305692994,0 92.07291413449536,24.31149807904541,0 92.07297702836252,24.31147042091618,0 92.07302221821406,24.31144426849888,0 92.07308457001714,24.31142235561581,0 92.07312746455395,24.31139029715888,0 92.07317259873633,24.31135488440423,0 92.07321069083977,24.31135833851002,0 92.073251212445,24.31134326491759,0 92.07329559406865,24.31135180517948,0 92.07332954480208,24.31136449437318,0 92.07346991249243,24.31136666824285,0 92.07353052520888,24.31137012216706,0 92.0735959100509,24.31138532420038,0 92.07363886892247,24.31142995754353,0 92.07366605154475,24.31145511898281,0 92.07374175754602,24.3114806433453,0 92.07378979175675,24.31152596058214,0 92.07379725210508,24.31156267311828,0 92.07381757904221,24.31157707924542,0 92.07387242388353,24.31159117581333,0 92.07389010144438,24.31160301728691,0 92.07389972868219,24.3116090008787,0 92.0739281584851,24.31165646906232,0 92.07394860543563,24.31168861525827,0 92.07399474342094,24.31170376347899,0 92.07406944219204,24.31173313728597,0 92.07409610453908,24.31175369905879,0 92.07410361933859,24.31182358452142,0 92.0741040051779,24.31188716685487,0 92.07409249914242,24.31192597475794,0 92.07407163399969,24.31196529149813,0 92.07407057639908,24.31196651314854,0 92.07407387612254,24.3119829849048,0 92.07407865266846,24.31200682909504,0 92.07408082655321,24.31201768114897,0 92.07408204092553,24.31202374329309,0 92.07410443249904,24.31206223575582,0 92.07411445738245,24.31210914176432,0 92.07412882054579,24.31214956900647,0 92.07413152475533,24.31217871426205,0 92.07412797297881,24.31218162766517,0 92.0741281334042,24.3121895527177,0 92.07411146056813,24.31221089383234,0 92.07410722126227,24.31221796553237,0 92.07408260965464,24.31227086171861,0 92.07404879175887,24.31230383360126,0 92.07402160786158,24.31233049579047,0 92.07399514450096,24.31239258150138,0 92.0739842902353,24.31246341002852,0 92.073983912377,24.31252776188729,0 92.07393051314261,24.31258371938212,0 92.07388217209872,24.31262835972295,0 92.07384082127052,24.31264021793278,0 92.07378911960969,24.31267473350144,0 92.07374333143943,24.3126825690248,0 92.07369311047788,24.31273860679353,0 92.07365146330025,24.3127536262699,0 92.07360054281192,24.31280487843439,0 92.07359567239412,24.31286378927066,0 92.07351248211818,24.31294804772302,0 92.0734960936288,24.31301346849498,0 92.07341614631684,24.31307497329048,0 92.0734032793746,24.31314216963427,0 92.07344868764582,24.31323202124552,0 92.07334555911224,24.3132386502634,0 92.0732340889606,24.31339532806797,0 92.07306270223324,24.3134089375744,0 92.07302903328313,24.31351484737989,0 92.07302446578846,24.31359443612833,0 92.07292347001436,24.31364099261301,0 92.07286880551835,24.31376187689854,0 92.07279183900332,24.31385719665857,0 92.07259544539926,24.31400745685649,0 92.07256290298673,24.31400373729231,0 92.07251845939967,24.31397526400932,0 
					</coordinates>
				</LinearRing>
			</outerBoundaryIs>
		</Polygon>
		<atom:link rel="app" href="https://www.google.com/earth/about/versions/#earth-pro" title="Google Earth Pro 7.3.7.1155"></atom:link>
	</Placemark>
</Document>
</kml>
