<?xml version="1.0" encoding="UTF-8"?>
<kml xmlns="http://www.opengis.net/kml/2.2" xmlns:gx="http://www.google.com/kml/ext/2.2" xmlns:kml="http://www.opengis.net/kml/2.2" xmlns:atom="http://www.w3.org/2005/Atom">
<Document>
	<name>Pre-Survey Map of ANR Bamboo plantation (ELEMENT Project) over 5.0 ha at  Belbari Beat under Champakpaknagar Range during the fi.kml</name>
	<StyleMap id="msn_ylw-pushpin">
		<Pair>
			<key>normal</key>
			<styleUrl>#sn_ylw-pushpin</styleUrl>
		</Pair>
		<Pair>
			<key>highlight</key>
			<styleUrl>#sh_ylw-pushpin</styleUrl>
		</Pair>
	</StyleMap>
	<Style id="sh_ylw-pushpin">
		<IconStyle>
			<scale>1.3</scale>
			<Icon>
				<href>http://maps.google.com/mapfiles/kml/pushpin/ylw-pushpin.png</href>
			</Icon>
			<hotSpot x="20" y="2" xunits="pixels" yunits="pixels"/>
		</IconStyle>
		<BalloonStyle>
		</BalloonStyle>
		<LineStyle>
			<width>2.5</width>
		</LineStyle>
		<PolyStyle>
			<fill>0</fill>
		</PolyStyle>
	</Style>
	<Style id="sn_ylw-pushpin">
		<IconStyle>
			<scale>1.1</scale>
			<Icon>
				<href>http://maps.google.com/mapfiles/kml/pushpin/ylw-pushpin.png</href>
			</Icon>
			<hotSpot x="20" y="2" xunits="pixels" yunits="pixels"/>
		</IconStyle>
		<BalloonStyle>
		</BalloonStyle>
		<LineStyle>
			<width>2.5</width>
		</LineStyle>
		<PolyStyle>
			<fill>0</fill>
		</PolyStyle>
	</Style>
	<Placemark>
		<name>Pre-Survey Map of ANR Bamboo plantation (ELEMENT Project) over 5.0 ha at  Belbari Beat under Champakpaknagar Range during the financial Year 2026-27.-11_21_49</name>
		<styleUrl>#msn_ylw-pushpin</styleUrl>
		<Polygon>
			<tessellate>1</tessellate>
			<outerBoundaryIs>
				<LinearRing>
					<coordinates>
						91.512301434988,23.76593046792737,0 91.51244195787261,23.7658710964994,0 91.51255479029618,23.76579374006808,0 91.5127242915421,23.76575562471595,0 91.51291012190848,23.76579728623675,0 91.51308370169306,23.76586562525022,0 91.51319145189331,23.76589297408351,0 91.51330096416059,23.76590622289457,0 91.51329476681047,23.76616173344908,0 91.51328241310327,23.76649057033192,0 91.51314714708488,23.76674405317057,0 91.51299827121872,23.76705003103725,0 91.51271427352887,23.7672406584695,0 91.51260497878985,23.76730883550467,0 91.51248716926816,23.7674414189181,0 91.5125078625078,23.76786518492954,0 91.51241854215269,23.76795420059239,0 91.51236374561626,23.76806726398453,0 91.51194751433698,23.7678641172852,0 91.51187682149155,23.76775618640643,0 91.51154596965942,23.76764638371698,0 91.51101244919494,23.76720444668504,0 91.51078958999641,23.76727760304965,0 91.51062850336166,23.76722032414354,0 91.51060307967538,23.76702103259856,0 91.51024063910171,23.76677268362587,0 91.51019131976933,23.76671313410353,0 91.51031643650595,23.76649719727257,0 91.51041507745678,23.76644514293421,0 91.51050936137354,23.76632779567982,0 91.51067978300686,23.76631248954585,0 91.51080588758785,23.76622747759185,0 91.51092108181599,23.76609902094363,0 91.51100053091162,23.7660095227571,0 91.51102520158928,23.76595854004404,0 91.5111072700647,23.76594756418537,0 91.51121898890807,23.76593337533336,0 91.51152072281225,23.76601856817219,0 91.5117973115937,23.76601633014479,0 91.51208025065823,23.76597532273489,0 91.512301434988,23.76593046792737,0 
					</coordinates>
				</LinearRing>
			</outerBoundaryIs>
		</Polygon>
		<atom:link rel="app" href="https://www.google.com/earth/about/versions/#earth-pro" title="Google Earth Pro 7.3.7.1155"></atom:link>
	</Placemark>
</Document>
</kml>
