<?xml version="1.0" encoding="UTF-8"?>
<kml xmlns="http://www.opengis.net/kml/2.2" xmlns:gx="http://www.google.com/kml/ext/2.2" xmlns:kml="http://www.opengis.net/kml/2.2" xmlns:atom="http://www.w3.org/2005/Atom">
<Document>
	<name>sishaka.kml</name>
	<StyleMap id="m_ylw-pushpin">
		<Pair>
			<key>normal</key>
			<styleUrl>#s_ylw-pushpin</styleUrl>
		</Pair>
		<Pair>
			<key>highlight</key>
			<styleUrl>#s_ylw-pushpin_hl</styleUrl>
		</Pair>
	</StyleMap>
	<Style id="s_ylw-pushpin">
		<IconStyle>
			<scale>1.1</scale>
			<Icon>
				<href>http://maps.google.com/mapfiles/kml/pushpin/ylw-pushpin.png</href>
			</Icon>
			<hotSpot x="20" y="2" xunits="pixels" yunits="pixels"/>
		</IconStyle>
		<PolyStyle>
			<fill>0</fill>
		</PolyStyle>
	</Style>
	<Style id="s_ylw-pushpin_hl">
		<IconStyle>
			<scale>1.3</scale>
			<Icon>
				<href>http://maps.google.com/mapfiles/kml/pushpin/ylw-pushpin.png</href>
			</Icon>
			<hotSpot x="20" y="2" xunits="pixels" yunits="pixels"/>
		</IconStyle>
		<PolyStyle>
			<fill>0</fill>
		</PolyStyle>
	</Style>
	<Placemark>
		<name>sishaka</name>
		<styleUrl>#m_ylw-pushpin</styleUrl>
		<Polygon>
			<tessellate>1</tessellate>
			<outerBoundaryIs>
				<LinearRing>
					<coordinates>
						91.73784162569636,23.23561112298022,0 91.73790470461996,23.23564916443197,0 91.73798027310735,23.23574448424005,0 91.73802723074121,23.23578252024763,0 91.73813862216203,23.2359111991348,0 91.73825340537556,23.23599202107357,0 91.73837231942389,23.23612135031302,0 91.73848637973153,23.2361985574092,0 91.73869372840024,23.23631514296834,0 91.73877665460067,23.236364063442,0 91.73894666122712,23.23641231708918,0 91.73917006045892,23.23653898742173,0 91.73923846768983,23.23654850464638,0 91.73928188775115,23.23662728563176,0 91.739389541169,23.23680649486327,0 91.73949342775094,23.2369322247921,0 91.73941543485503,23.23700995611131,0 91.73925786683688,23.23711072367322,0 91.73916929645705,23.23720519623834,0 91.73896709409061,23.23727620868895,0 91.73881636697797,23.23735381077111,0 91.73861844174716,23.23749893679828,0 91.7384489087614,23.23761088737589,0 91.73834953920969,23.23768336632329,0 91.73817651698226,23.23785306282111,0 91.73808822129239,23.23795766914846,0 91.73803055085509,23.23796550043315,0 91.73793327650982,23.23793738707263,0 91.73778712321511,23.23790019314209,0 91.73769483117519,23.23787681279305,0 91.73753874007278,23.23792691038821,0 91.73742882544566,23.2379278830274,0 91.73716934184449,23.23791884930039,0 91.73702636386788,23.23792049212558,0 91.73678004394147,23.23794664358001,0 91.73665903938029,23.23793412100447,0 91.73644920662568,23.2379431342723,0 91.73618930472057,23.23789431359705,0 91.73599489296434,23.23786428728107,0 91.73590456120931,23.23770726743883,0 91.73570871393579,23.23753147832604,0 91.73553018650699,23.23740791992747,0 91.73537960956632,23.23735354463885,0 91.73512731083616,23.23728364975829,0 91.73490602233929,23.23726202010366,0 91.7348406233439,23.23712410767918,0 91.73476940407143,23.23701879600929,0 91.73460201778484,23.2368504125198,0 91.7345455159664,23.23681057922596,0 91.73425211702934,23.23675716506317,0 91.73404351340473,23.23661189297311,0 91.7339854488805,23.23659438062521,0 91.73399785868976,23.23647374610018,0 91.733952055187,23.23631782225603,0 91.73385663376361,23.23614430136611,0 91.73385233893767,23.23589772766203,0 91.7338330023025,23.23584786373291,0 91.73384789172535,23.23576832851378,0 91.73397439745692,23.23573356906609,0 91.73410555676914,23.2356744622125,0 91.73507287933522,23.23570592498969,0 91.73576991874165,23.2360828631883,0 91.73652978716716,23.23587934237244,0 91.73678911528145,23.23569452172058,0 91.73784162569636,23.23561112298022,0 
					</coordinates>
				</LinearRing>
			</outerBoundaryIs>
		</Polygon>
		<atom:link rel="app" href="https://www.google.com/earth/about/versions/#earth-pro" title="Google Earth Pro 7.3.7.1155"></atom:link>
	</Placemark>
</Document>
</kml>
