<?xml version="1.0" encoding="UTF-8"?>
<kml xmlns="http://www.opengis.net/kml/2.2" xmlns:gx="http://www.google.com/kml/ext/2.2" xmlns:kml="http://www.opengis.net/kml/2.2" xmlns:atom="http://www.w3.org/2005/Atom">
<Document>
	<name>1778488582064.kml</name>
	<StyleMap id="msn_ylw-pushpin">
		<Pair>
			<key>normal</key>
			<styleUrl>#sn_ylw-pushpin</styleUrl>
		</Pair>
		<Pair>
			<key>highlight</key>
			<styleUrl>#sh_ylw-pushpin</styleUrl>
		</Pair>
	</StyleMap>
	<Style id="sh_ylw-pushpin">
		<IconStyle>
			<scale>1.3</scale>
			<Icon>
				<href>http://maps.google.com/mapfiles/kml/pushpin/ylw-pushpin.png</href>
			</Icon>
			<hotSpot x="20" y="2" xunits="pixels" yunits="pixels"/>
		</IconStyle>
		<BalloonStyle>
		</BalloonStyle>
		<LineStyle>
			<width>2.5</width>
		</LineStyle>
		<PolyStyle>
			<fill>0</fill>
		</PolyStyle>
	</Style>
	<Style id="sn_ylw-pushpin">
		<IconStyle>
			<scale>1.1</scale>
			<Icon>
				<href>http://maps.google.com/mapfiles/kml/pushpin/ylw-pushpin.png</href>
			</Icon>
			<hotSpot x="20" y="2" xunits="pixels" yunits="pixels"/>
		</IconStyle>
		<BalloonStyle>
		</BalloonStyle>
		<LineStyle>
			<width>2.5</width>
		</LineStyle>
		<PolyStyle>
			<fill>0</fill>
		</PolyStyle>
	</Style>
	<Placemark>
		<name>1778488582064</name>
		<styleUrl>#msn_ylw-pushpin</styleUrl>
		<Polygon>
			<tessellate>1</tessellate>
			<outerBoundaryIs>
				<LinearRing>
					<coordinates>
						92.0736390664653,24.32214856139381,0 92.0736279873629,24.32204575444013,0 92.07359719911159,24.32187868230603,0 92.07352900415148,24.32167753665363,0 92.07350076849826,24.32151623434806,0 92.07348211218628,24.32141210650677,0 92.07349154579782,24.32131823750709,0 92.07350349428434,24.32124631620042,0 92.07349502958684,24.32112924077124,0 92.0734768928771,24.32097861255775,0 92.07340647190205,24.3208387689845,0 92.07339254495457,24.32076430100959,0 92.07339856279252,24.32071655649136,0 92.07335523979022,24.32064558127592,0 92.07334456303037,24.32057584847761,0 92.07332712674145,24.32051178320017,0 92.07328420340728,24.32047125824059,0 92.0732680306113,24.32041150481914,0 92.07326348662482,24.3203621668481,0 92.0732361511424,24.32029825300864,0 92.07321023626011,24.32026422990503,0 92.07319406946785,24.3201982528094,0 92.07317927431194,24.32007662780539,0 92.07320332955615,24.31999350128321,0 92.07323057437614,24.31994323828545,0 92.07324071306468,24.31990775650043,0 92.07324360410593,24.31986184384305,0 92.07325632828939,24.31983344353427,0 92.07328672441517,24.31980639543896,0 92.07331451417382,24.31977656249699,0 92.07339398581452,24.31972672846143,0 92.07348071306095,24.31968017561168,0 92.07354543127705,24.31969000689115,0 92.07365674014662,24.31969175830112,0 92.07376673164488,24.31968943807862,0 92.07383855737585,24.31969828321517,0 92.07389767882455,24.3197176004634,0 92.0739642199396,24.31973785049258,0 92.07400620073744,24.31976598766324,0 92.07401304069285,24.31978800415197,0 92.07405847406004,24.31985827498391,0 92.07408198337137,24.31985989146053,0 92.07410115591117,24.31988006255125,0 92.07410664714335,24.31992465344667,0 92.07412260988561,24.31994091672206,0 92.07414101579816,24.32002693755071,0 92.0741671569163,24.32006820551878,0 92.07417546021875,24.32010394769163,0 92.0742007765332,24.32015001590579,0 92.07420752500798,24.32017462186318,0 92.07420355516916,24.32028583391631,0 92.07419483031588,24.32032774606279,0 92.07417680631275,24.32035354880076,0 92.0741561705759,24.32040696988614,0 92.07415640276022,24.32055574291974,0 92.07417335219735,24.3205726055915,0 92.07417272777693,24.3207816660352,0 92.0741898715936,24.32082522308245,0 92.07420394705784,24.32089995163527,0 92.07420407777563,24.32101319117001,0 92.07419824181332,24.32103798901234,0 92.07419766234693,24.32110376363534,0 92.07418520987127,24.32112509162093,0 92.07419248045684,24.32127603161048,0 92.07418630694275,24.32129502248466,0 92.07419924877144,24.32133884013933,0 92.07423118940706,24.32146209900047,0 92.07424519062801,24.32163155727099,0 92.0740783917869,24.32175827196772,0 92.07407374273308,24.32173433118804,0 92.07401026594073,24.3218013912764,0 92.07402268695748,24.32184800423597,0 92.07403056692955,24.32187008735412,0 92.0739864814785,24.32196638033944,0 92.07391418705329,24.32201856627069,0 92.07386577149792,24.322100050482,0 92.07389873685061,24.32212074218369,0 92.07374629962197,24.32214345915675,0 92.07367849217655,24.32220596800626,0 92.0736390664653,24.32214856139381,0 
					</coordinates>
				</LinearRing>
			</outerBoundaryIs>
		</Polygon>
		<atom:link rel="app" href="https://www.google.com/earth/about/versions/#earth-pro" title="Google Earth Pro 7.3.7.1155"></atom:link>
	</Placemark>
</Document>
</kml>
