<?xml version="1.0" encoding="UTF-8"?>
<kml xmlns="http://www.opengis.net/kml/2.2" xmlns:gx="http://www.google.com/kml/ext/2.2" xmlns:kml="http://www.opengis.net/kml/2.2" xmlns:atom="http://www.w3.org/2005/Atom">
<Document>
	<name>1778068991712.kml</name>
	<StyleMap id="msn_ylw-pushpin">
		<Pair>
			<key>normal</key>
			<styleUrl>#sn_ylw-pushpin</styleUrl>
		</Pair>
		<Pair>
			<key>highlight</key>
			<styleUrl>#sh_ylw-pushpin</styleUrl>
		</Pair>
	</StyleMap>
	<Style id="sh_ylw-pushpin">
		<IconStyle>
			<scale>1.3</scale>
			<Icon>
				<href>http://maps.google.com/mapfiles/kml/pushpin/ylw-pushpin.png</href>
			</Icon>
			<hotSpot x="20" y="2" xunits="pixels" yunits="pixels"/>
		</IconStyle>
		<BalloonStyle>
		</BalloonStyle>
		<PolyStyle>
			<fill>0</fill>
		</PolyStyle>
	</Style>
	<Style id="sn_ylw-pushpin">
		<IconStyle>
			<scale>1.1</scale>
			<Icon>
				<href>http://maps.google.com/mapfiles/kml/pushpin/ylw-pushpin.png</href>
			</Icon>
			<hotSpot x="20" y="2" xunits="pixels" yunits="pixels"/>
		</IconStyle>
		<BalloonStyle>
		</BalloonStyle>
		<PolyStyle>
			<fill>0</fill>
		</PolyStyle>
	</Style>
	<Placemark>
		<name>1778068991712</name>
		<styleUrl>#msn_ylw-pushpin</styleUrl>
		<Polygon>
			<tessellate>1</tessellate>
			<outerBoundaryIs>
				<LinearRing>
					<coordinates>
						91.64952978845044,22.99866325264216,0 91.64959544811738,22.99874762203396,0 91.64964962511922,22.99883693785248,0 91.64958564469427,22.99898758277022,0 91.64956159901914,22.99905283874563,0 91.64957460774691,22.99915145686062,0 91.64946957560713,22.99943306725821,0 91.64931208029094,22.99957420309046,0 91.64911141231811,22.99982627491219,0 91.64889468942043,22.99984037311689,0 91.64877118910043,22.99990088908149,0 91.64865787240424,22.99985721860457,0 91.64860991289132,22.99974328570995,0 91.6486769111519,22.99961079063937,0 91.64870453289591,22.99960102058422,0 91.64878108269325,22.99951579637227,0 91.6488338959706,22.99943098721482,0 91.64891147023229,22.99927977096365,0 91.64898425822444,22.99923869337819,0 91.64901387573477,22.9991395735549,0 91.649075607603,22.99903077532841,0 91.64917003740993,22.99893883650354,0 91.64919574341525,22.99888514957314,0 91.64925847290436,22.99880034134264,0 91.64926644662897,22.99873829982811,0 91.64937650447041,22.99865252828129,0 91.64941968740428,22.99861789335872,0 91.64952978845044,22.99866325264216,0 
					</coordinates>
				</LinearRing>
			</outerBoundaryIs>
		</Polygon>
		<atom:link rel="app" href="https://www.google.com/earth/about/versions/#earth-pro" title="Google Earth Pro 7.3.7.1155"></atom:link>
	</Placemark>
</Document>
</kml>
