<?xml version="1.0" encoding="UTF-8"?>
<kml xmlns="http://www.opengis.net/kml/2.2" xmlns:gx="http://www.google.com/kml/ext/2.2" xmlns:kml="http://www.opengis.net/kml/2.2" xmlns:atom="http://www.w3.org/2005/Atom">
<Document>
	<name>1778219545940.kml</name>
	<StyleMap id="msn_ylw-pushpin">
		<Pair>
			<key>normal</key>
			<styleUrl>#sn_ylw-pushpin</styleUrl>
		</Pair>
		<Pair>
			<key>highlight</key>
			<styleUrl>#sh_ylw-pushpin</styleUrl>
		</Pair>
	</StyleMap>
	<Style id="sh_ylw-pushpin">
		<IconStyle>
			<scale>1.3</scale>
			<Icon>
				<href>http://maps.google.com/mapfiles/kml/pushpin/ylw-pushpin.png</href>
			</Icon>
			<hotSpot x="20" y="2" xunits="pixels" yunits="pixels"/>
		</IconStyle>
		<BalloonStyle>
		</BalloonStyle>
		<PolyStyle>
			<fill>0</fill>
		</PolyStyle>
	</Style>
	<Style id="sn_ylw-pushpin">
		<IconStyle>
			<scale>1.1</scale>
			<Icon>
				<href>http://maps.google.com/mapfiles/kml/pushpin/ylw-pushpin.png</href>
			</Icon>
			<hotSpot x="20" y="2" xunits="pixels" yunits="pixels"/>
		</IconStyle>
		<BalloonStyle>
		</BalloonStyle>
		<PolyStyle>
			<fill>0</fill>
		</PolyStyle>
	</Style>
	<Placemark>
		<name>1778219545940</name>
		<visibility>0</visibility>
		<styleUrl>#msn_ylw-pushpin</styleUrl>
		<Polygon>
			<tessellate>1</tessellate>
			<outerBoundaryIs>
				<LinearRing>
					<coordinates>
						92.01594279235395,23.87454222222028,0 92.01579124674161,23.87456243469622,0 92.01570334301417,23.87453635377885,0 92.01571183319513,23.87446852925817,0 92.01565284307458,23.87445471069562,0 92.01565134507037,23.87439788339139,0 92.01570158690842,23.87437164043601,0 92.01573449467605,23.874378502734,0 92.01573645186966,23.87436647112239,0 92.01574663682909,23.87435021843747,0 92.01575364523391,23.87433016948631,0 92.01575810229886,23.87430244501778,0 92.015812581326,23.8742623377085,0 92.01584494197336,23.87418961469309,0 92.01589040582869,23.87403786980482,0 92.01596522832359,23.87401549860637,0 92.01603407302075,23.8740081670323,0 92.01610904843062,23.87393742378744,0 92.01615316575521,23.87388192380611,0 92.01608558203684,23.87381610019063,0 92.01604623144381,23.87374845328277,0 92.01609543790943,23.87361971686823,0 92.01614658441474,23.87349079574748,0 92.01619119125353,23.87329810722036,0 92.01623493117637,23.87315281601207,0 92.01631052287679,23.8730423722935,0 92.01633933700619,23.87296953086224,0 92.01638468400279,23.87294811365369,0 92.01639162763402,23.87294505835787,0 92.01642271722292,23.87293283622445,0 92.01643636352917,23.87292974127384,0 92.01646399590803,23.87291757993405,0 92.0164778084545,23.87291149650893,0 92.01648472340216,23.87290844717223,0 92.01649499484996,23.87290537010789,0 92.01651195679345,23.87290224996038,0 92.01652868905619,23.8729021418867,0 92.01654259614679,23.87289311036021,0 92.01655314190337,23.87288411347409,0 92.01657118984951,23.87286024635973,0 92.01658168830218,23.87285129687734,0 92.0165997114532,23.87282750101961,0 92.01661733765229,23.87280968701689,0 92.01663475103335,23.87279486506596,0 92.01673817386026,23.87276823898677,0 92.01680726475058,23.8728304070423,0 92.0168565593826,23.87283055579896,0 92.01693409831164,23.8728581295574,0 92.01702003400688,23.87284971668826,0 92.01716769115546,23.87287889513616,0 92.01725711768952,23.87290997908899,0 92.01736742858562,23.87289839008923,0 92.0174278287202,23.87295054174535,0 92.01745855902087,23.87301877759286,0 92.01749746148403,23.87318018004416,0 92.01758323589536,23.87317733677349,0 92.01763864051757,23.87334703797721,0 92.01769572359859,23.87339373813138,0 92.01775389235817,23.87346388631692,0 92.01762010449458,23.87365003545851,0 92.01762118902656,23.87370865991378,0 92.01761214604588,23.87381252244867,0 92.01767398781598,23.87398192869815,0 92.01761601654968,23.87403075157081,0 92.01756917809831,23.87410582593413,0 92.01751354609499,23.87409254808347,0 92.01740329855346,23.87425041006028,0 92.01735486852991,23.87432346290082,0 92.01720517082595,23.8743888074358,0 92.01708799347109,23.87446868814076,0 92.01702855196841,23.87445487719777,0 92.01682911538236,23.8745604728294,0 92.01669163566105,23.874581385167,0 92.01658669584512,23.87466596974858,0 92.01649891414586,23.87475626825307,0 92.01631744138943,23.87463037267212,0 92.01607837239939,23.87448362671234,0 92.01594279235395,23.87454222222028,0 
					</coordinates>
				</LinearRing>
			</outerBoundaryIs>
		</Polygon>
		<atom:link rel="app" href="https://www.google.com/earth/about/versions/#earth-pro" title="Google Earth Pro 7.3.7.1155"></atom:link>
	</Placemark>
</Document>
</kml>
