<?xml version="1.0" encoding="UTF-8"?>
<kml xmlns="http://www.opengis.net/kml/2.2" xmlns:gx="http://www.google.com/kml/ext/2.2" xmlns:kml="http://www.opengis.net/kml/2.2" xmlns:atom="http://www.w3.org/2005/Atom">
<Document>
	<name>1778170974074.kml</name>
	<StyleMap id="msn_ylw-pushpin">
		<Pair>
			<key>normal</key>
			<styleUrl>#sn_ylw-pushpin</styleUrl>
		</Pair>
		<Pair>
			<key>highlight</key>
			<styleUrl>#sh_ylw-pushpin</styleUrl>
		</Pair>
	</StyleMap>
	<Style id="sh_ylw-pushpin">
		<IconStyle>
			<scale>1.3</scale>
			<Icon>
				<href>http://maps.google.com/mapfiles/kml/pushpin/ylw-pushpin.png</href>
			</Icon>
			<hotSpot x="20" y="2" xunits="pixels" yunits="pixels"/>
		</IconStyle>
		<BalloonStyle>
		</BalloonStyle>
		<LineStyle>
			<color>ffff55ff</color>
			<width>4.3</width>
		</LineStyle>
		<PolyStyle>
			<color>4dffffff</color>
		</PolyStyle>
	</Style>
	<Style id="sn_ylw-pushpin">
		<IconStyle>
			<scale>1.1</scale>
			<Icon>
				<href>http://maps.google.com/mapfiles/kml/pushpin/ylw-pushpin.png</href>
			</Icon>
			<hotSpot x="20" y="2" xunits="pixels" yunits="pixels"/>
		</IconStyle>
		<BalloonStyle>
		</BalloonStyle>
		<LineStyle>
			<color>ffff55ff</color>
			<width>4.3</width>
		</LineStyle>
		<PolyStyle>
			<color>4dffffff</color>
		</PolyStyle>
	</Style>
	<Placemark>
		<name>1778170974074</name>
		<styleUrl>#msn_ylw-pushpin</styleUrl>
		<Polygon>
			<tessellate>1</tessellate>
			<outerBoundaryIs>
				<LinearRing>
					<coordinates>
						91.65877369687975,23.89319037103877,0 91.65858615760932,23.89310680454361,0 91.65828510548026,23.89282942796235,0 91.65789379282973,23.89256491528453,0 91.65752520676598,23.89240892518866,0 91.65725250704067,23.8921496509707,0 91.65680729340738,23.89206461672613,0 91.65674913954965,23.89182320344548,0 91.65682729460779,23.89154618496523,0 91.65717363617605,23.8914752848228,0 91.65750330028295,23.89140482419806,0 91.65786637871886,23.89135987618497,0 91.65801167685196,23.89131011796524,0 91.65803373455645,23.89131011749186,0 91.65831415445496,23.8913698719005,0 91.65864583458888,23.89141479952972,0 91.65888393302053,23.89153007802374,0 91.65898478732824,23.89151999704678,0 91.65926338782903,23.89137497892791,0 91.65953581235809,23.89130064685946,0 91.65975006012265,23.89143989145215,0 91.6598832508236,23.89139984862202,0 91.66005052712552,23.89118626553923,0 91.66007015811979,23.89087866052211,0 91.66030791732696,23.89061790185921,0 91.6606266240389,23.89067036061248,0 91.6609791135524,23.89073216126822,0 91.66140028849996,23.8905895254108,0 91.66195732370323,23.89033655060422,0 91.6622748583051,23.8903980207803,0 91.66245584371052,23.89051661397895,0 91.6627496863489,23.89051255119314,0 91.66294541703556,23.89032781883404,0 91.663119419335,23.89025181645164,0 91.66315872385488,23.89040778205164,0 91.66322526137238,23.89054044394928,0 91.66349434025148,23.89059205815684,0 91.66381183523802,23.89064914382823,0 91.66415270411659,23.89070743452998,0 91.66423266593863,23.89090587586484,0 91.66426315985565,23.89111494030174,0 91.66436847422244,23.89133075734197,0 91.66438634208211,23.89156823708234,0 91.66428735339694,23.89176820566585,0 91.66428201470018,23.89201022160463,0 91.66443966443069,23.89211580567689,0 91.66458971792832,23.89225868424878,0 91.6646786742908,23.89253833247025,0 91.66458550016462,23.89275276862343,0 91.66430066670037,23.89296514578763,0 91.66419720237886,23.89313704091078,0 91.66392371640531,23.8935622604582,0 91.6634903644354,23.89372708814533,0 91.66331493332025,23.8941399769121,0 91.66287952048725,23.89437154365924,0 91.66277468685963,23.89459088131359,0 91.66267659902155,23.8949395365966,0 91.66251250825721,23.89503169610608,0 91.66201289852414,23.89505836745941,0 91.66162651751188,23.89499811627844,0 91.66125420702288,23.89487000212785,0 91.66087174358628,23.89489589412763,0 91.66053113260514,23.89477360308608,0 91.66017009673774,23.89463309308735,0 91.66009391919978,23.89446943198301,0 91.65987051903342,23.89418867363588,0 91.65959308933324,23.89413076480105,0 91.65947252911808,23.89387997981569,0 91.65916199413842,23.89373846637172,0 91.65901769907528,23.8932275943419,0 91.65877369687975,23.89319037103877,0 
					</coordinates>
				</LinearRing>
			</outerBoundaryIs>
		</Polygon>
		<atom:link rel="app" href="https://www.google.com/earth/about/versions/#earth-pro" title="Google Earth Pro 7.3.7.1155"></atom:link>
	</Placemark>
</Document>
</kml>
