<?xml version="1.0" encoding="UTF-8"?>
<kml xmlns="http://www.opengis.net/kml/2.2" xmlns:gx="http://www.google.com/kml/ext/2.2" xmlns:kml="http://www.opengis.net/kml/2.2" xmlns:atom="http://www.w3.org/2005/Atom">
<Document>
	<name>1778224879837.kml</name>
	<StyleMap id="msn_ylw-pushpin">
		<Pair>
			<key>normal</key>
			<styleUrl>#sn_ylw-pushpin</styleUrl>
		</Pair>
		<Pair>
			<key>highlight</key>
			<styleUrl>#sh_ylw-pushpin</styleUrl>
		</Pair>
	</StyleMap>
	<Style id="sh_ylw-pushpin">
		<IconStyle>
			<scale>1.3</scale>
			<Icon>
				<href>http://maps.google.com/mapfiles/kml/pushpin/ylw-pushpin.png</href>
			</Icon>
			<hotSpot x="20" y="2" xunits="pixels" yunits="pixels"/>
		</IconStyle>
		<BalloonStyle>
		</BalloonStyle>
		<PolyStyle>
			<fill>0</fill>
		</PolyStyle>
	</Style>
	<Style id="sn_ylw-pushpin">
		<IconStyle>
			<scale>1.1</scale>
			<Icon>
				<href>http://maps.google.com/mapfiles/kml/pushpin/ylw-pushpin.png</href>
			</Icon>
			<hotSpot x="20" y="2" xunits="pixels" yunits="pixels"/>
		</IconStyle>
		<BalloonStyle>
		</BalloonStyle>
		<PolyStyle>
			<fill>0</fill>
		</PolyStyle>
	</Style>
	<Placemark>
		<name>1778224879837</name>
		<styleUrl>#msn_ylw-pushpin</styleUrl>
		<Polygon>
			<tessellate>1</tessellate>
			<outerBoundaryIs>
				<LinearRing>
					<coordinates>
						91.75809463950097,23.13933474400093,0 91.7576425750829,23.13912536607551,0 91.75764739363386,23.13898785945506,0 91.75775763431864,23.13882045905418,0 91.75781623688148,23.13866980098196,0 91.75782169358965,23.13866470228302,0 91.75781626971906,23.13865165407036,0 91.75780044368989,23.13863361226514,0 91.75779000535489,23.13861522703668,0 91.75778480358599,23.13859696831861,0 91.75777436139516,23.13858312553712,0 91.75775926081793,23.13855400051102,0 91.75774903087132,23.13854411807131,0 91.75774446876775,23.13851513606816,0 91.75772432009606,23.13848571342827,0 91.75772461447403,23.13847593611934,0 91.75770468434951,23.13844166419518,0 91.75769481316328,23.13842212479276,0 91.75768482557014,23.13840741707458,0 91.7577393329951,23.13816702862752,0 91.75775995805273,23.13816714201735,0 91.75778057716215,23.13816727500999,0 91.75780754745715,23.1381467328285,0 91.75782420005109,23.13813048486346,0 91.75783536885385,23.13811943332723,0 91.7578470743637,23.13809814635328,0 91.75786906585816,23.13807236372567,0 91.75788073527967,23.13805543362083,0 91.75789916503747,23.13802525130532,0 91.75790601376653,23.13800744689782,0 91.75792304768801,23.13798951936446,0 91.7579449885383,23.13797185357077,0 91.75796172726631,23.13795441212417,0 91.7579483799433,23.13793222524777,0 91.7579563160179,23.13789845014218,0 91.75796275463594,23.13788167893695,0 91.75797068525773,23.13784379756625,0 91.75798422901781,23.13779581386674,0 91.75799607415803,23.13776937865305,0 91.75800354873618,23.13773304809125,0 91.75800949202917,23.13771349027867,0 91.75802548113401,23.13768487522973,0 91.758031280834,23.13766570080457,0 91.75803682215637,23.13765140125646,0 91.75817516588133,23.13750385595299,0 91.75846417521819,23.13757401721926,0 91.7585974628628,23.13773029875388,0 91.75873806183701,23.1377832837663,0 91.7588492530877,23.13777934113237,0 91.75894080998565,23.13782692048044,0 91.75934991917525,23.13799077538379,0 91.76037165865603,23.13810175846104,0 91.76039431267198,23.13842177427752,0 91.76061507979271,23.13855623876848,0 91.76070786640815,23.13869770844377,0 91.76069997005737,23.13890610433899,0 91.76062467386294,23.13907565073519,0 91.76047973262372,23.13921578411597,0 91.76047611427123,23.13937217104015,0 91.76024413681627,23.13945594129311,0 91.76009104162178,23.1394458117197,0 91.75969404881783,23.13952228856818,0 91.75933707309144,23.13970697148011,0 91.759165226373,23.13964205739155,0 91.75897803510256,23.13968446781901,0 91.75832005218156,23.13967811074787,0 91.75809463950097,23.13933474400093,0 
					</coordinates>
				</LinearRing>
			</outerBoundaryIs>
		</Polygon>
		<atom:link rel="app" href="https://www.google.com/earth/about/versions/#earth-pro" title="Google Earth Pro 7.3.7.1155"></atom:link>
	</Placemark>
</Document>
</kml>
