<?xml version="1.0" encoding="UTF-8"?>
<kml xmlns="http://www.opengis.net/kml/2.2" xmlns:gx="http://www.google.com/kml/ext/2.2" xmlns:kml="http://www.opengis.net/kml/2.2" xmlns:atom="http://www.w3.org/2005/Atom">
<Document>
	<name>Track_AR BEMBOO Plant. over 10.0 ha at Sephali JFMC under Harincherra Beat-14_34_53.kml</name>
	<StyleMap id="msn_ylw-pushpin">
		<Pair>
			<key>normal</key>
			<styleUrl>#sn_ylw-pushpin</styleUrl>
		</Pair>
		<Pair>
			<key>highlight</key>
			<styleUrl>#sh_ylw-pushpin</styleUrl>
		</Pair>
	</StyleMap>
	<Style id="sh_ylw-pushpin">
		<IconStyle>
			<scale>1.3</scale>
			<Icon>
				<href>http://maps.google.com/mapfiles/kml/pushpin/ylw-pushpin.png</href>
			</Icon>
			<hotSpot x="20" y="2" xunits="pixels" yunits="pixels"/>
		</IconStyle>
		<BalloonStyle>
		</BalloonStyle>
		<PolyStyle>
			<fill>0</fill>
		</PolyStyle>
	</Style>
	<Style id="sn_ylw-pushpin">
		<IconStyle>
			<scale>1.1</scale>
			<Icon>
				<href>http://maps.google.com/mapfiles/kml/pushpin/ylw-pushpin.png</href>
			</Icon>
			<hotSpot x="20" y="2" xunits="pixels" yunits="pixels"/>
		</IconStyle>
		<BalloonStyle>
		</BalloonStyle>
		<PolyStyle>
			<fill>0</fill>
		</PolyStyle>
	</Style>
	<Placemark>
		<name>Track_AR BEMBOO Plant. over 10.0 ha at Sephali JFMC under Harincherra Beat-14_34_53</name>
		<styleUrl>#msn_ylw-pushpin</styleUrl>
		<Polygon>
			<tessellate>1</tessellate>
			<outerBoundaryIs>
				<LinearRing>
					<coordinates>
						91.90250372783352,23.87336351601,0 91.90260099069999,23.87315880279539,0 91.90270894626761,23.87293626191076,0 91.90274938675688,23.87276873763493,0 91.90277590085964,23.87264773787144,0 91.90286800672833,23.87243505917878,0 91.90295907945129,23.87231317395411,0 91.90300846280317,23.87228460455967,0 91.9032477986233,23.87212741464088,0 91.90335708725112,23.87214948473332,0 91.90345884274524,23.87216144519368,0 91.90356580127495,23.87211195539147,0 91.90371492188393,23.87210967473744,0 91.90379741681095,23.87218612979134,0 91.90387609342996,23.87225870947487,0 91.90393425123669,23.8723568101157,0 91.90397824516063,23.87244509602561,0 91.90397666767201,23.87263467044184,0 91.90403709372485,23.87281930142871,0 91.90409943850759,23.87284282277855,0 91.90412949229993,23.87298648817383,0 91.90415112123178,23.87300582659131,0 91.90422571438623,23.87300517602338,0 91.90422467732874,23.87308848531979,0 91.90417586832898,23.8731634376958,0 91.90425229685881,23.87341707578986,0 91.90438527133939,23.8737103874092,0 91.90436708780112,23.87374437057333,0 91.90435598922809,23.87376152978353,0 91.90433715761975,23.87378324499462,0 91.90432959827859,23.87379196202244,0 91.90431823062465,23.87380507066738,0 91.90429920997691,23.87382703676463,0 91.90429170965959,23.8738402767445,0 91.90429621800502,23.87385801437291,0 91.90431343620016,23.87389855189632,0 91.90432984090363,23.8739119925628,0 91.90434561426001,23.87390722456095,0 91.90435028630245,23.87392540409348,0 91.90435081342063,23.87393921163136,0 91.90434768787442,23.87396239625288,0 91.90434035194588,23.87398108963966,0 91.90433280563705,23.87399508796974,0 91.9043252344357,23.87400913276038,0 91.90319862065463,23.87741333851021,0 91.90236151488226,23.87706167563842,0 91.90209853930918,23.87655859239153,0 91.9017913951723,23.87644837851935,0 91.90177684555283,23.87635399283155,0 91.90187420206205,23.87620938831977,0 91.90190671669092,23.8760804055159,0 91.90189053402067,23.87586487237855,0 91.90197627712544,23.87577046641243,0 91.90194516546823,23.87555235896811,0 91.90189903344647,23.87531679603196,0 91.90183081933172,23.87514431861996,0 91.90189639994925,23.87478717801773,0 91.90181728084147,23.8743878916421,0 91.90178663775259,23.87411044165826,0 91.90184602407373,23.87390704591056,0 91.90202028594388,23.87369943016805,0 91.90218343559127,23.87367871484777,0 91.90238751042466,23.87352294114092,0 91.90250372783352,23.87336351601,0 
					</coordinates>
				</LinearRing>
			</outerBoundaryIs>
		</Polygon>
		<atom:link rel="app" href="https://www.google.com/earth/about/versions/#earth-pro" title="Google Earth Pro 7.3.7.1155"></atom:link>
	</Placemark>
</Document>
</kml>
