<?xml version="1.0" encoding="UTF-8"?>
<kml xmlns="http://www.opengis.net/kml/2.2" xmlns:gx="http://www.google.com/kml/ext/2.2" xmlns:kml="http://www.opengis.net/kml/2.2" xmlns:atom="http://www.w3.org/2005/Atom">
<Document>
	<name>1778223808102.kml</name>
	<StyleMap id="msn_ylw-pushpin">
		<Pair>
			<key>normal</key>
			<styleUrl>#sn_ylw-pushpin</styleUrl>
		</Pair>
		<Pair>
			<key>highlight</key>
			<styleUrl>#sh_ylw-pushpin</styleUrl>
		</Pair>
	</StyleMap>
	<Style id="sh_ylw-pushpin">
		<IconStyle>
			<scale>1.3</scale>
			<Icon>
				<href>http://maps.google.com/mapfiles/kml/pushpin/ylw-pushpin.png</href>
			</Icon>
			<hotSpot x="20" y="2" xunits="pixels" yunits="pixels"/>
		</IconStyle>
		<BalloonStyle>
		</BalloonStyle>
		<PolyStyle>
			<fill>0</fill>
		</PolyStyle>
	</Style>
	<Style id="sn_ylw-pushpin">
		<IconStyle>
			<scale>1.1</scale>
			<Icon>
				<href>http://maps.google.com/mapfiles/kml/pushpin/ylw-pushpin.png</href>
			</Icon>
			<hotSpot x="20" y="2" xunits="pixels" yunits="pixels"/>
		</IconStyle>
		<BalloonStyle>
		</BalloonStyle>
		<PolyStyle>
			<fill>0</fill>
		</PolyStyle>
	</Style>
	<Placemark>
		<name>1778223808102</name>
		<styleUrl>#msn_ylw-pushpin</styleUrl>
		<Polygon>
			<tessellate>1</tessellate>
			<outerBoundaryIs>
				<LinearRing>
					<coordinates>
						91.74859367304835,23.21614042307419,0 91.74873037882932,23.21586274907211,0 91.74876611347452,23.21559485784765,0 91.74898899968153,23.21535588460345,0 91.74901231253286,23.21516210071815,0 91.74915112169934,23.21506122107984,0 91.74916677137601,23.21494831103035,0 91.74917627932409,23.21494901053541,0 91.74918064370151,23.21492820210926,0 91.74918479906704,23.21491093504542,0 91.74919208805461,23.2148939359131,0 91.74919934002291,23.21487702338587,0 91.74921024050643,23.2148501009886,0 91.74921739866031,23.21483341093696,0 91.74922832615617,23.21480346285066,0 91.74923576486617,23.21478008125957,0 91.74924609206499,23.21476031237702,0 91.74926054379776,23.2147175676183,0 91.74926085524855,23.21471096280538,0 91.74962139745432,23.21471459903183,0 91.749728346026,23.21472970479105,0 91.750054904883,23.21474058774158,0 91.75011690996594,23.21481568359067,0 91.75011016629216,23.21505172013109,0 91.75000755318467,23.21513637026539,0 91.74996904614912,23.21522701726663,0 91.74997529521997,23.21537426006585,0 91.74995979290722,23.21558898749082,0 91.75001333027636,23.21573256164516,0 91.75001926483,23.21586768351859,0 91.74989934251933,23.21610168611058,0 91.74987957859011,23.21632409958525,0 91.74955181575535,23.21640368346647,0 91.74933451751127,23.21646599171397,0 91.74856596781407,23.2162277456027,0 91.74859367304835,23.21614042307419,0 
					</coordinates>
				</LinearRing>
			</outerBoundaryIs>
		</Polygon>
		<atom:link rel="app" href="https://www.google.com/earth/about/versions/#earth-pro" title="Google Earth Pro 7.3.7.1155"></atom:link>
	</Placemark>
</Document>
</kml>
