<?xml version="1.0" encoding="UTF-8"?>
<kml xmlns="http://www.opengis.net/kml/2.2" xmlns:gx="http://www.google.com/kml/ext/2.2" xmlns:kml="http://www.opengis.net/kml/2.2" xmlns:atom="http://www.w3.org/2005/Atom">
<Document>
	<name>1778144159157.kml</name>
	<StyleMap id="msn_ylw-pushpin">
		<Pair>
			<key>normal</key>
			<styleUrl>#sn_ylw-pushpin</styleUrl>
		</Pair>
		<Pair>
			<key>highlight</key>
			<styleUrl>#sh_ylw-pushpin</styleUrl>
		</Pair>
	</StyleMap>
	<Style id="sh_ylw-pushpin">
		<IconStyle>
			<scale>1.3</scale>
			<Icon>
				<href>http://maps.google.com/mapfiles/kml/pushpin/ylw-pushpin.png</href>
			</Icon>
			<hotSpot x="20" y="2" xunits="pixels" yunits="pixels"/>
		</IconStyle>
		<BalloonStyle>
		</BalloonStyle>
		<PolyStyle>
			<fill>0</fill>
		</PolyStyle>
	</Style>
	<Style id="sn_ylw-pushpin">
		<IconStyle>
			<scale>1.1</scale>
			<Icon>
				<href>http://maps.google.com/mapfiles/kml/pushpin/ylw-pushpin.png</href>
			</Icon>
			<hotSpot x="20" y="2" xunits="pixels" yunits="pixels"/>
		</IconStyle>
		<BalloonStyle>
		</BalloonStyle>
		<PolyStyle>
			<fill>0</fill>
		</PolyStyle>
	</Style>
	<Placemark>
		<name>1778144159157</name>
		<styleUrl>#msn_ylw-pushpin</styleUrl>
		<Polygon>
			<tessellate>1</tessellate>
			<outerBoundaryIs>
				<LinearRing>
					<coordinates>
						91.59241833785336,23.50002730854322,0 91.59273592065134,23.5004320356654,0 91.59303974987432,23.50053315695746,0 91.59345503256895,23.50075842432812,0 91.59385438065731,23.50101072057004,0 91.5942207719403,23.50107831836952,0 91.59449006323965,23.50147401606266,0 91.59429551932818,23.50189547277173,0 91.59396185073706,23.50212154868372,0 91.59358812008399,23.502103421895,0 91.59332977177921,23.50197122595648,0 91.59308556278626,23.50218884009723,0 91.59303109832668,23.50241596186911,0 91.59291232981917,23.50279335631317,0 91.59251224177672,23.50295222419956,0 91.59208974963512,23.50304870528091,0 91.59156064872563,23.50340358177784,0 91.59155111676802,23.50342105090679,0 91.59153205371904,23.50345598918748,0 91.59152254505678,23.5034910253853,0 91.59150350109844,23.50354353335842,0 91.59149396958631,23.50358722936284,0 91.59148441937417,23.50361334556085,0 91.59147487585842,23.50365696201026,0 91.59145579938283,23.50368306034666,0 91.59143669968893,23.50371768821818,0 91.59142714910851,23.50375242870959,0 91.59139853080526,23.50378690092505,0 91.59137944211072,23.50381252245079,0 91.59136034901738,23.50385525317684,0 91.59135081023553,23.50388093245979,0 91.59134128029369,23.50391535101448,0 91.59133175135618,23.50394963129611,0 91.59131272628058,23.50398362110779,0 91.59130321819842,23.50401783933782,0 91.59130321219691,23.50405233785407,0 91.59129371723161,23.50410415661791,0 91.59129371558748,23.50413883968115,0 91.59128422637875,23.50418197213098,0 91.59128422634693,23.50421669697639,0 91.59127474295035,23.50425183005261,0 91.59124628575299,23.50428663030706,0 91.59120835427139,23.50431238767255,0 91.59118938409992,23.50433853253744,0 91.59116089825584,23.50437390137841,0 91.59114188102149,23.50440933898347,0 91.59110389900647,23.50444439337851,0 91.59109437164757,23.50447090982447,0 91.59106589502547,23.50447957826721,0 91.59105647608392,23.50444407496105,0 91.59102812508773,23.50439962159399,0 91.59101872740706,23.50437286822058,0 91.59099990945634,23.50433708564297,0 91.5909716853769,23.50429238305717,0 91.59094350471814,23.50424771964567,0 91.59090586993909,23.50420329581327,0 91.59088702099156,23.50417698215951,0 91.59085874054534,23.50415060992965,0 91.59083998753771,23.50408934139982,0 91.59082119737596,23.50407161411079,0 91.59078361622841,23.50402761635772,0 91.59076481509184,23.50398405467164,0 91.59038946804776,23.50386778034962,0 91.59022811506063,23.50371380459924,0 91.58999057867966,23.50350773888037,0 91.58989363331864,23.503049854539,0 91.58980582871997,23.50279885634475,0 91.59241833785336,23.50002730854322,0 
					</coordinates>
				</LinearRing>
			</outerBoundaryIs>
		</Polygon>
		<atom:link rel="app" href="https://www.google.com/earth/about/versions/#earth-pro" title="Google Earth Pro 7.3.7.1155"></atom:link>
	</Placemark>
</Document>
</kml>
