<?xml version="1.0" encoding="UTF-8"?>
<kml xmlns="http://www.opengis.net/kml/2.2" xmlns:gx="http://www.google.com/kml/ext/2.2" xmlns:kml="http://www.opengis.net/kml/2.2" xmlns:atom="http://www.w3.org/2005/Atom">
<Document>
	<name>1778155290331.kml</name>
	<StyleMap id="msn_ylw-pushpin">
		<Pair>
			<key>normal</key>
			<styleUrl>#sn_ylw-pushpin</styleUrl>
		</Pair>
		<Pair>
			<key>highlight</key>
			<styleUrl>#sh_ylw-pushpin</styleUrl>
		</Pair>
	</StyleMap>
	<Style id="sh_ylw-pushpin">
		<IconStyle>
			<scale>1.3</scale>
			<Icon>
				<href>http://maps.google.com/mapfiles/kml/pushpin/ylw-pushpin.png</href>
			</Icon>
			<hotSpot x="20" y="2" xunits="pixels" yunits="pixels"/>
		</IconStyle>
		<BalloonStyle>
		</BalloonStyle>
		<PolyStyle>
			<fill>0</fill>
		</PolyStyle>
	</Style>
	<Style id="sn_ylw-pushpin">
		<IconStyle>
			<scale>1.1</scale>
			<Icon>
				<href>http://maps.google.com/mapfiles/kml/pushpin/ylw-pushpin.png</href>
			</Icon>
			<hotSpot x="20" y="2" xunits="pixels" yunits="pixels"/>
		</IconStyle>
		<BalloonStyle>
		</BalloonStyle>
		<PolyStyle>
			<fill>0</fill>
		</PolyStyle>
	</Style>
	<Placemark>
		<name>1778155290331</name>
		<styleUrl>#msn_ylw-pushpin</styleUrl>
		<Polygon>
			<tessellate>1</tessellate>
			<outerBoundaryIs>
				<LinearRing>
					<coordinates>
						91.75616182245538,23.18669414263609,0 91.75586975828058,23.18659321444515,0 91.75552274672769,23.18624652039369,0 91.75563202225912,23.18600377964364,0 91.75561532339006,23.18579909587551,0 91.75548318461007,23.18545811712934,0 91.75557911513444,23.18503025363128,0 91.75567047730279,23.18491468846188,0 91.7558309621147,23.18460486270293,0 91.75598656262734,23.18416861653076,0 91.75639275871866,23.18402426403979,0 91.7567894003231,23.18402102024269,0 91.75731507082199,23.18381147487618,0 91.75756013048903,23.18380629988026,0 91.75844138306945,23.18376921576579,0 91.7591418275173,23.18427379001539,0 91.75905875130492,23.184467457167,0 91.75911629209125,23.18461626454177,0 91.75886857759505,23.18513705882479,0 91.75889565771196,23.18519917161154,0 91.75883357158648,23.18554648361972,0 91.75875198232814,23.1856802450518,0 91.7587460028802,23.18599799654291,0 91.75859330801433,23.18632304160623,0 91.75814182500147,23.18653733651215,0 91.75805723495199,23.18660288560946,0 91.75792506218582,23.18671464545261,0 91.75768286477404,23.18701257412916,0 91.75698881882549,23.18694215302881,0 91.7566984394352,23.18695427613442,0 91.75648774582372,23.18697536967347,0 91.75616182245538,23.18669414263609,0 
					</coordinates>
				</LinearRing>
			</outerBoundaryIs>
		</Polygon>
		<atom:link rel="app" href="https://www.google.com/earth/about/versions/#earth-pro" title="Google Earth Pro 7.3.7.1155"></atom:link>
	</Placemark>
</Document>
</kml>
