<?xml version="1.0" encoding="UTF-8"?>
<kml xmlns="http://www.opengis.net/kml/2.2" xmlns:gx="http://www.google.com/kml/ext/2.2" xmlns:kml="http://www.opengis.net/kml/2.2" xmlns:atom="http://www.w3.org/2005/Atom">
<Document>
	<name>1Pre-Survey Map of AR Bamboo plantation (ELEMENT Project) over 5.0 ha at  Tulakona Beat under Champakpaknagar Range during the fi.kml</name>
	<StyleMap id="m_ylw-pushpin">
		<Pair>
			<key>normal</key>
			<styleUrl>#s_ylw-pushpin</styleUrl>
		</Pair>
		<Pair>
			<key>highlight</key>
			<styleUrl>#s_ylw-pushpin_hl</styleUrl>
		</Pair>
	</StyleMap>
	<Style id="s_ylw-pushpin">
		<IconStyle>
			<scale>1.1</scale>
			<Icon>
				<href>http://maps.google.com/mapfiles/kml/pushpin/ylw-pushpin.png</href>
			</Icon>
			<hotSpot x="20" y="2" xunits="pixels" yunits="pixels"/>
		</IconStyle>
		<PolyStyle>
			<fill>0</fill>
		</PolyStyle>
	</Style>
	<Style id="s_ylw-pushpin_hl">
		<IconStyle>
			<scale>1.3</scale>
			<Icon>
				<href>http://maps.google.com/mapfiles/kml/pushpin/ylw-pushpin.png</href>
			</Icon>
			<hotSpot x="20" y="2" xunits="pixels" yunits="pixels"/>
		</IconStyle>
		<PolyStyle>
			<fill>0</fill>
		</PolyStyle>
	</Style>
	<Placemark>
		<name>Pre-Survey Map of AR Bamboo plantation (ELEMENT Project) over 5.0 ha at  Tulakona Beat under Champakpaknagar Range during the financial Year 2026-27.-15_29_19.kml</name>
		<styleUrl>#m_ylw-pushpin</styleUrl>
		<Polygon>
			<tessellate>1</tessellate>
			<outerBoundaryIs>
				<LinearRing>
					<coordinates>
						91.35527874581372,23.79795500080701,0 91.35527369061849,23.79795505864867,0 91.3549185183754,23.79869940607037,0 91.35527929759098,23.79793813309092,0 91.35498961959851,23.79686828379607,0 91.35501002700067,23.79688025312064,0 91.35503377225452,23.79683574788084,0 91.35513647543607,23.79661525396527,0 91.35526059534087,23.79638535141604,0 91.35531145161394,23.7963192055817,0 91.35553446027581,23.796267212105,0 91.35566629686757,23.79623568028701,0 91.35600449301785,23.79614210332028,0 91.3561539269235,23.79610070882488,0 91.35632036443579,23.79607526739544,0 91.35637189035572,23.79615193850421,0 91.3564645870044,23.79631464941131,0 91.35650256921474,23.79640514153998,0 91.35656935343928,23.79650740458514,0 91.35664154209466,23.7966263454428,0 91.35669553114772,23.79673753662103,0 91.35675554234678,23.79685329462483,0 91.35680213660611,23.79694737375496,0 91.3568615165693,23.79704102646473,0 91.35686280186864,23.79712333580629,0 91.35687587616584,23.79727186079447,0 91.35690037485776,23.79741556657256,0 91.35690640341377,23.79761591426414,0 91.35689135590222,23.79768340033675,0 91.35690638003736,23.7977552061687,0 91.35692458390153,23.79786189648514,0 91.35689243246753,23.79794353081736,0 91.356856058114,23.79805256904899,0 91.3568275272907,23.79815449252355,0 91.35679859111728,23.79821956339198,0 91.35676862878535,23.79832107293888,0 91.35673775783819,23.79843544001416,0 91.35668631290811,23.79857815728352,0 91.35662031665781,23.79873675925089,0 91.35661018767181,23.79877799784728,0 91.35660381077714,23.79881025963402,0 91.35659277518003,23.79881973332705,0 91.35657757918457,23.79883625987835,0 91.35656366315277,23.79884124080655,0 91.3565371472389,23.79886740096165,0 91.35651430129393,23.79888410487026,0 91.35647697624938,23.79890351916887,0 91.3564660459333,23.79892005939532,0 91.3564337869889,23.79895511507837,0 91.35641006976384,23.7989759301291,0 91.35637104281432,23.79899435703818,0 91.35632984890916,23.79902421565773,0 91.35628524154416,23.79904655964713,0 91.35625046800874,23.79906871306071,0 91.35621343279905,23.79910003372765,0 91.35620100265398,23.79910891743655,0 91.35617365759276,23.79912894081811,0 91.35611623568192,23.7991600523174,0 91.3560838421571,23.79918457482535,0 91.35600813613442,23.79921425603258,0 91.35599149773448,23.79924310460336,0 91.35597173979959,23.79925956002412,0 91.35594173823483,23.79927567268005,0 91.35589737761745,23.79931255240844,0 91.35587501800782,23.79932748090414,0 91.3558271157991,23.79934192841368,0 91.35575194526757,23.79937738466914,0 91.3558086124474,23.79940270181114,0 91.35575267758654,23.7994093346521,0 91.35567344501037,23.79940208664463,0 91.35563508711454,23.79940375549278,0 91.35548296624395,23.79943684042208,0 91.35541772766582,23.79944634225997,0 91.35532847589472,23.79945424310306,0 91.35528371866104,23.79945416047921,0 91.35525729350083,23.79945560845251,0 91.35520955293141,23.79946292599106,0 91.35510280002198,23.79948057821975,0 91.35501176375718,23.79949853577632,0 91.35492021015818,23.79952114807709,0 91.35488053890563,23.79951881897733,0 91.3548169850658,23.79951663633213,0 91.35477993426338,23.79951435963707,0 91.35469292739866,23.79954364811412,0 91.35459787139503,23.79956095697457,0 91.3545333510673,23.799566615804,0 91.35449711300876,23.79955593093629,0 91.35445362215856,23.79956187283368,0 91.35441323017176,23.79956252729878,0 91.354375708392,23.79956976027117,0 91.35430512307329,23.79958988024046,0 91.35424254358246,23.79960524817563,0 91.35421366678898,23.79959512685424,0 91.35527874581372,23.79795500080701,0 
					</coordinates>
				</LinearRing>
			</outerBoundaryIs>
		</Polygon>
		<atom:link rel="app" href="https://www.google.com/earth/about/versions/#earth-pro" title="Google Earth Pro 7.3.7.1155"></atom:link>
	</Placemark>
</Document>
</kml>
