<?xml version="1.0" encoding="UTF-8"?>
<kml xmlns="http://www.opengis.net/kml/2.2" xmlns:gx="http://www.google.com/kml/ext/2.2" xmlns:kml="http://www.opengis.net/kml/2.2" xmlns:atom="http://www.w3.org/2005/Atom">
<Document>
	<name>1778493899358.kml</name>
	<StyleMap id="msn_ylw-pushpin">
		<Pair>
			<key>normal</key>
			<styleUrl>#sn_ylw-pushpin</styleUrl>
		</Pair>
		<Pair>
			<key>highlight</key>
			<styleUrl>#sh_ylw-pushpin</styleUrl>
		</Pair>
	</StyleMap>
	<Style id="sh_ylw-pushpin">
		<IconStyle>
			<scale>1.3</scale>
			<Icon>
				<href>http://maps.google.com/mapfiles/kml/pushpin/ylw-pushpin.png</href>
			</Icon>
			<hotSpot x="20" y="2" xunits="pixels" yunits="pixels"/>
		</IconStyle>
		<BalloonStyle>
		</BalloonStyle>
		<PolyStyle>
			<fill>0</fill>
		</PolyStyle>
	</Style>
	<Style id="sn_ylw-pushpin">
		<IconStyle>
			<scale>1.1</scale>
			<Icon>
				<href>http://maps.google.com/mapfiles/kml/pushpin/ylw-pushpin.png</href>
			</Icon>
			<hotSpot x="20" y="2" xunits="pixels" yunits="pixels"/>
		</IconStyle>
		<BalloonStyle>
		</BalloonStyle>
		<PolyStyle>
			<fill>0</fill>
		</PolyStyle>
	</Style>
	<Placemark>
		<name>1778493899358</name>
		<visibility>0</visibility>
		<styleUrl>#msn_ylw-pushpin</styleUrl>
		<Polygon>
			<tessellate>1</tessellate>
			<outerBoundaryIs>
				<LinearRing>
					<coordinates>
						91.8836039963536,23.75686252531812,0 91.88360495415144,23.75580646477036,0 91.88373485405651,23.75520556777976,0 91.88407644092122,23.75456556642383,0 91.88435373450868,23.75428988609841,0 91.88475272134313,23.75376946416701,0 91.88595349565507,23.75327773381405,0 91.88675053985536,23.75257636678025,0 91.88738363531516,23.75247411497763,0 91.88777525875948,23.75226268662654,0 91.88848925885877,23.75224791112248,0 91.88905769002099,23.75243843618398,0 91.88887805973414,23.75322804021616,0 91.89000238216597,23.75420140792835,0 91.89132183858038,23.75656410136898,0 91.89163067245514,23.75711433701846,0 91.89186092926292,23.75762215875025,0 91.89220382774805,23.75845232774068,0 91.89201351454936,23.75841100109917,0 91.89162869462427,23.7579216864171,0 91.89146959345064,23.7579081691993,0 91.89120702209314,23.75827707411847,0 91.88998864819146,23.75794345230488,0 91.88942259976133,23.75689697329193,0 91.88848811632997,23.75648916442234,0 91.88819191345343,23.75615843279011,0 91.88800100782052,23.75604848811705,0 91.88747565670248,23.75590939262378,0 91.88691283352394,23.7567035491512,0 91.88665838068478,23.75715896317093,0 91.88583391448098,23.75728555394907,0 91.8852095796731,23.75739838423141,0 91.88498128147155,23.75738533052804,0 91.88447343878022,23.75740406344041,0 91.88390856822261,23.75736534757382,0 91.8836039963536,23.75686252531812,0 
					</coordinates>
				</LinearRing>
			</outerBoundaryIs>
		</Polygon>
		<atom:link rel="app" href="https://www.google.com/earth/about/versions/#earth-pro" title="Google Earth Pro 7.3.7.1155"></atom:link>
	</Placemark>
</Document>
</kml>
