<?xml version="1.0" encoding="UTF-8"?>
<kml xmlns="http://www.opengis.net/kml/2.2" xmlns:gx="http://www.google.com/kml/ext/2.2" xmlns:kml="http://www.opengis.net/kml/2.2" xmlns:atom="http://www.w3.org/2005/Atom">
<Document>
	<name>1778155928949.kml</name>
	<StyleMap id="msn_ylw-pushpin">
		<Pair>
			<key>normal</key>
			<styleUrl>#sn_ylw-pushpin</styleUrl>
		</Pair>
		<Pair>
			<key>highlight</key>
			<styleUrl>#sh_ylw-pushpin</styleUrl>
		</Pair>
	</StyleMap>
	<Style id="sh_ylw-pushpin">
		<IconStyle>
			<scale>1.3</scale>
			<Icon>
				<href>http://maps.google.com/mapfiles/kml/pushpin/ylw-pushpin.png</href>
			</Icon>
			<hotSpot x="20" y="2" xunits="pixels" yunits="pixels"/>
		</IconStyle>
		<BalloonStyle>
		</BalloonStyle>
		<PolyStyle>
			<fill>0</fill>
		</PolyStyle>
	</Style>
	<Style id="sn_ylw-pushpin">
		<IconStyle>
			<scale>1.1</scale>
			<Icon>
				<href>http://maps.google.com/mapfiles/kml/pushpin/ylw-pushpin.png</href>
			</Icon>
			<hotSpot x="20" y="2" xunits="pixels" yunits="pixels"/>
		</IconStyle>
		<BalloonStyle>
		</BalloonStyle>
		<PolyStyle>
			<fill>0</fill>
		</PolyStyle>
	</Style>
	<Placemark>
		<name>1778155928949</name>
		<styleUrl>#msn_ylw-pushpin</styleUrl>
		<Polygon>
			<tessellate>1</tessellate>
			<outerBoundaryIs>
				<LinearRing>
					<coordinates>
						91.79816967106946,23.11375428817293,0 91.79797502260419,23.11352172945676,0 91.79795280444972,23.1133231486882,0 91.79775130712494,23.11304330375791,0 91.79780152768909,23.11286956866803,0 91.79765349687116,23.11255202226528,0 91.79762039201134,23.11212576520195,0 91.79786750947707,23.11178813706948,0 91.79789687280369,23.11148078552058,0 91.79813048569559,23.11153431963762,0 91.79830301557155,23.11152791137126,0 91.79853913520579,23.111628101477,0 91.79878627769506,23.11158752552278,0 91.79910924581318,23.11170725715416,0 91.79943730839921,23.11180320274274,0 91.79965894648869,23.11183022816391,0 91.79978423816029,23.11202531993085,0 91.79994785584741,23.11242181076139,0 91.79993598242601,23.11264478031694,0 91.79996007971368,23.1127952954912,0 91.80005131566116,23.11307754830755,0 91.79996400183843,23.11344886382295,0 91.79977443519077,23.11370915202744,0 91.79934591824417,23.11393463567532,0 91.79886871471498,23.11406322877146,0 91.79855452574488,23.11403177474805,0 91.79840813323388,23.11389021686078,0 91.79816967106946,23.11375428817293,0 
					</coordinates>
				</LinearRing>
			</outerBoundaryIs>
		</Polygon>
		<atom:link rel="app" href="https://www.google.com/earth/about/versions/#earth-pro" title="Google Earth Pro 7.3.7.1155"></atom:link>
	</Placemark>
</Document>
</kml>
