<?xml version="1.0" encoding="UTF-8"?>
<kml xmlns="http://www.opengis.net/kml/2.2" xmlns:gx="http://www.google.com/kml/ext/2.2" xmlns:kml="http://www.opengis.net/kml/2.2" xmlns:atom="http://www.w3.org/2005/Atom">
<Document>
	<name>1778236573956.kml</name>
	<StyleMap id="msn_ylw-pushpin">
		<Pair>
			<key>normal</key>
			<styleUrl>#sn_ylw-pushpin</styleUrl>
		</Pair>
		<Pair>
			<key>highlight</key>
			<styleUrl>#sh_ylw-pushpin</styleUrl>
		</Pair>
	</StyleMap>
	<Style id="sh_ylw-pushpin">
		<IconStyle>
			<scale>1.3</scale>
			<Icon>
				<href>http://maps.google.com/mapfiles/kml/pushpin/ylw-pushpin.png</href>
			</Icon>
			<hotSpot x="20" y="2" xunits="pixels" yunits="pixels"/>
		</IconStyle>
		<BalloonStyle>
		</BalloonStyle>
		<LineStyle>
			<width>2.5</width>
		</LineStyle>
		<PolyStyle>
			<fill>0</fill>
		</PolyStyle>
	</Style>
	<Style id="sn_ylw-pushpin">
		<IconStyle>
			<scale>1.1</scale>
			<Icon>
				<href>http://maps.google.com/mapfiles/kml/pushpin/ylw-pushpin.png</href>
			</Icon>
			<hotSpot x="20" y="2" xunits="pixels" yunits="pixels"/>
		</IconStyle>
		<BalloonStyle>
		</BalloonStyle>
		<LineStyle>
			<width>2.5</width>
		</LineStyle>
		<PolyStyle>
			<fill>0</fill>
		</PolyStyle>
	</Style>
	<Placemark>
		<name>1778236573956</name>
		<visibility>0</visibility>
		<styleUrl>#msn_ylw-pushpin</styleUrl>
		<Polygon>
			<tessellate>1</tessellate>
			<outerBoundaryIs>
				<LinearRing>
					<coordinates>
						92.22683799958496,24.08430996554406,0 92.22652130799301,24.08416594786474,0 92.22637719818256,24.08429357487005,0 92.22622524985556,24.08410670957785,0 92.22610631209557,24.0843329878296,0 92.22577804715945,24.08446335896942,0 92.22548947722078,24.08437672778703,0 92.22490079368474,24.08475304708356,0 92.22442353742295,24.08428845621503,0 92.22440754178953,24.08378969429522,0 92.22433522800019,24.0834554840427,0 92.22400718980997,24.08319106650593,0 92.22385823345439,24.08282342028015,0 92.22386661903334,24.0828154136408,0 92.22386027792879,24.08278403948104,0 92.22382927582522,24.08276870678417,0 92.22380664992312,24.08274548337015,0 92.22376692676883,24.08274589424263,0 92.22371962668223,24.082738663013,0 92.22364779011137,24.08273998127815,0 92.22358356640746,24.0827487296675,0 92.22352785296779,24.08274932478577,0 92.22346415759262,24.08275000515994,0 92.22328011925177,24.08245304601463,0 92.22299455179653,24.08244359139461,0 92.22260357070542,24.0825012753685,0 92.22239341276857,24.08253454300545,0 92.22223343570917,24.0823678709048,0 92.22234979611284,24.08228546255213,0 92.2223678842039,24.08215118771688,0 92.22243095047075,24.08188184278925,0 92.22261810262037,24.08172378143409,0 92.2230035465976,24.08145830926039,0 92.22329407906952,24.0810282720359,0 92.22301024757932,24.08079030059499,0 92.2230628709746,24.08056367428128,0 92.22320718747831,24.08043335669279,0 92.22315065372055,24.08012913336103,0 92.22323751007235,24.07988338807845,0 92.22328890498851,24.07957812379951,0 92.22340264656982,24.07950110913948,0 92.22373362741683,24.07962933639061,0 92.22410429826213,24.07957746206401,0 92.22473847970861,24.07957086856473,0 92.22528853712701,24.07993855836181,0 92.22554151413436,24.08000919461618,0 92.22615104870403,24.0797049264991,0 92.22645338788335,24.07967946366614,0 92.22683207957768,24.07992559142937,0 92.22755396296343,24.08033760908774,0 92.22702682245885,24.08424415261012,0 92.22692836593149,24.0842430181162,0 92.22683799958496,24.08430996554406,0 
					</coordinates>
				</LinearRing>
			</outerBoundaryIs>
		</Polygon>
		<atom:link rel="app" href="https://www.google.com/earth/about/versions/#earth-pro" title="Google Earth Pro 7.3.7.1155"></atom:link>
	</Placemark>
</Document>
</kml>
