<?xml version="1.0" encoding="UTF-8"?>
<kml xmlns="http://www.opengis.net/kml/2.2" xmlns:gx="http://www.google.com/kml/ext/2.2" xmlns:kml="http://www.opengis.net/kml/2.2" xmlns:atom="http://www.w3.org/2005/Atom">
<Document>
	<name>5 HA ANR MILAN SOBHA JFMC OF EAST CHAWMANU VC.kml</name>
	<StyleMap id="m_ylw-pushpin">
		<Pair>
			<key>normal</key>
			<styleUrl>#s_ylw-pushpin</styleUrl>
		</Pair>
		<Pair>
			<key>highlight</key>
			<styleUrl>#s_ylw-pushpin_hl</styleUrl>
		</Pair>
	</StyleMap>
	<Style id="s_ylw-pushpin">
		<IconStyle>
			<scale>1.1</scale>
			<Icon>
				<href>http://maps.google.com/mapfiles/kml/pushpin/ylw-pushpin.png</href>
			</Icon>
			<hotSpot x="20" y="2" xunits="pixels" yunits="pixels"/>
		</IconStyle>
		<LineStyle>
			<color>ffffaa00</color>
			<width>5</width>
		</LineStyle>
		<PolyStyle>
			<fill>0</fill>
		</PolyStyle>
	</Style>
	<Style id="s_ylw-pushpin_hl">
		<IconStyle>
			<scale>1.3</scale>
			<Icon>
				<href>http://maps.google.com/mapfiles/kml/pushpin/ylw-pushpin.png</href>
			</Icon>
			<hotSpot x="20" y="2" xunits="pixels" yunits="pixels"/>
		</IconStyle>
		<LineStyle>
			<color>ffffaa00</color>
			<width>5</width>
		</LineStyle>
		<PolyStyle>
			<fill>0</fill>
		</PolyStyle>
	</Style>
	<Placemark>
		<name>5 HA ANR MILAN SOBHA JFMC OF EAST CHAWMANU VC</name>
		<styleUrl>#m_ylw-pushpin</styleUrl>
		<Polygon>
			<tessellate>1</tessellate>
			<outerBoundaryIs>
				<LinearRing>
					<coordinates>
						92.00650901864314,23.81880734294961,0 92.00639694138268,23.81879454489661,0 92.00618564563194,23.81888561750469,0 92.00610393747147,23.81884258810924,0 92.00595193413075,23.81896830217121,0 92.00585282622527,23.81908509606999,0 92.00582102403982,23.81921099652656,0 92.005687915241,23.81960366623432,0 92.00531694971454,23.82016634957812,0 92.00520878486006,23.82015761608347,0 92.005092945001,23.81995972404302,0 92.00505511193468,23.81986299835244,0 92.00503075794681,23.81960691667296,0 92.00499731424641,23.81941737210446,0 92.0049791644023,23.81925928856093,0 92.00496520206913,23.81914277913794,0 92.00496948072356,23.81902718059619,0 92.00497717513043,23.81888973375801,0 92.00499102658098,23.81881413269825,0 92.00500652947002,23.81872752047327,0 92.00500720056873,23.81853749975339,0 92.00506595216456,23.81831633786045,0 92.00508899458296,23.8182008618275,0 92.00522522454416,23.81805014119843,0 92.00531825114338,23.81798645002837,0 92.00539301975117,23.81797127401358,0 92.005454088234,23.81785300956591,0 92.00565980512567,23.81777621788191,0 92.0057183360113,23.81772796244929,0 92.00580265707504,23.81764430615187,0 92.00594207781862,23.81771479038548,0 92.0060622066549,23.8176959110923,0 92.00615082779105,23.81767461054105,0 92.00623114805944,23.81762423101796,0 92.00628640041997,23.8175236602393,0 92.00642784832584,23.81737214782131,0 92.00658683585738,23.81734110837617,0 92.00659510988189,23.81726108456121,0 92.00660961456374,23.81711897771493,0 92.00666353117003,23.81696939155115,0 92.00666010536,23.81684062593695,0 92.00675854066216,23.81670863475126,0 92.00682281406887,23.81664439422786,0 92.00688139171932,23.81663252005848,0 92.00692892421199,23.81663584687058,0 92.00697697454889,23.81665315338904,0 92.00703294235332,23.81668324311958,0 92.00708973636486,23.81677648688591,0 92.00716667921814,23.81679112010459,0 92.00722373082598,23.81685296872227,0 92.00729708352542,23.81692615625239,0 92.00740247991862,23.81701773426097,0 92.00753053950309,23.8170815782224,0 92.00759713963178,23.81715989445281,0 92.00767272478512,23.8172027667629,0 92.00767273642349,23.81720678456877,0 92.00772117512885,23.81729107243663,0 92.00777016450628,23.81736703660682,0 92.00783976390258,23.81743675134854,0 92.00788938405009,23.81749171405684,0 92.00789620171767,23.81761841485034,0 92.00788872189032,23.81765308815845,0 92.00787735649678,23.81770146899891,0 92.00785032190772,23.81780530708909,0 92.00783121349312,23.81790765627056,0 92.00779835151253,23.81796701583068,0 92.00778196741422,23.81801160304004,0 92.00774877821235,23.81810648930291,0 92.0076756226067,23.81818113372273,0 92.00761440506419,23.81831817983185,0 92.00748957212903,23.81843016821368,0 92.00742198478743,23.81847236112533,0 92.00727784878953,23.81851291240856,0 92.00712596585154,23.81852784004347,0 92.00697462643458,23.81855227144905,0 92.00685618611068,23.81855660173478,0 92.00674509865692,23.81859132272092,0 92.00664012745295,23.8187003288283,0 92.00650901864314,23.81880734294961,0 
					</coordinates>
				</LinearRing>
			</outerBoundaryIs>
		</Polygon>
		<atom:link rel="app" href="https://www.google.com/earth/about/versions/#earth-pro" title="Google Earth Pro 7.3.7.1155"></atom:link>
	</Placemark>
</Document>
</kml>
