<?xml version="1.0" encoding="UTF-8"?>
<kml xmlns="http://www.opengis.net/kml/2.2" xmlns:gx="http://www.google.com/kml/ext/2.2" xmlns:kml="http://www.opengis.net/kml/2.2" xmlns:atom="http://www.w3.org/2005/Atom">
<Document>
	<name>Pre Survey Map of KML at Birmanai Para under Kanchancherra Beat of Element ANR Bamboo 11.20 Ha.kml</name>
	<Style id="s_ylw-pushpin_hl">
		<IconStyle>
			<scale>1.3</scale>
			<Icon>
				<href>https://maps.google.com/mapfiles/kml/pushpin/ylw-pushpin.png</href>
			</Icon>
			<hotSpot x="20" y="2" xunits="pixels" yunits="pixels"/>
		</IconStyle>
	</Style>
	<Style id="s_ylw-pushpin">
		<IconStyle>
			<scale>1.1</scale>
			<Icon>
				<href>https://maps.google.com/mapfiles/kml/pushpin/ylw-pushpin.png</href>
			</Icon>
			<hotSpot x="20" y="2" xunits="pixels" yunits="pixels"/>
		</IconStyle>
	</Style>
	<StyleMap id="m_ylw-pushpin">
		<Pair>
			<key>normal</key>
			<styleUrl>#s_ylw-pushpin</styleUrl>
		</Pair>
		<Pair>
			<key>highlight</key>
			<styleUrl>#s_ylw-pushpin_hl</styleUrl>
		</Pair>
	</StyleMap>
	<Placemark id="0FC76B69373F3C911C10">
		<name>Untitled Polygon</name>
		<styleUrl>#m_ylw-pushpin</styleUrl>
		<Polygon>
			<tessellate>1</tessellate>
			<outerBoundaryIs>
				<LinearRing>
					<coordinates>
						92.1365636324615,24.00355492231612,0 92.1365236975911,24.00351811515333,0 92.13648370029949,24.003499766148,0 92.13644388156119,24.00345372916228,0 92.13634392298557,24.00338055501981,0 92.13631388080958,24.00336232126089,0 92.13628385837384,24.00333492519259,0 92.13625393372936,24.00328003932306,0 92.13622406387242,24.00323425380168,0 92.13615390054738,24.00315213882155,0 92.13612391074734,24.00312472297404,0 92.13604388029712,24.00306077771232,0 92.13598369529514,24.00302428411236,0 92.13593356642768,24.00298775810037,0 92.13585334403567,24.00296037919896,0 92.13577311653027,24.00294212856041,0 92.13570286491274,24.00291472970834,0 92.13561254256311,24.00287817868977,0 92.13552226100524,24.00287819544976,0 92.1355021946529,24.00287819960288,0 92.13544202858989,24.00287820182603,0 92.13541194301514,24.00285990917232,0 92.13538194085243,24.00281416607271,0 92.13535230956984,24.00275927988797,0 92.13533265111569,24.00271355894802,0 92.13533313496889,24.00264958466968,0 92.13534364337775,24.00257651749784,0 92.13535376184397,24.00251257351191,0 92.13536375602177,24.0024394763991,0 92.13538378290258,24.00236639147282,0 92.13538325503866,24.00223830391826,0 92.13538279871365,24.00208272673269,0 92.13538253929435,24.00199117404492,0 92.13538264017939,24.00190893245323,0 92.13538278032519,24.00185415581003,0 92.13538342787976,24.00178142004554,0 92.13537399313678,24.00172696608005,0 92.13536547890131,24.00164580378926,0 92.13534776495798,24.00156538258729,0 92.13532968509371,24.00150306948404,0 92.13530278148244,24.00141453227148,0 92.13529575403146,24.00133531993117,0 92.13528817072292,24.00129208302525,0 92.13528013093429,24.00125757591466,0 92.13526857362351,24.00104003580624,0 92.13523229479803,24.00093542722465,0 92.13523387776199,24.00087432095218,0 92.13526415286894,24.00083039265465,0 92.13540139683278,24.00079422640464,0 92.1355197063842,24.00075004172704,0 92.13561843962998,24.00071506052571,0 92.13568818807924,24.00068100031254,0 92.13573841308308,24.00064735569904,0 92.13578865854439,24.0006140126373,0 92.13582864316209,24.00058891634679,0 92.1358785307101,24.00054644546563,0 92.13589931525431,24.00050464563191,0 92.13593166381938,24.00041405642268,0 92.13594408785093,24.00034091725674,0 92.13597567482101,24.00025908380529,0 92.13598691406384,24.000201628502,0 92.13598803511053,24.00016071674137,0 92.13602749932002,24.00011060860246,0 92.13604716810103,24.00008549703173,0 92.13611454743435,24.00007671770513,0 92.13618158981727,24.0000754778866,0 92.13622932338129,24.00007382038911,0 92.13630602654459,24.00007208310699,0 92.13636344101101,24.00007871866743,0 92.13641126807288,24.00008526686255,0 92.13648809520737,24.00008242102641,0 92.13656484576633,24.00010421524815,0 92.13658397888078,24.00011992973101,0 92.13663200479023,24.00015109149605,0 92.13669016354707,24.00014991343272,0 92.13672920120622,24.00011726391048,0 92.13676806059912,24.00010937052241,0 92.13682626948707,24.0001098374942,0 92.13684561359902,24.0001427949292,0 92.13696210373644,24.00015127150495,0 92.13702011992973,24.0000942856597,0 92.13706875867628,24.00012675686279,0 92.13710761600596,24.00013492803059,0 92.13715589232199,24.000110781948,0 92.13718495502091,24.00011096114547,0 92.13721430256746,24.00014418180768,0 92.13736871466617,24.00013982476115,0 92.13746435764371,24.00012769804166,0 92.13783364749513,24.00023639855822,0 92.13805453846165,24.00029957144754,0 92.13821664354521,24.00032491905468,0 92.13830587478139,24.00033385009855,0 92.13839593163246,24.00040893612372,0 92.13850317972054,24.0004423579229,0 92.13863944426332,24.00054146566324,0 92.13866799072227,24.00062606154756,0 92.13866870691582,24.00066786377156,0 92.13865146189684,24.00070885973249,0 92.13861755037941,24.00081596379266,0 92.13860795037235,24.00091888608809,0 92.13873936360659,24.00111507985021,0 92.13877264871103,24.00126293951148,0 92.13877058195466,24.00134093835791,0 92.13876101287046,24.00140901125518,0 92.13872460279423,24.00151033332586,0 92.13870659041564,24.00157786493842,0 92.1387065053018,24.00167130639986,0 92.1387066818349,24.00181553845929,0 92.13870679080166,24.00190888296562,0 92.13872480451595,24.00200251694175,0 92.13872488457838,24.00207039383716,0 92.13873397791959,24.00212987963988,0 92.1387431352739,24.00218933462854,0 92.13878036882518,24.00228267439402,0 92.13882716584328,24.0023759680287,0 92.13883697053737,24.00245228870185,0 92.13883768669962,24.00250314669936,0 92.13882136241369,24.00256239639112,0 92.13880536593936,24.00263028050479,0 92.13879722375358,24.00267281890905,0 92.13879896623227,24.00274098882435,0 92.13879309975708,24.00280934221331,0 92.13878779569606,24.00289512146152,0 92.13878980402899,24.00292957388978,0 92.13879279179595,24.00298138671679,0 92.13879623514224,24.00304203175151,0 92.13880770562896,24.0030767979582,0 92.13882119921561,24.0031206548834,0 92.13885565980127,24.00319109458227,0 92.13887825481449,24.00323528373573,0 92.1388929036751,24.0032887325781,0 92.13890678374307,24.00333349191882,0 92.13891424781131,24.00340565869598,0 92.13892843687607,24.00345100591317,0 92.13893491758361,24.00351482829868,0 92.13892858180782,24.00361712824139,0 92.13892739376467,24.00366525174181,0 92.13892786666356,24.00372351538109,0 92.13891667562262,24.00377245297098,0 92.13881201661869,24.00384282017042,0 92.13844855864521,24.00382639987161,0 92.13840705612283,24.00379793559062,0 92.13835751262197,24.0037797960952,0 92.13831825459094,24.00376194224306,0 92.13827915100529,24.00374420588395,0 92.13824016708604,24.00372656421928,0 92.13817284547247,24.00370092009318,0 92.13811497999447,24.00367499245262,0 92.13804723854265,24.00364916765022,0 92.13794099637535,24.00362456437096,0 92.13789196899999,24.00358883689553,0 92.13780287646809,24.00353477347109,0 92.13774344153666,24.00350784781052,0 92.13770377976556,24.00348987970481,0 92.13764407926442,24.00348102813411,0 92.137494650669,24.00348175936469,0 92.13738440899388,24.00346328827433,0 92.13732426719911,24.00345399321733,0 92.13726422237866,24.00345398032739,0 92.13720431581595,24.00347257379131,0 92.13710413295907,24.00347229114247,0 92.13707423018752,24.00350936701108,0 92.13702431260586,24.00357438209987,0 92.1369942545023,24.00362032364341,0 92.13695414131804,24.00363853483977,0 92.13688396479321,24.00364752668744,0 92.1368238486836,24.00362891058081,0 92.1367337774461,24.00359172041881,0 92.13670377630284,24.00358240052326,0 92.13665383507401,24.00355458084488,0 92.1366037627562,24.00354554282276,0 92.13654374475047,24.00351804728266,0 92.1365636324615,24.00355492231612,0 
					</coordinates>
				</LinearRing>
			</outerBoundaryIs>
		</Polygon>
		<atom:link rel="app" href="https://www.google.com/earth/about/versions/#earth-pro" title="Google Earth Pro 7.3.7.1155"></atom:link>
	</Placemark>
</Document>
</kml>
