<?xml version="1.0" encoding="UTF-8"?>
<kml xmlns="http://www.opengis.net/kml/2.2" xmlns:gx="http://www.google.com/kml/ext/2.2" xmlns:kml="http://www.opengis.net/kml/2.2" xmlns:atom="http://www.w3.org/2005/Atom">
<Document>
	<name>1778579359713.kml</name>
	<StyleMap id="msn_ylw-pushpin">
		<Pair>
			<key>normal</key>
			<styleUrl>#sn_ylw-pushpin</styleUrl>
		</Pair>
		<Pair>
			<key>highlight</key>
			<styleUrl>#sh_ylw-pushpin</styleUrl>
		</Pair>
	</StyleMap>
	<Style id="sh_ylw-pushpin">
		<IconStyle>
			<scale>1.3</scale>
			<Icon>
				<href>http://maps.google.com/mapfiles/kml/pushpin/ylw-pushpin.png</href>
			</Icon>
			<hotSpot x="20" y="2" xunits="pixels" yunits="pixels"/>
		</IconStyle>
		<BalloonStyle>
		</BalloonStyle>
		<PolyStyle>
			<fill>0</fill>
		</PolyStyle>
	</Style>
	<Style id="sn_ylw-pushpin">
		<IconStyle>
			<scale>1.1</scale>
			<Icon>
				<href>http://maps.google.com/mapfiles/kml/pushpin/ylw-pushpin.png</href>
			</Icon>
			<hotSpot x="20" y="2" xunits="pixels" yunits="pixels"/>
		</IconStyle>
		<BalloonStyle>
		</BalloonStyle>
		<PolyStyle>
			<fill>0</fill>
		</PolyStyle>
	</Style>
	<Placemark>
		<name>1778579359713</name>
		<styleUrl>#msn_ylw-pushpin</styleUrl>
		<Polygon>
			<tessellate>1</tessellate>
			<outerBoundaryIs>
				<LinearRing>
					<coordinates>
						91.81899721408595,23.68570354529391,0 91.81886073941294,23.68512155745312,0 91.81865199852501,23.68501708572416,0 91.81851218116148,23.68490458395305,0 91.81848110049825,23.68467307433414,0 91.81886488037448,23.68426408298754,0 91.81895534312277,23.68408865515394,0 91.8193903767387,23.68401567308816,0 91.8197897627241,23.68380905678617,0 91.82021088087309,23.68383403288755,0 91.82069790113518,23.68394778102552,0 91.82100692243705,23.68426449570298,0 91.82179008346891,23.68444877621544,0 91.82205111997357,23.68428601454571,0 91.82210665782664,23.68405515014532,0 91.82231833338189,23.68370686254289,0 91.82271715976241,23.68369428166625,0 91.82335418694545,23.68392104773089,0 91.82351384247208,23.68430274648511,0 91.82423616154588,23.68424610157107,0 91.82499690794424,23.68407270777265,0 91.82563604597186,23.68429734317553,0 91.82621003836424,23.68416228979882,0 91.82664879925684,23.6842088096692,0 91.82711930656821,23.68394297160802,0 91.82788310119882,23.6839877405367,0 91.82804597886511,23.68406430753168,0 91.82821886418236,23.68447961561622,0 91.82817208328058,23.68483401206324,0 91.82827765320522,23.68507337860845,0 91.82888825476196,23.68530421721605,0 91.82914745368174,23.68543106674428,0 91.82932331568766,23.68565106214487,0 91.82915232690029,23.68582591389049,0 91.82892574742559,23.68584946730887,0 91.82760826057174,23.68547156301625,0 91.82736489045659,23.68551125112289,0 91.82674587476944,23.68606350183651,0 91.82606944208938,23.68655561103735,0 91.82485465794809,23.68613329408322,0 91.82383758772089,23.68688408826781,0 91.82310809679831,23.68720384830594,0 91.82310060109077,23.68721082106037,0 91.82307810057628,23.68722505330462,0 91.82298905009046,23.6872305998321,0 91.82293739851396,23.68722887358938,0 91.82284904720969,23.68722564330366,0 91.82279763963292,23.68722357137262,0 91.8227609568689,23.68722209290494,0 91.82272430467998,23.68722061563093,0 91.82267313367571,23.68721827569857,0 91.8226220482684,23.68722258129069,0 91.82254924226505,23.68721902399802,0 91.82247546364545,23.68721835318327,0 91.82229697636281,23.68721354954333,0 91.82218477864397,23.68720919269069,0 91.82214707426343,23.68721053499999,0 91.82167084735424,23.68701897875843,0 91.82130929744831,23.68666409969938,0 91.82129633461031,23.68656888761178,0 91.82114690206521,23.6864304936328,0 91.82043025011048,23.68616473037401,0 91.81934937635721,23.6861083936055,0 91.81894966308117,23.68590551811223,0 91.81899721408595,23.68570354529391,0 
					</coordinates>
				</LinearRing>
			</outerBoundaryIs>
		</Polygon>
		<atom:link rel="app" href="https://www.google.com/earth/about/versions/#earth-pro" title="Google Earth Pro 7.3.7.1155"></atom:link>
	</Placemark>
</Document>
</kml>
