<?xml version="1.0" encoding="UTF-8"?>
<kml xmlns="http://www.opengis.net/kml/2.2" xmlns:gx="http://www.google.com/kml/ext/2.2" xmlns:kml="http://www.opengis.net/kml/2.2" xmlns:atom="http://www.w3.org/2005/Atom">
<Document>
	<name>1778221158444.kml</name>
	<StyleMap id="msn_ylw-pushpin">
		<Pair>
			<key>normal</key>
			<styleUrl>#sn_ylw-pushpin</styleUrl>
		</Pair>
		<Pair>
			<key>highlight</key>
			<styleUrl>#sh_ylw-pushpin</styleUrl>
		</Pair>
	</StyleMap>
	<Style id="sh_ylw-pushpin">
		<IconStyle>
			<scale>1.3</scale>
			<Icon>
				<href>http://maps.google.com/mapfiles/kml/pushpin/ylw-pushpin.png</href>
			</Icon>
			<hotSpot x="20" y="2" xunits="pixels" yunits="pixels"/>
		</IconStyle>
		<BalloonStyle>
		</BalloonStyle>
		<PolyStyle>
			<fill>0</fill>
		</PolyStyle>
	</Style>
	<Style id="sn_ylw-pushpin">
		<IconStyle>
			<scale>1.1</scale>
			<Icon>
				<href>http://maps.google.com/mapfiles/kml/pushpin/ylw-pushpin.png</href>
			</Icon>
			<hotSpot x="20" y="2" xunits="pixels" yunits="pixels"/>
		</IconStyle>
		<BalloonStyle>
		</BalloonStyle>
		<PolyStyle>
			<fill>0</fill>
		</PolyStyle>
	</Style>
	<Placemark>
		<name>1778221158444</name>
		<styleUrl>#msn_ylw-pushpin</styleUrl>
		<Polygon>
			<tessellate>1</tessellate>
			<outerBoundaryIs>
				<LinearRing>
					<coordinates>
						91.70251242422668,23.58567310637863,0 91.70259450244539,23.58565554689253,0 91.70266056657137,23.5856549874817,0 91.70267610033579,23.58565575923658,0 91.70269806274165,23.58565546322295,0 91.7027167711109,23.58565570573261,0 91.70273167275398,23.58565992019775,0 91.70274658185549,23.58566413698118,0 91.7027588468422,23.58566544534379,0 91.70277001538874,23.58567364831855,0 91.70277479489781,23.58568294843286,0 91.70278975776691,23.58568718297759,0 91.70280099754881,23.58569543716276,0 91.70281278275358,23.58570022502942,0 91.70282778515214,23.58570446976756,0 91.70284280701294,23.58570867677701,0 91.7028514269019,23.58571401092163,0 91.70286326449785,23.58571878832136,0 91.7028810429498,23.58572595934881,0 91.7028897412751,23.58573118864091,0 91.70290120234891,23.58573935440819,0 91.70291268888226,23.58574753852648,0 91.70291726943357,23.58576071028139,0 91.70292169713269,23.5857746269023,0 91.70292614909928,23.58578861876519,0 91.70293062517815,23.58580268689586,0 91.70293193989794,23.58581720268694,0 91.70293608554272,23.58583480154535,0 91.70293747426477,23.58584929373489,0 91.70294908698057,23.58585842807549,0 91.70295748085576,23.58586814052212,0 91.70297609878256,23.58587241522242,0 91.70298908286829,23.58587020101366,0 91.70300169201377,23.58587148810614,0 91.70301759635842,23.58587191151387,0 91.70303348256668,23.58587233466386,0 91.70304325638588,23.58587021190906,0 91.70305905009678,23.58587092189871,0 91.70307114433031,23.58587654399194,0 91.70308401939836,23.58587427765944,0 91.70309650127662,23.58587595501047,0 91.70310898124328,23.58587763221945,0 91.70311789877135,23.58588382627705,0 91.70313038836403,23.58588550433497,0 91.70315215909125,23.58588942972645,0 91.70316433071773,23.58589506942865,0 91.70317652045038,23.5859007174257,0 91.70318492723385,23.5859149256379,0 91.70318693878774,23.58593041065209,0 91.70319204709475,23.58594644742757,0 91.70319752046866,23.58595822622829,0 91.7032059409114,23.58597380355281,0 91.70321441301139,23.58598947614545,0 91.70322324677559,23.5860008053688,0 91.70323569010009,23.58600699678643,0 91.70324604776349,23.58599610254337,0 91.70325986389034,23.58598020161831,0 91.7032698265145,23.5859738349183,0 91.70328271453687,23.58597128465542,0 91.70329604907531,23.58596007919787,0 91.70331206252411,23.58595692065337,0 91.70332546795471,23.58594151333119,0 91.70333838515961,23.58593474285695,0 91.70335140364767,23.58592416800894,0 91.70336733199223,23.5859173484831,0 91.70338018483726,23.58590733406346,0 91.70339283573358,23.5859015103392,0 91.70341170372804,23.58589439235502,0 91.70342427348496,23.58588835064307,0 91.7034368021182,23.58588232847906,0 91.70344928968846,23.58587632616597,0 91.70346166941522,23.58587412703458,0 91.70347408529267,23.58586815320857,0 91.703486412864,23.58586596676906,0 91.70349882835295,23.58585282608823,0 91.70351413878048,23.58585077308245,0 91.7035294242723,23.5858487233391,0 91.70353858355787,23.58584749511005,0 91.70360854293457,23.58583959609766,0 91.70368206875976,23.58586850082406,0 91.70369138094422,23.58587489124519,0 91.70370092099513,23.58588846119853,0 91.70371345037906,23.58589824358173,0 91.70372296453509,23.58590831098413,0 91.70373557404515,23.58591816010815,0 91.70374503112581,23.58592473896119,0 91.70375161674461,23.58593567240709,0 91.70376766951456,23.58595032760742,0 91.7037714721867,23.58596609358039,0 91.70377840570038,23.58598183042135,0 91.70378538286919,23.58599766635285,0 91.70379530315941,23.58600913125674,0 91.70380548485518,23.58602481730437,0 91.70381260703618,23.5860409236454,0 91.70381664300551,23.58605745998815,0 91.70382384734526,23.58607377576353,0 91.70382746676219,23.58608197261338,0 91.70383816619398,23.58610261436926,0 91.70384870653294,23.58611729716496,0 91.70385931504404,23.5861320749363,0 91.70386999255508,23.58614694906841,0 91.70388350949872,23.58615606782379,0 91.70389664684889,23.58615978698948,0 91.70391256929234,23.58615796275302,0 91.70393206213407,23.58615881892508,0 91.70394506400342,23.58615938987039,0 91.70396457661359,23.5861602468884,0 91.70397811049853,23.5861661785502,0 91.70399014620891,23.58618897919769,0 91.7039984159008,23.58620608233585,0 91.70401064649405,23.58622914664682,0 91.70401635595584,23.58625215491352,0 91.70402210570836,23.58627528202949,0 91.70403108172708,23.58629761022781,0 91.70403339634311,23.58631986228506,0 91.70402895210377,23.58634202941248,0 91.7040204885121,23.586358566702,0 91.70401593195749,23.58638100945635,0 91.70400775989218,23.58640258329239,0 91.70400697883676,23.58643055578548,0 91.70400504023748,23.58644688938253,0 91.70400690443711,23.58646996252739,0 91.70400528366036,23.58649300311142,0 91.70400327541471,23.58651152510815,0 91.70400829985753,23.5865306194427,0 91.70401336504716,23.58654989114792,0 91.70402516861589,23.58656497655277,0 91.70403619803893,23.58657035379668,0 91.70405082214967,23.58657608128315,0 91.70406860673998,23.58657723908161,0 91.70408640904182,23.58657842783608,0 91.70410377939913,23.58657490701691,0 91.70412113469193,23.58657138941442,0 91.70413539935099,23.58657242405806,0 91.70414967308042,23.58657345932859,0 91.70415936512235,23.58656462099696,0 91.70417667505244,23.58656111201941,0 91.70419343176489,23.58655280977296,0 91.70421123544975,23.58655403014233,0 91.70422905267984,23.58655525129615,0 91.70424273491203,23.58655142741147,0 91.70425641669925,23.5865476738525,0 91.70426718026576,23.58654872484234,0 91.70428092576199,23.58654531590618,0 91.70429888092478,23.58654706675687,0 91.70431685590384,23.58654881961042,0 91.7043348504093,23.58655057404643,0 91.70434926010401,23.58655197913598,0 91.70436506103397,23.58656305437768,0 91.70438092921835,23.58657417681713,0 91.70439323332307,23.58658498937617,0 91.70440996151271,23.58660111102275,0 91.70442600726943,23.58661227260169,0 91.70443891464519,23.58662693976708,0 91.70444875183715,23.58664544385165,0 91.70445860896865,23.58666391441804,0 91.70446176609022,23.58668625728768,0 91.70446494529759,23.58670875615177,0 91.7044171482946,23.58681969282431,0 91.70438257772999,23.58687290217492,0 91.70437330157091,23.58688957191601,0 91.70436777818792,23.58690667559011,0 91.70436602331283,23.58692417626624,0 91.70436808289122,23.58694216988351,0 91.70437444115157,23.58696490622533,0 91.70438735431276,23.58697896599543,0 91.70440704978873,23.58698523719373,0 91.70441957673046,23.58699505547529,0 91.704440511309,23.58701062553722,0 91.70446160994724,23.58702652691924,0 91.70447835083212,23.58703754592421,0 91.70449569581605,23.58705301768251,0 91.70451312187508,23.58706856193344,0 91.70453006200266,23.58707972614135,0 91.70454764088765,23.58709539735594,0 91.70455733949397,23.58710998611308,0 91.70456767123008,23.58712914296489,0 91.70455750713204,23.58714111991195,0 91.70454272412785,23.58714795662179,0 91.70453251983956,23.58716002600445,0 91.7045222882623,23.5871721283192,0 91.70451261506376,23.58718892202973,0 91.70450232244082,23.58720110381248,0 91.70449273202539,23.58721864171271,0 91.70449116488878,23.58723749248806,0 91.70448618140215,23.58726080231618,0 91.70448519798624,23.58728476855918,0 91.7044876366248,23.58730445297607,0 91.70447848803285,23.58732739233643,0 91.70445824974037,23.5873247930175,0 91.70444341862598,23.58733341641604,0 91.70442873441299,23.58734285568977,0 91.70441737124133,23.58734725741434,0 91.70439798967327,23.58735105446237,0 91.70437799424116,23.5873495877097,0 91.70436259639112,23.58735367885078,0 91.7043431870637,23.5873574801725,0 91.70432889113246,23.58737214949178,0 91.704314357104,23.58738352453119,0 91.70429988806531,23.58739554885016,0 91.70428536671555,23.58740761584068,0 91.70427537195538,23.58742550800274,0 91.70426074159133,23.58743768310316,0 91.70425001425463,23.58744967950459,0 91.70423530829507,23.5874620883025,0 91.70421630022567,23.58747063880255,0 91.70419789593058,23.58748584375385,0 91.70418272119646,23.58749409582815,0 91.7041635364167,23.58750278035765,0 91.70414765915319,23.5875044169088,0 91.70413117699024,23.5874994005958,0 91.70411586731915,23.58750769415149,0 91.7041009182048,23.58751906799353,0 91.70408722120055,23.58754564751107,0 91.70407270027761,23.58756439992252,0 91.70405406919322,23.5875838886679,0 91.70403931406126,23.58760267052126,0 91.70402430778311,23.58761770997382,0 91.70400922252144,23.58763293491723,0 91.70398941130932,23.58764089966773,0 91.70397748926949,23.58764569255205,0 91.70395793348314,23.58766014606037,0 91.70394229464628,23.58767319128558,0 91.70392685040399,23.58768941923399,0 91.70391135938928,23.58770637215953,0 91.70389106076559,23.58771446241417,0 91.70386659725072,23.5877241314377,0 91.70384570495168,23.5877234364293,0 91.70382518882607,23.58773152972105,0 91.70380885288624,23.58774025358061,0 91.70379656197915,23.58774689409295,0 91.70378011660672,23.58775577927141,0 91.70375946652419,23.58776693586789,0 91.70374223872301,23.58775632348694,0 91.70372914007348,23.5877420680938,0 91.70371164926092,23.58771933199491,0 91.70369842756607,23.58769516408801,0 91.70368552676908,23.58768073191342,0 91.70366477207016,23.58768863877695,0 91.70364811342458,23.58769498506841,0 91.70363140671225,23.58770134917845,0 91.70361036210666,23.58770020233812,0 91.70359335112261,23.5876774283334,0 91.70358889365532,23.58763938203727,0 91.70359268089912,23.58759165485452,0 91.70359640210235,23.58754475891089,0 91.70359196738636,23.5875022625015,0 91.70358366368478,23.58747471898846,0 91.70356741553721,23.58745466970646,0 91.70355529670817,23.58744125962829,0 91.70353920761764,23.58742874775253,0 91.70352321372991,23.58740839553907,0 91.70350726604201,23.58739600800689,0 91.70349523571224,23.58739850368531,0 91.70347925744562,23.58739446172732,0 91.70345523697296,23.58739297538816,0 91.70343490322995,23.58740710157182,0 91.70341465067341,23.58741287260187,0 91.70339796002122,23.5874344322291,0 91.70338135579723,23.58744825431826,0 91.70336076621611,23.58745615050389,0 91.70334005125372,23.58746497229994,0 91.70332757901116,23.58747028395345,0 91.70330752344987,23.58746060045864,0 91.70329082907807,23.58746767856189,0 91.70326512804068,23.58748885400506,0 91.70325452718666,23.58745580480549,0 91.70323773161984,23.58746287914319,0 91.70322142399598,23.58746066963847,0 91.70320510442069,23.58745859088268,0 91.70318869963501,23.58745744000808,0 91.70317367592689,23.58743621771804,0 91.70315803370345,23.58742508306439,0 91.7031431866605,23.58740407330521,0 91.70312418455501,23.5873853708079,0 91.70310793073192,23.58738420789802,0 91.70309677035442,23.58737107858457,0 91.70309153811297,23.58733688781102,0 91.70308124526365,23.58731525151598,0 91.70306356176341,23.58733200816222,0 91.70304746569542,23.58733045503019,0 91.70304248945573,23.58729729411279,0 91.70303138739793,23.58728625899087,0 91.70302100432129,23.58726778390881,0 91.70301133504402,23.58724231401981,0 91.70300174425239,23.58721705052305,0 91.7029956228709,23.58719794112592,0 91.70298685936659,23.58716596583386,0 91.70298223132815,23.58713317358535,0 91.70297190750492,23.58711777967336,0 91.70296101719354,23.58710869044398,0 91.70294212820949,23.58710159876322,0 91.70292264741531,23.58710052622226,0 91.70291709211773,23.58707851456592,0 91.70291157437131,23.58705665201184,0 91.70291007713321,23.58703397620452,0 91.70290796845661,23.58701731537397,0 91.70289857297151,23.58699681409585,0 91.70288399720388,23.58698896744362,0 91.70286426508957,23.58699311191959,0 91.70284778924956,23.58700215627217,0 91.70283865185564,23.58698140297513,0 91.70283350829742,23.58695998415482,0 91.70282363973853,23.5869459155883,0 91.70281900406277,23.58692036913666,0 91.70280986732236,23.58690111189473,0 91.70280465511522,23.5868813041506,0 91.70279878438021,23.58686709371329,0 91.70278909413736,23.58685353221788,0 91.70277497159489,23.58684569316964,0 91.70276020599746,23.58684306428747,0 91.70274787743458,23.58685050061422,0 91.70272525994666,23.58684956835658,0 91.70272035316268,23.58682997015737,0 91.70271934388785,23.58680978041743,0 91.70270990742961,23.58679631349255,0 91.70270046819677,23.58678306911873,0 91.70269104449386,23.58676994750469,0 91.70268237563388,23.58675184643861,0 91.70267759082245,23.58673313539641,0 91.70267137654403,23.58672452557804,0 91.70266355411185,23.5867016983894,0 91.70265356832174,23.58669386379879,0 91.70263445203939,23.58669734467084,0 91.70262067020531,23.58669020907113,0 91.70260768951331,23.58667814521969,0 91.70260698093139,23.58665914996664,0 91.70259867314158,23.58664163070096,0 91.70258962325426,23.58662905932323,0 91.7025760164891,23.58662205129984,0 91.70256244767495,23.58661500124901,0 91.70255363405903,23.5866020692612,0 91.7025448551189,23.58658918827802,0 91.70253137704404,23.5865821995526,0 91.70251784623225,23.58657545718053,0 91.70250433555184,23.58656872442646,0 91.70248991854768,23.58656696897976,0 91.70247352094418,23.5865561470561,0 91.70245419027599,23.58656053261236,0 91.70243969420301,23.58655898294796,0 91.70242519246163,23.58655743331966,0 91.70240861784472,23.5865660226206,0 91.70238912618643,23.58657043771586,0 91.70232158030939,23.5864388565185,0 91.70232360657317,23.58642953293899,0 91.70232581545214,23.58640258794199,0 91.70232963741232,23.58638466690056,0 91.70233438134393,23.58636242180444,0 91.7023390885267,23.58634034943093,0 91.70234654185981,23.58632214062582,0 91.7023493220582,23.58630906482898,0 91.70235392757009,23.5862874051166,0 91.70235850277254,23.58626590606441,0 91.70236528874912,23.58623296153887,0 91.70237034886537,23.58620844986661,0 91.70238281331085,23.5861986536599,0 91.70239717573762,23.58619643038471,0 91.70240955181934,23.58618668554281,0 91.7024171435842,23.58616603988091,0 91.70242029081906,23.58615017533435,0 91.70242407991446,23.58613076815604,0 91.7024243451192,23.5861119482469,0 91.70242311037781,23.58610088419918,0 91.70241654113555,23.58608283985905,0 91.70241192186374,23.58607215548483,0 91.70240462942556,23.58605811792687,0 91.70240083744879,23.58604369455286,0 91.70239014255222,23.58603023184881,0 91.70238374414247,23.58601259828845,0 91.70237578506183,23.58600259460281,0 91.70237209591859,23.58598843216277,0 91.7023641809008,23.58597851693567,0 91.70235101059167,23.58596213122554,0 91.70234314029278,23.58595233956743,0 91.70234036426217,23.58593474448559,0 91.70234526993276,23.58591266655244,0 91.70235870587273,23.58589677504916,0 91.70237047435283,23.58588822546168,0 91.70238558119253,23.58587927694102,0 91.7024021594234,23.58586317988287,0 91.70241116487946,23.58585159780812,0 91.70241753244525,23.58583693307902,0 91.70242127471403,23.5858192335784,0 91.70242503924359,23.58580154792848,0 91.70241398097291,23.5857926920311,0 91.70240704364635,23.5857799226818,0 91.70240345449058,23.58576678372652,0 91.70240393221027,23.58574986277712,0 91.70240693178951,23.58573610883992,0 91.70241140175182,23.58571561267635,0 91.70242090919058,23.5857012267062,0 91.70243398944378,23.58569960707757,0 91.70244705190377,23.58569798974083,0 91.70246476189705,23.58568923502955,0 91.70247525406749,23.58568457997684,0 91.70251242422668,23.58567310637863,0 
					</coordinates>
				</LinearRing>
			</outerBoundaryIs>
		</Polygon>
		<atom:link rel="app" href="https://www.google.com/earth/about/versions/#earth-pro" title="Google Earth Pro 7.3.7.1155"></atom:link>
	</Placemark>
</Document>
</kml>
