<?xml version="1.0" encoding="UTF-8"?>
<kml xmlns="http://www.opengis.net/kml/2.2" xmlns:gx="http://www.google.com/kml/ext/2.2" xmlns:kml="http://www.opengis.net/kml/2.2" xmlns:atom="http://www.w3.org/2005/Atom">
<Document>
	<name>1778579767028.kml</name>
	<StyleMap id="msn_ylw-pushpin">
		<Pair>
			<key>normal</key>
			<styleUrl>#sn_ylw-pushpin</styleUrl>
		</Pair>
		<Pair>
			<key>highlight</key>
			<styleUrl>#sh_ylw-pushpin</styleUrl>
		</Pair>
	</StyleMap>
	<Style id="sh_ylw-pushpin">
		<IconStyle>
			<scale>1.3</scale>
			<Icon>
				<href>http://maps.google.com/mapfiles/kml/pushpin/ylw-pushpin.png</href>
			</Icon>
			<hotSpot x="20" y="2" xunits="pixels" yunits="pixels"/>
		</IconStyle>
		<BalloonStyle>
		</BalloonStyle>
		<PolyStyle>
			<fill>0</fill>
		</PolyStyle>
	</Style>
	<Style id="sn_ylw-pushpin">
		<IconStyle>
			<scale>1.1</scale>
			<Icon>
				<href>http://maps.google.com/mapfiles/kml/pushpin/ylw-pushpin.png</href>
			</Icon>
			<hotSpot x="20" y="2" xunits="pixels" yunits="pixels"/>
		</IconStyle>
		<BalloonStyle>
		</BalloonStyle>
		<PolyStyle>
			<fill>0</fill>
		</PolyStyle>
	</Style>
	<Placemark>
		<name>1778579767028</name>
		<styleUrl>#msn_ylw-pushpin</styleUrl>
		<Polygon>
			<tessellate>1</tessellate>
			<outerBoundaryIs>
				<LinearRing>
					<coordinates>
						91.83766943058944,23.67995055248222,0 91.83773008690214,23.6798059067131,0 91.83768089649232,23.67969886903709,0 91.83768278046649,23.67968863140396,0 91.83767380641851,23.6796671494649,0 91.83765569856149,23.67964979663003,0 91.83763095304055,23.67962570308843,0 91.83761352914713,23.67959067850473,0 91.83758662351613,23.67954388131409,0 91.83754087417557,23.67947425536562,0 91.83751495981524,23.6794254010838,0 91.83749322626831,23.67937775698813,0 91.83748297063265,23.67935179724242,0 91.83716281162052,23.67900862777421,0 91.8369412240009,23.67894816812326,0 91.83677618021565,23.6790265366444,0 91.83668837083229,23.67877147491981,0 91.83671173170234,23.67854617958064,0 91.83694072580796,23.67827310315572,0 91.83719827026873,23.67816580736965,0 91.83736026595048,23.67818005606696,0 91.8374338581046,23.67822487950818,0 91.83790053216799,23.67837530736978,0 91.83797288780188,23.67847483062845,0 91.8386749132431,23.67848787705409,0 91.8390031526619,23.67859603505606,0 91.83952646461333,23.67890220000108,0 91.84001303495454,23.67904560153307,0 91.84027047201469,23.67901234878826,0 91.8404875186683,23.67917050506538,0 91.8410473074655,23.67916969165132,0 91.84161584757101,23.67934586268435,0 91.84179769596719,23.67928656745636,0 91.84185477822035,23.67932087603373,0 91.84194340662042,23.67944732186999,0 91.84197348661247,23.67956251220083,0 91.84220262868183,23.67978091519337,0 91.84238636435559,23.67978693684937,0 91.84278351872486,23.67993883328595,0 91.8428234868117,23.68002146962743,0 91.84236661226463,23.6803358145402,0 91.84177043919128,23.6803924308999,0 91.84142948278264,23.68069677021311,0 91.84148678808047,23.68097883941526,0 91.84122838883727,23.68125189163949,0 91.84018430158071,23.68117048892022,0 91.83988226027445,23.68070766503663,0 91.83964745202245,23.68043556649501,0 91.8390628172581,23.6803393064814,0 91.83811459724718,23.6805726872245,0 91.83766943058944,23.67995055248222,0 
					</coordinates>
				</LinearRing>
			</outerBoundaryIs>
		</Polygon>
		<atom:link rel="app" href="https://www.google.com/earth/about/versions/#earth-pro" title="Google Earth Pro 7.3.7.1155"></atom:link>
	</Placemark>
</Document>
</kml>
