<?xml version="1.0" encoding="UTF-8"?>
<kml xmlns="http://www.opengis.net/kml/2.2" xmlns:gx="http://www.google.com/kml/ext/2.2" xmlns:kml="http://www.opengis.net/kml/2.2" xmlns:atom="http://www.w3.org/2005/Atom">
<Document>
	<name>1778578381936.kml</name>
	<StyleMap id="msn_ylw-pushpin">
		<Pair>
			<key>normal</key>
			<styleUrl>#sn_ylw-pushpin</styleUrl>
		</Pair>
		<Pair>
			<key>highlight</key>
			<styleUrl>#sh_ylw-pushpin</styleUrl>
		</Pair>
	</StyleMap>
	<Style id="sh_ylw-pushpin">
		<IconStyle>
			<scale>1.3</scale>
			<Icon>
				<href>http://maps.google.com/mapfiles/kml/pushpin/ylw-pushpin.png</href>
			</Icon>
			<hotSpot x="20" y="2" xunits="pixels" yunits="pixels"/>
		</IconStyle>
		<BalloonStyle>
		</BalloonStyle>
		<PolyStyle>
			<fill>0</fill>
		</PolyStyle>
	</Style>
	<Style id="sn_ylw-pushpin">
		<IconStyle>
			<scale>1.1</scale>
			<Icon>
				<href>http://maps.google.com/mapfiles/kml/pushpin/ylw-pushpin.png</href>
			</Icon>
			<hotSpot x="20" y="2" xunits="pixels" yunits="pixels"/>
		</IconStyle>
		<BalloonStyle>
		</BalloonStyle>
		<PolyStyle>
			<fill>0</fill>
		</PolyStyle>
	</Style>
	<Placemark>
		<name>1778578381936</name>
		<styleUrl>#msn_ylw-pushpin</styleUrl>
		<Polygon>
			<tessellate>1</tessellate>
			<outerBoundaryIs>
				<LinearRing>
					<coordinates>
						91.62929396262116,23.3269253191215,0 91.62929046381628,23.32692876810132,0 91.62928341752253,23.32694272509101,0 91.62926941233249,23.32695275120641,0 91.62925884461595,23.32696645348814,0 91.62925523610389,23.32698045648342,0 91.62925161833381,23.3269944953919,0 91.62924799125038,23.32700857036251,0 91.62924782687446,23.32702638873403,0 91.62924766200003,23.3270442678719,0 91.62924749651783,23.32706220817535,0 91.62924380727409,23.32708004848385,0 91.62924367096133,23.32709446015814,0 91.62926126203352,23.32710246162545,0 91.62927184000914,23.32710654727551,0 91.62928949145169,23.32711457140952,0 91.62930010421768,23.32711865107384,0 91.62931071762111,23.3271263794681,0 91.62932134261524,23.32713777473787,0 91.62933911293025,23.32715316441522,0 91.62934623895299,23.32716080396862,0 91.62935695075588,23.32717228763273,0 91.62936768990056,23.32718380065292,0 91.62937488578254,23.32719888683939,0 91.62938926635722,23.3272106227796,0 91.62940730266931,23.32722626786442,0 91.62942175770048,23.32723767980348,0 91.62942901480028,23.32724531410594,0 91.62943631772487,23.327256754255,0 91.62944732176447,23.32727583307744,0 91.62945832299592,23.32729112564859,0 91.62946935783376,23.32730646492153,0 91.62948410730468,23.32732572903559,0 91.62949532506565,23.32734876842507,0 91.62950653631174,23.32736809586341,0 91.62951407361068,23.32738357063375,0 91.62952535827924,23.32740302943983,0 91.62952921425517,23.32741463941632,0 91.62953688212144,23.32743405580759,0 91.62954457804194,23.32745354328945,0 91.62955222988306,23.32746922626609,0 91.62955635952241,23.32749262777821,0 91.62956413337898,23.32751232959087,0 91.62956814838246,23.3275280790393,0 91.62957580739868,23.32754005576503,0 91.62957629470139,23.32756365497779,0 91.62958034535509,23.32757954404852,0 91.62958436634072,23.32759506618645,0 91.62958481342109,23.32761828714259,0 91.6295851872602,23.3276377041951,0 91.62957813933781,23.32766087918404,0 91.62957460289051,23.32767246493193,0 91.62957481882754,23.32768421182695,0 91.62957141504148,23.32770369695996,0 91.62956416247741,23.32771915579571,0 91.62956066825187,23.32773482353053,0 91.62955351945472,23.3277582999929,0 91.62954991893035,23.32776986257782,0 91.62954258696827,23.32778522875073,0 91.62952766670996,23.32780038603958,0 91.62951645773006,23.32781177314999,0 91.6295014423755,23.32782305488516,0 91.6294902445876,23.32783847941024,0 91.6294751997651,23.32785008055856,0 91.62945636907725,23.32786560523253,0 91.6294450393758,23.32787333758833,0 91.62942987189555,23.32787699424511,0 91.62941092012157,23.32788456718941,0 91.62939954263214,23.32789174886246,0 91.629384366628,23.32790269617251,0 91.62936916239582,23.3279059053472,0 91.62935396125923,23.32791321579874,0 91.62933494660874,23.32792030749673,0 91.62931971910132,23.32793141969813,0 91.62930067160254,23.32794223624436,0 91.62928162469905,23.32794908881504,0 91.62926251431504,23.32796424946357,0 91.62925870762136,23.32796410524385,0 91.62924719834895,23.32797587471811,0 91.62923184436255,23.32799110671889,0 91.62922793603812,23.32800290494214,0 91.62922014004012,23.32802246032142,0 91.62921236601514,23.32803795981626,0 91.62920825811624,23.32806633046104,0 91.62920410313403,23.32809542023385,0 91.62920017345374,23.32810680118064,0 91.62920003680044,23.32812247936794,0 91.62919989988508,23.32813818702928,0 91.62920346976276,23.32817006108331,0 91.62920336927574,23.32818190807966,0 91.62920316780826,23.32820565291778,0 91.62920682495549,23.32822984331818,0 91.62921051340459,23.32825039865556,0 91.62921040463536,23.32826265147727,0 91.62921024376084,23.32827938645015,0 91.62921007787874,23.32829626184659,0 91.62921768554531,23.32831380770106,0 91.62922531518048,23.32833140392607,0 91.62923296683539,23.32834905131986,0 91.62924067507279,23.32836241322349,0 91.62924054584413,23.32837950829926,0 91.62922870756988,23.32839144689346,0 91.62922073150999,23.32840795448229,0 91.62920887418703,23.32841959704321,0 91.62919314775135,23.32842633998187,0 91.62917360742971,23.32842427281306,0 91.62915799321375,23.32842262049929,0 91.62913849784815,23.32842055786114,0 91.62911124656979,23.32841767454612,0 91.62909188156928,23.32841143715472,0 91.6290608496665,23.32840810863719,0 91.62904158480204,23.32840172324276,0 91.62902630572459,23.32839162952344,0 91.62900705135925,23.32838914451649,0 91.6289880170132,23.3283784254479,0 91.62897660251777,23.32837281460963,0 91.62896137835824,23.32836668925538,0 91.62894608552796,23.32836460067312,0 91.62891133153963,23.32837600557063,0 91.62885387303423,23.32838380961386,0 91.62882312110139,23.32838865330866,0 91.62864721597973,23.32846064192048,0 91.62848945376383,23.3285503866578,0 91.62830423590771,23.32861644757043,0 91.62817559842348,23.3285329892354,0 91.62821211199292,23.32833312337969,0 91.62831787759332,23.32815566493737,0 91.62821388060519,23.3279813483117,0 91.62820860001338,23.32777805384469,0 91.62823881662683,23.32759224245544,0 91.6281710963452,23.32734896726096,0 91.6281059477335,23.32713908202939,0 91.62803751669135,23.32699465093386,0 91.62808838977649,23.32668397870473,0 91.62808877624535,23.32650501099534,0 91.62817641898421,23.32636726292831,0 91.6281842841353,23.32635515587951,0 91.62820092518756,23.32634891491607,0 91.62821120872934,23.32634276248143,0 91.6282248124572,23.32633378319946,0 91.62823488556383,23.32632782869331,0 91.62824844396484,23.32631887845443,0 91.62826197597967,23.32630994569215,0 91.62827723867525,23.32631026913891,0 91.62829598961005,23.3263075955577,0 91.62830820994304,23.32630785366629,0 91.6283242339522,23.326304762161,0 91.62833452541877,23.32629850949834,0 91.62834479743016,23.3262922683678,0 91.62835908007108,23.32627981782159,0 91.62836975697475,23.32627051047275,0 91.62838337517832,23.32626136503786,0 91.62839961865321,23.32625272039331,0 91.62841630329791,23.32624097553459,0 91.62842604334503,23.32623785052742,0 91.62843935380126,23.32623157799828,0 91.62845570262007,23.3262253348063,0 91.62847201745323,23.32621910461178,0 91.62848523730997,23.32621287165999,0 91.62849795536853,23.32620979146369,0 91.62851066079624,23.3262067144036,0 91.62852323806727,23.32620378030262,0 91.62853852846261,23.32620385395809,0 91.62855186434338,23.32619480645064,0 91.62856463714323,23.32618901837952,0 91.62857403484777,23.32618618480504,0 91.628586781479,23.32618040748938,0 91.62861254871979,23.32616588463641,0 91.62862523988119,23.32616013446008,0 91.62863157923074,23.32615726214372,0 91.62864787099124,23.32614562639128,0 91.6286578465244,23.32613682475484,0 91.62867769706962,23.32612187342003,0 91.62868407782135,23.32611890154568,0 91.62869443200357,23.32610698066905,0 91.62870412287796,23.32610105539475,0 91.6287168118747,23.32609515304257,0 91.62872997783178,23.32608347446195,0 91.62874243393348,23.32607785770544,0 91.62875190784938,23.32607217643934,0 91.62876171534003,23.32606346250736,0 91.62877454111248,23.32605471814441,0 91.62878406504336,23.32604891480815,0 91.62879626531807,23.32604611487573,0 91.62880901094766,23.32603741679591,0 91.62881839048845,23.32603178396587,0 91.62883064269754,23.32602633298379,0 91.62884305457494,23.32601809533675,0 91.62885824801637,23.32601269457675,0 91.62887083197549,23.32600161329632,0 91.62888329038223,23.32599322520155,0 91.62888976644599,23.32598484123837,0 91.62890490708106,23.32597942643872,0 91.62892310435348,23.32597134568673,0 91.62893552585349,23.32596040552283,0 91.62894747290369,23.32595781285693,0 91.62895956035356,23.32595244659454,0 91.62897458379442,23.32594713100016,0 91.62898686590319,23.32593883233235,0 91.6289961861237,23.32593049096981,0 91.62901139379774,23.32592219345802,0 91.62902348125566,23.32591668046898,0 91.629032340541,23.32591671613759,0 91.62904747779038,23.32590845026484,0 91.62906234632023,23.32590573830271,0 91.62907456081045,23.32589480336563,0 91.62908651201343,23.32588944758795,0 91.62909270872417,23.32588121739075,0 91.62910487795612,23.32587024592138,0 91.62911689543745,23.32586209628641,0 91.62912005534666,23.32585159333579,0 91.62913192752926,23.32584379026989,0 91.62914080840869,23.32583859985052,0 91.6291526542656,23.32583081355372,0 91.62916731544601,23.32582828660389,0 91.62918193175283,23.3258283769867,0 91.62919362785551,23.32582844926097,0 91.62920532969892,23.3258285085658,0 91.62921994485421,23.32583111819442,0 91.62923166830507,23.32583109295191,0 91.62924335095791,23.32583377487547,0 91.62925795833705,23.32583656930116,0 91.62926956375276,23.32584993741083,0 91.629278288148,23.32586065729497,0 91.62928705858782,23.32586619425563,0 91.62929878332876,23.32587185853682,0 91.62931051856626,23.32588031080455,0 91.62932229961152,23.32588600520282,0 91.62933114926885,23.32589167781733,0 91.62934297741658,23.32590019156752,0 91.62935484185226,23.3259087314645,0 91.62937564758988,23.32591459364733,0 91.6293845827755,23.32591751230266,0 91.62939945747689,23.32591769129185,0 91.62941738686388,23.32592358633342,0 91.62943230328817,23.32592385618829,0 91.62945325392403,23.32592705870499,0 91.62946526736195,23.32593010372746,0 91.62948022713746,23.32593034416647,0 91.62949218098817,23.32593043305033,0 91.62950720739988,23.32593340731141,0 91.62951626643832,23.32593634028434,0 91.62953432272138,23.3259393445345,0 91.62954340902206,23.32594228482837,0 91.62957095543482,23.32595689879008,0 91.62958927980115,23.32596293839336,0 91.62979360607677,23.32577874613188,0 91.62980574068649,23.32578173920579,0 91.62981789803455,23.32578473790081,0 91.62983328015568,23.32579052538845,0 91.62984228095263,23.32579075208862,0 91.6298604981065,23.32579389485674,0 91.62987570922989,23.32579692893169,0 91.62988842886207,23.32580538359278,0 91.62990119306022,23.32581386761709,0 91.62991349581768,23.325816871076,0 91.62992921247117,23.32582282086432,0 91.62994528498201,23.3258291061551,0 91.62996170851179,23.32583820383395,0 91.62997479271614,23.32584439760585,0 91.62999361394752,23.3258453219109,0 91.6300099533388,23.32585170590637,0 91.63002636281909,23.32585811720804,0 91.63003968824066,23.32586441337695,0 91.6300499407089,23.32587062540446,0 91.63006379041808,23.32587990171638,0 91.63007733236704,23.32588633600989,0 91.63009208770207,23.32590149995527,0 91.63010662051158,23.3259139128984,0 91.63011760257501,23.325923294279,0 91.63013191408082,23.32593292321372,0 91.63014301343541,23.32594239864715,0 91.63014554297064,23.32596021874523,0 91.63015011971235,23.32596938521819,0 91.6301551433308,23.32598158792593,0 91.63016351790374,23.32599407134065,0 91.63017193766891,23.32600662215743,0 91.63017995625354,23.32601619457848,0 91.63019227706464,23.3260321629382,0 91.63020345662639,23.32604178853659,0 91.63022402425196,23.32604612561022,0 91.63023416417593,23.32604681758174,0 91.6302544942131,23.32604820484454,0 91.63027136928493,23.32604925686687,0 91.63028819194511,23.32605287243427,0 91.63030556282145,23.32605959665991,0 91.63031594749845,23.32606305350138,0 91.6303334105919,23.32606981264097,0 91.63035361942491,23.3260708578981,0 91.63036374221087,23.32607138145174,0 91.63038099415979,23.32607521596655,0 91.63039454235411,23.32607591912744,0 91.63041150869289,23.32607679974249,0 91.6304322858837,23.32608083114921,0 91.63044614561417,23.32608439626652,0 91.6304565190128,23.32608771263916,0 91.63047731112027,23.32609436020987,0 91.63049442666518,23.32609792441265,0 91.63051163485477,23.32610154043319,0 91.63052862014274,23.32610227759722,0 91.6305425994216,23.32610583864011,0 91.63055964072485,23.32610658047379,0 91.6305767101841,23.32610732361078,0 91.63060104500754,23.32611134756017,0 91.63061544970641,23.3261178495722,0 91.63062886038929,23.3261182208847,0 91.63064643036913,23.32612465802918,0 91.63066027433349,23.32612802300576,0 91.63067454316337,23.32613438780179,0 91.63068802171716,23.32613476715733,0 91.63070109737812,23.32613214895025,0 91.63070995436495,23.32612343692907,0 91.63072172899322,23.32611182593797,0 91.63073139930053,23.3261091034419,0 91.63076084399277,23.32610392328277,0 91.63077432636348,23.32610427594148,0 91.63078769109129,23.32610454946302,0 91.63080213512382,23.32611363234834,0 91.63081945726593,23.32611977305187,0 91.63082977460859,23.32612286323891,0 91.63084054933491,23.32612895320069,0 91.63085793414146,23.32613511760788,0 91.63086966218746,23.32614724206517,0 91.63088142079464,23.3261593985409,0 91.63088896672292,23.32616550566912,0 91.63090124413456,23.32618074054222,0 91.63091261282068,23.32618994700211,0 91.63092163594672,23.32620522607488,0 91.63092395566763,23.32622043545037,0 91.63093194534802,23.32625101938255,0 91.63093381712359,23.32626328904793,0 91.63093951186156,23.32627870511886,0 91.63094427793693,23.3262879924754,0 91.63095240861658,23.32629733621666,0 91.63096055400186,23.32630669719578,0 91.6309725596316,23.32631921926108,0 91.63098796524569,23.32633181390947,0 91.63100727946951,23.32634760424096,0 91.63101452652091,23.32635080943603,0 91.63103629963415,23.32636043922332,0 91.6310621386155,23.32645561227535,0 91.63103860664538,23.32659584309464,0 91.63103509182078,23.3265957419082,0 91.63106975544763,23.32663900704261,0 91.63108643582767,23.32665584627463,0 91.63109556797158,23.32666923182272,0 91.63112614667484,23.32670639059203,0 91.63113977391362,23.32672649132386,0 91.63114482198398,23.32673651475122,0 91.63121790902208,23.32690052955997,0 91.6313481116582,23.32703214928277,0 91.63138555621205,23.32721618680762,0 91.63156226274081,23.32740178001995,0 91.63160398591997,23.32753875137824,0 91.63169612468698,23.32777229275436,0 91.63169669831534,23.32798232978477,0 91.63154954449804,23.32818546138357,0 91.63150483391445,23.32830812246267,0 91.631406282477,23.32839002161615,0 91.63121820258374,23.32846157490447,0 91.63107256695538,23.3284563292775,0 91.63101171150802,23.32840693089029,0 91.63101130007524,23.32833572372797,0 91.63103352339851,23.32822216109434,0 91.63103927872645,23.32821162444521,0 91.63101996027576,23.32817185971205,0 91.63101419835927,23.32816202116324,0 91.63100550805591,23.32811700542723,0 91.63094250388978,23.32802958602277,0 91.63077487851129,23.32790053990893,0 91.63064721393981,23.327807529212,0 91.63049846999581,23.32783885148532,0 91.63037323453356,23.3277418123552,0 91.63034157060056,23.32763774213956,0 91.63027756140998,23.32749632005897,0 91.63011508279102,23.32750380404697,0 91.62990877050872,23.32740791510953,0 91.6297584899847,23.32729181315707,0 91.62970949484252,23.32714369317989,0 91.62967699845498,23.32702906027955,0 91.62961239729788,23.32697936729268,0 91.62950118074127,23.32702466509986,0 91.62941959614307,23.32694616546582,0 91.62930093827198,23.32692196589529,0 91.62929396262116,23.3269253191215,0 
					</coordinates>
				</LinearRing>
			</outerBoundaryIs>
		</Polygon>
		<atom:link rel="app" href="https://www.google.com/earth/about/versions/#earth-pro" title="Google Earth Pro 7.3.7.1155"></atom:link>
	</Placemark>
</Document>
</kml>
