<?xml version="1.0" encoding="UTF-8"?>
<kml xmlns="http://www.opengis.net/kml/2.2" xmlns:gx="http://www.google.com/kml/ext/2.2" xmlns:kml="http://www.opengis.net/kml/2.2" xmlns:atom="http://www.w3.org/2005/Atom">
<Document>
	<name>1778076204889.kml</name>
	<StyleMap id="msn_ylw-pushpin">
		<Pair>
			<key>normal</key>
			<styleUrl>#sn_ylw-pushpin</styleUrl>
		</Pair>
		<Pair>
			<key>highlight</key>
			<styleUrl>#sh_ylw-pushpin</styleUrl>
		</Pair>
	</StyleMap>
	<Style id="sh_ylw-pushpin">
		<IconStyle>
			<scale>1.3</scale>
			<Icon>
				<href>http://maps.google.com/mapfiles/kml/pushpin/ylw-pushpin.png</href>
			</Icon>
			<hotSpot x="20" y="2" xunits="pixels" yunits="pixels"/>
		</IconStyle>
		<BalloonStyle>
		</BalloonStyle>
		<PolyStyle>
			<fill>0</fill>
		</PolyStyle>
	</Style>
	<Style id="sn_ylw-pushpin">
		<IconStyle>
			<scale>1.1</scale>
			<Icon>
				<href>http://maps.google.com/mapfiles/kml/pushpin/ylw-pushpin.png</href>
			</Icon>
			<hotSpot x="20" y="2" xunits="pixels" yunits="pixels"/>
		</IconStyle>
		<BalloonStyle>
		</BalloonStyle>
		<PolyStyle>
			<fill>0</fill>
		</PolyStyle>
	</Style>
	<Placemark>
		<name>1778076204889</name>
		<styleUrl>#msn_ylw-pushpin</styleUrl>
		<Polygon>
			<tessellate>1</tessellate>
			<outerBoundaryIs>
				<LinearRing>
					<coordinates>
						91.66675067333665,23.63394254705587,0 91.6665603589273,23.63379863656474,0 91.66641749734258,23.63370871100438,0 91.66639807918285,23.63366037196025,0 91.66632498945204,23.63355866759097,0 91.66617159917595,23.63346778754511,0 91.66610670850039,23.63340131145805,0 91.66603031473097,23.63339448481322,0 91.66586257401825,23.63338569897876,0 91.66584169117752,23.63333739356671,0 91.66581021680517,23.63326016926847,0 91.66583137393073,23.63317666736818,0 91.66586761887494,23.63314315473138,0 91.66588400949492,23.63306788926235,0 91.66593774600337,23.6329952475863,0 91.66597123124926,23.63285007897415,0 91.66598767101033,23.63248700206561,0 91.66598715420265,23.63228342534239,0 91.66600724065331,23.6321893428411,0 91.66610636477256,23.63217729747889,0 91.66623895989127,23.63221229744019,0 91.66635916322041,23.63222090864877,0 91.66654889084226,23.63222842303099,0 91.66673513629988,23.63226039926732,0 91.66687862798817,23.63230702867624,0 91.66692217681415,23.63238540625801,0 91.66696923712064,23.63243387586373,0 91.6670300593624,23.63243050882109,0 91.6670766902205,23.63239167008704,0 91.66713650252018,23.63236895322506,0 91.66728911364491,23.63239507999864,0 91.66748749404279,23.63234194202288,0 91.66769252247234,23.63237788819952,0 91.66771760592906,23.63247403713105,0 91.66773296243184,23.63257804948493,0 91.66776144605626,23.63265030036222,0 91.66772968899407,23.63275164327198,0 91.66772570196585,23.63290984241987,0 91.66774614867145,23.63304539970328,0 91.66775350021084,23.63313593603063,0 91.66768757067588,23.6332382108947,0 91.66767255191033,23.63343646284293,0 91.66760027942526,23.63360781677932,0 91.66753677186696,23.6338917032573,0 91.66752247383018,23.63401061541506,0 91.66749393413627,23.63411783890309,0 91.66745208364497,23.63414071471794,0 91.66738921594444,23.63413454752452,0 91.66719699173497,23.63405388418592,0 91.66705189925567,23.633997106991,0 91.66687475433422,23.63390422328402,0 91.66675067333665,23.63394254705587,0 
					</coordinates>
				</LinearRing>
			</outerBoundaryIs>
		</Polygon>
		<atom:link rel="app" href="https://www.google.com/earth/about/versions/#earth-pro" title="Google Earth Pro 7.3.7.1155"></atom:link>
	</Placemark>
</Document>
</kml>
