<?xml version="1.0" encoding="UTF-8"?>
<kml xmlns="http://www.opengis.net/kml/2.2" xmlns:gx="http://www.google.com/kml/ext/2.2" xmlns:kml="http://www.opengis.net/kml/2.2" xmlns:atom="http://www.w3.org/2005/Atom">
<Document>
	<name>1778166035772.kml</name>
	<StyleMap id="msn_ylw-pushpin">
		<Pair>
			<key>normal</key>
			<styleUrl>#sn_ylw-pushpin</styleUrl>
		</Pair>
		<Pair>
			<key>highlight</key>
			<styleUrl>#sh_ylw-pushpin</styleUrl>
		</Pair>
	</StyleMap>
	<Style id="sh_ylw-pushpin">
		<IconStyle>
			<scale>1.3</scale>
			<Icon>
				<href>http://maps.google.com/mapfiles/kml/pushpin/ylw-pushpin.png</href>
			</Icon>
			<hotSpot x="20" y="2" xunits="pixels" yunits="pixels"/>
		</IconStyle>
		<BalloonStyle>
		</BalloonStyle>
		<LineStyle>
			<width>2.5</width>
		</LineStyle>
		<PolyStyle>
			<fill>0</fill>
		</PolyStyle>
	</Style>
	<Style id="sn_ylw-pushpin">
		<IconStyle>
			<scale>1.1</scale>
			<Icon>
				<href>http://maps.google.com/mapfiles/kml/pushpin/ylw-pushpin.png</href>
			</Icon>
			<hotSpot x="20" y="2" xunits="pixels" yunits="pixels"/>
		</IconStyle>
		<BalloonStyle>
		</BalloonStyle>
		<LineStyle>
			<width>2.5</width>
		</LineStyle>
		<PolyStyle>
			<fill>0</fill>
		</PolyStyle>
	</Style>
	<Placemark>
		<name>1778166035772</name>
		<styleUrl>#msn_ylw-pushpin</styleUrl>
		<Polygon>
			<tessellate>1</tessellate>
			<outerBoundaryIs>
				<LinearRing>
					<coordinates>
						92.09317836910049,24.23057349078923,0 92.09330385571343,24.23066117413705,0 92.09336000623435,24.23066311093121,0 92.09341524432145,24.23066852360579,0 92.09347047342111,24.23066470124125,0 92.09353687914347,24.23061797130492,0 92.09360222706218,24.23061795999457,0 92.09364269814799,24.23068150452266,0 92.09362717984658,24.2308076593728,0 92.09364086906258,24.23090056503321,0 92.09367393704669,24.23094814079107,0 92.09368193344608,24.23095061627856,0 92.09369355253736,24.23095706988994,0 92.09370810669284,24.23096193973957,0 92.09371932321839,24.2309646997897,0 92.09374584667718,24.23097616436333,0 92.09378080900581,24.23098922628516,0 92.09380362175781,24.23099367572717,0 92.09382296434819,24.23099584669098,0 92.09383427308913,24.2309971158419,0 92.09384272511198,24.23099996490515,0 92.09400793495294,24.23101513410445,0 92.09422553124773,24.23096505503991,0 92.09438066845765,24.23099429776193,0 92.09447785188163,24.23108821239693,0 92.09455794702687,24.23118016685713,0 92.09460185032427,24.23123800208572,0 92.09463076629164,24.23128576735759,0 92.09461195087059,24.23140752008725,0 92.09444649148671,24.2315210989814,0 92.09430351705873,24.2315804269041,0 92.09428411767624,24.2315808522112,0 92.09426717172151,24.23158900524194,0 92.09425419628695,24.23159185883824,0 92.09424733270077,24.23159525989019,0 92.09424100992375,24.23160678335745,0 92.09425351624996,24.2316531074614,0 92.09436850560999,24.23170753392251,0 92.09436219136767,24.23186889439413,0 92.09450822968654,24.23185008150703,0 92.0947505628245,24.23201809701161,0 92.09478300472975,24.23212113823833,0 92.09466282184202,24.23227555760618,0 92.09455861740781,24.23238447306259,0 92.09445306320629,24.23240259456294,0 92.09427753798144,24.23229183069348,0 92.09411110100524,24.2321480565835,0 92.09401783891735,24.23223878806102,0 92.09389806007918,24.23230660823182,0 92.09389062055327,24.23230626953498,0 92.09386450757948,24.23231265127074,0 92.0938532225977,24.23231973933106,0 92.09383461170614,24.23232767064034,0 92.09382354135076,24.23233678352837,0 92.09380748087253,24.23234622337052,0 92.09379515375903,24.23234691700541,0 92.09378996380282,24.23236442364536,0 92.09377756550623,24.23236512555754,0 92.09376869973839,24.23237430412566,0 92.09375978546498,24.23238353238548,0 92.09374718112046,24.23238330530878,0 92.09373446501326,24.23238222158611,0 92.09372433408444,24.23238162434485,0 92.09371272680441,24.23239061583076,0 92.09369944183742,24.23240860772271,0 92.09368240295498,24.23241603535667,0 92.09367294284873,24.23242367170565,0 92.09365322171924,24.23243110269659,0 92.09363597817453,24.23243862380702,0 92.09362062087473,24.2324382649518,0 92.09360788341341,24.2324386233214,0 92.09343556735338,24.23239866690077,0 92.0932178658263,24.23237163531699,0 92.09300845485858,24.23226940560696,0 92.09280478760219,24.23225395402297,0 92.09262697921889,24.23219227443506,0 92.09253505238188,24.23209313316643,0 92.09248124803146,24.23198758774427,0 92.09264879128341,24.2316158712499,0 92.09276033690263,24.23144287974234,0 92.09284781982798,24.23123215683339,0 92.09285941467182,24.23110293390296,0 92.09291377733928,24.23093205051665,0 92.09301262824593,24.23075896399268,0 92.0931416913084,24.23062431524115,0 92.09317836910049,24.23057349078923,0 
					</coordinates>
				</LinearRing>
			</outerBoundaryIs>
		</Polygon>
		<atom:link rel="app" href="https://www.google.com/earth/about/versions/#earth-pro" title="Google Earth Pro 7.3.7.1155"></atom:link>
	</Placemark>
</Document>
</kml>
