<?xml version="1.0" encoding="UTF-8"?>
<kml xmlns="http://www.opengis.net/kml/2.2" xmlns:gx="http://www.google.com/kml/ext/2.2" xmlns:kml="http://www.opengis.net/kml/2.2" xmlns:atom="http://www.w3.org/2005/Atom">
<Document>
	<name>AR Bamboo Plant. over 5.0 ha at Ghantacherra JFMC under Kulai Beat-14_14_41.kml</name>
	<StyleMap id="msn_ylw-pushpin">
		<Pair>
			<key>normal</key>
			<styleUrl>#sn_ylw-pushpin</styleUrl>
		</Pair>
		<Pair>
			<key>highlight</key>
			<styleUrl>#sh_ylw-pushpin</styleUrl>
		</Pair>
	</StyleMap>
	<Style id="sh_ylw-pushpin">
		<IconStyle>
			<scale>1.3</scale>
			<Icon>
				<href>http://maps.google.com/mapfiles/kml/pushpin/ylw-pushpin.png</href>
			</Icon>
			<hotSpot x="20" y="2" xunits="pixels" yunits="pixels"/>
		</IconStyle>
		<BalloonStyle>
		</BalloonStyle>
		<PolyStyle>
			<fill>0</fill>
		</PolyStyle>
	</Style>
	<Style id="sn_ylw-pushpin">
		<IconStyle>
			<scale>1.1</scale>
			<Icon>
				<href>http://maps.google.com/mapfiles/kml/pushpin/ylw-pushpin.png</href>
			</Icon>
			<hotSpot x="20" y="2" xunits="pixels" yunits="pixels"/>
		</IconStyle>
		<BalloonStyle>
		</BalloonStyle>
		<PolyStyle>
			<fill>0</fill>
		</PolyStyle>
	</Style>
	<Placemark>
		<name>AR Bamboo Plant. over 5.0 ha at Ghantacherra JFMC under Kulai Beat-14_14_41</name>
		<styleUrl>#msn_ylw-pushpin</styleUrl>
		<Polygon>
			<tessellate>1</tessellate>
			<outerBoundaryIs>
				<LinearRing>
					<coordinates>
						91.79033505231355,23.92247089983834,0 91.79052744297003,23.92252714042024,0 91.7906516604184,23.92253888261776,0 91.79080388978855,23.92260172130761,0 91.7909374999883,23.92259374604365,0 91.79099618830654,23.92256262304599,0 91.79120223025748,23.92255996921145,0 91.79147322319845,23.92259418364235,0 91.79157756862611,23.92257041564253,0 91.79158652074595,23.92260134795554,0 91.79146757557596,23.92275107991871,0 91.7914751709198,23.92277649350378,0 91.791438021864,23.92279169032267,0 91.79144147432932,23.92283718340387,0 91.79153856245462,23.92281400196893,0 91.79153339471382,23.92291729544346,0 91.79148043136399,23.92297275406813,0 91.79144707430277,23.92309382654823,0 91.79145455667476,23.9231615767528,0 91.79146433278113,23.92325103880759,0 91.79152941721892,23.92326369625681,0 91.79159659296893,23.92325382701146,0 91.79166155834034,23.92321594758089,0 91.79165030996418,23.92312175690625,0 91.79160997854673,23.92306293792637,0 91.7915972706729,23.92300668777854,0 91.79160642376027,23.92296129355435,0 91.79166161045409,23.92290324097984,0 91.79170944086488,23.92290250273961,0 91.79175644659095,23.92289739800565,0 91.79190810036708,23.9229864855075,0 91.79198080242206,23.92298883640593,0 91.79197606569025,23.92312359029418,0 91.79207338753787,23.92317783541155,0 91.792141220308,23.92325457820281,0 91.79216557765022,23.92330927622378,0 91.79216766244923,23.92338726991191,0 91.79223801256001,23.92347491022788,0 91.79238309654784,23.92356503602828,0 91.79247644833774,23.92352130425983,0 91.79257339499983,23.92349685404318,0 91.79258345362643,23.92349719562134,0 91.7925944950272,23.92350041141157,0 91.79263833303746,23.92350474868137,0 91.79265095102507,23.92350517866239,0 91.79266529819068,23.92350304314874,0 91.79267844915765,23.92350402076516,0 91.79268694790055,23.92351321329036,0 91.79268911078962,23.92351909858185,0 91.79266642321868,23.92360359009438,0 91.79252075933672,23.92379536079496,0 91.79251498831491,23.92392940995171,0 91.79246213288226,23.92399780609335,0 91.79237056779964,23.92407709287322,0 91.79234392549195,23.92427903037421,0 91.79226597882095,23.92430901361249,0 91.79212849792121,23.9243912360066,0 91.7920527263866,23.92450366386799,0 91.79195810833113,23.92457487083161,0 91.7919350785194,23.92467098250566,0 91.79182132372965,23.92462798062785,0 91.79172611667366,23.9246764066191,0 91.79170327981549,23.92469113757327,0 91.79173474878611,23.92486819256716,0 91.79163788259289,23.92492924080706,0 91.791459813215,23.92495807466689,0 91.79121602775454,23.92484693320038,0 91.7911233011589,23.92486894956538,0 91.79103482635155,23.9248453628134,0 91.79098129587234,23.92480420495544,0 91.7909014906228,23.9246776985077,0 91.79075728682214,23.92461233435231,0 91.79068198564413,23.92459165400525,0 91.79043685296497,23.9248047403855,0 91.7903310268949,23.92434773635236,0 91.7902855233985,23.92415773698878,0 91.79026932255115,23.92400168094063,0 91.79027550649396,23.92394370135185,0 91.79034425576803,23.92379045743324,0 91.79029906323895,23.92359088374168,0 91.78977504691062,23.92303245064153,0 91.7897012471647,23.92287485478149,0 91.78970567581798,23.92275473568023,0 91.78960722044414,23.92257116951187,0 91.7897397253623,23.92240812612767,0 91.78986582853013,23.92231535765521,0 91.7901260513712,23.92233310848866,0 91.79026005111102,23.92237965326619,0 91.79033505231355,23.92247089983834,0 
					</coordinates>
				</LinearRing>
			</outerBoundaryIs>
		</Polygon>
		<atom:link rel="app" href="https://www.google.com/earth/about/versions/#earth-pro" title="Google Earth Pro 7.3.7.1155"></atom:link>
	</Placemark>
</Document>
</kml>
