<?xml version="1.0" encoding="UTF-8"?>
<kml xmlns="http://www.opengis.net/kml/2.2" xmlns:gx="http://www.google.com/kml/ext/2.2" xmlns:kml="http://www.opengis.net/kml/2.2" xmlns:atom="http://www.w3.org/2005/Atom">
<Document>
	<name>1778580012708.kml</name>
	<StyleMap id="msn_ylw-pushpin">
		<Pair>
			<key>normal</key>
			<styleUrl>#sn_ylw-pushpin</styleUrl>
		</Pair>
		<Pair>
			<key>highlight</key>
			<styleUrl>#sh_ylw-pushpin</styleUrl>
		</Pair>
	</StyleMap>
	<Style id="sh_ylw-pushpin">
		<IconStyle>
			<scale>1.3</scale>
			<Icon>
				<href>http://maps.google.com/mapfiles/kml/pushpin/ylw-pushpin.png</href>
			</Icon>
			<hotSpot x="20" y="2" xunits="pixels" yunits="pixels"/>
		</IconStyle>
		<BalloonStyle>
		</BalloonStyle>
		<PolyStyle>
			<fill>0</fill>
		</PolyStyle>
	</Style>
	<Style id="sn_ylw-pushpin">
		<IconStyle>
			<scale>1.1</scale>
			<Icon>
				<href>http://maps.google.com/mapfiles/kml/pushpin/ylw-pushpin.png</href>
			</Icon>
			<hotSpot x="20" y="2" xunits="pixels" yunits="pixels"/>
		</IconStyle>
		<BalloonStyle>
		</BalloonStyle>
		<PolyStyle>
			<fill>0</fill>
		</PolyStyle>
	</Style>
	<Placemark>
		<name>1778580012708</name>
		<styleUrl>#msn_ylw-pushpin</styleUrl>
		<Polygon>
			<tessellate>1</tessellate>
			<outerBoundaryIs>
				<LinearRing>
					<coordinates>
						91.77480509550873,23.58362024011674,0 91.77450779906275,23.58363639092537,0 91.77429064769223,23.58363793934065,0 91.77421957611988,23.58347739153817,0 91.77416962551902,23.58332450602276,0 91.77401563599292,23.58310087836456,0 91.77394715838986,23.58299910676855,0 91.77370947574578,23.5828869285838,0 91.77378784323248,23.58280333717828,0 91.77378510316578,23.58266801086467,0 91.77364182601755,23.58259606560169,0 91.77348534916592,23.58259080259024,0 91.77337337679543,23.58260088266818,0 91.77321485294434,23.58263168184567,0 91.77304457898325,23.58259148574199,0 91.77265384805987,23.58232619863419,0 91.77253070146556,23.58207632718972,0 91.77248735146807,23.58187951185199,0 91.77256232513176,23.58169435495236,0 91.77272038704092,23.58161488857198,0 91.77294962280217,23.58149656493807,0 91.77358017404674,23.58135386470101,0 91.77383642346948,23.58147321248405,0 91.77405829662167,23.58148387038542,0 91.7743384333461,23.58171768918256,0 91.77434814581417,23.58183896752452,0 91.77457469712719,23.58205303729935,0 91.77474006109875,23.58211651860294,0 91.77510145464892,23.5820198472346,0 91.77526692995366,23.58206424432996,0 91.77549333410016,23.58188809780552,0 91.77576039936103,23.58148521696733,0 91.77599608452442,23.58136056834143,0 91.77642910701988,23.58133962593613,0 91.77663768770229,23.58153212824956,0 91.77685693854276,23.58155552703834,0 91.77699685823384,23.58148527914793,0 91.77714853486187,23.58147084659254,0 91.77737748220467,23.58146628594097,0 91.77750122574608,23.5815785193205,0 91.77775640505236,23.5815514050048,0 91.77785999423708,23.58156091391723,0 91.77775714555395,23.58164949627997,0 91.77763017260406,23.58178157443614,0 91.77753895338134,23.58194923063924,0 91.77760723890412,23.5820557024352,0 91.77771331727098,23.58206525311402,0 91.77794400328368,23.58197288397752,0 91.77808053383842,23.58175332799522,0 91.77818469553456,23.58158886739748,0 91.77827269195603,23.58163078728376,0 91.77856202953512,23.58177680627016,0 91.778751439961,23.5818244208393,0 91.77892069742124,23.58180536612583,0 91.77923120527203,23.58164106083393,0 91.77923596152034,23.58144640479139,0 91.77947969757892,23.58150801039538,0 91.779560387229,23.58159617282017,0 91.77954517884265,23.58183381174303,0 91.77951854152251,23.58192321869281,0 91.77958652428057,23.58202738816646,0 91.7795379708455,23.58242609186394,0 91.77922691510398,23.58269353856722,0 91.77920307565671,23.58286180863687,0 91.77898801945031,23.58312412659881,0 91.77900602226123,23.58368732564911,0 91.77866347958853,23.58396984375627,0 91.77828825965052,23.5841309302046,0 91.77804827587727,23.58410127653774,0 91.77764568536547,23.58399510814093,0 91.77723511315911,23.58402991515667,0 91.77701842152864,23.58408884177301,0 91.77680618813166,23.58409465330403,0 91.77668875971699,23.5841197259157,0 91.77640367133353,23.58429274499751,0 91.77622481547128,23.58429119710844,0 91.77583604272829,23.58417469885011,0 91.7755259151003,23.5840400537288,0 91.7751987425921,23.58377785702513,0 91.77480509550873,23.58362024011674,0 
					</coordinates>
				</LinearRing>
			</outerBoundaryIs>
		</Polygon>
		<atom:link rel="app" href="https://www.google.com/earth/about/versions/#earth-pro" title="Google Earth Pro 7.3.7.1155"></atom:link>
	</Placemark>
</Document>
</kml>
