<?xml version="1.0" encoding="UTF-8"?>
<kml xmlns="http://www.opengis.net/kml/2.2" xmlns:gx="http://www.google.com/kml/ext/2.2" xmlns:kml="http://www.opengis.net/kml/2.2" xmlns:atom="http://www.w3.org/2005/Atom">
<Document>
	<name>1778066760440.kml</name>
	<StyleMap id="msn_ylw-pushpin">
		<Pair>
			<key>normal</key>
			<styleUrl>#sn_ylw-pushpin</styleUrl>
		</Pair>
		<Pair>
			<key>highlight</key>
			<styleUrl>#sh_ylw-pushpin</styleUrl>
		</Pair>
	</StyleMap>
	<Style id="sh_ylw-pushpin">
		<IconStyle>
			<scale>1.3</scale>
			<Icon>
				<href>http://maps.google.com/mapfiles/kml/pushpin/ylw-pushpin.png</href>
			</Icon>
			<hotSpot x="20" y="2" xunits="pixels" yunits="pixels"/>
		</IconStyle>
		<BalloonStyle>
		</BalloonStyle>
		<PolyStyle>
			<fill>0</fill>
		</PolyStyle>
	</Style>
	<Style id="sn_ylw-pushpin">
		<IconStyle>
			<scale>1.1</scale>
			<Icon>
				<href>http://maps.google.com/mapfiles/kml/pushpin/ylw-pushpin.png</href>
			</Icon>
			<hotSpot x="20" y="2" xunits="pixels" yunits="pixels"/>
		</IconStyle>
		<BalloonStyle>
		</BalloonStyle>
		<PolyStyle>
			<fill>0</fill>
		</PolyStyle>
	</Style>
	<Placemark>
		<name>1778066760440</name>
		<styleUrl>#msn_ylw-pushpin</styleUrl>
		<Polygon>
			<tessellate>1</tessellate>
			<outerBoundaryIs>
				<LinearRing>
					<coordinates>
						91.78536477216898,23.41983963676529,0 91.78552650126404,23.41981509905087,0 91.78554627469747,23.41980642815327,0 91.78556603342807,23.41979776370745,0 91.78560052004539,23.4197848428225,0 91.78561536678795,23.41977613030971,0 91.78563499368765,23.41977186345686,0 91.78565972617811,23.41975861028941,0 91.78567458940803,23.41974968987791,0 91.78569420896746,23.41974530679545,0 91.78571381883299,23.41974092584097,0 91.78573333083044,23.41974104213196,0 91.78575300981221,23.41973217034845,0 91.78577251606478,23.41973228563427,0 91.78580184736333,23.41972796796046,0 91.78582141450627,23.41972359484142,0 91.78583604391645,23.41972368069995,0 91.78586530911238,23.41972385229741,0 91.78588970363087,23.41972399545945,0 91.78591410366347,23.4197241447221,0 91.78594337527228,23.41972883286344,0 91.78597756919457,23.41972899977391,0 91.78599711251886,23.41972902298757,0 91.78601665664213,23.41972904642486,0 91.78604107057834,23.41972459093261,0 91.78607037989786,23.41972462588871,0 91.78608992019396,23.41972464896397,0 91.78611923579935,23.41972471264576,0 91.78614853059446,23.41972460237207,0 91.78616802919979,23.41972434634843,0 91.78619732976952,23.41972843731934,0 91.78622168284259,23.41972811644476,0 91.78624602240835,23.41972779579412,0 91.78627034851856,23.41972747514595,0 91.78629467982458,23.41972722501215,0 91.78631898793321,23.41972693083183,0 91.78634811466452,23.41972649136547,0 91.78637734239081,23.41973050422881,0 91.7863967393064,23.41973021025559,0 91.78641612644213,23.41972991666796,0 91.7864355037288,23.41972962306455,0 91.78646459017824,23.41972927771878,0 91.78648383223987,23.41972464205295,0 91.7865078352622,23.41971982062573,0 91.78654145266522,23.4197148451153,0 91.78657501741208,23.41970987740468,0 91.78658946213665,23.41970963852733,0 91.78661341277947,23.41970497297295,0 91.78663255420952,23.41970042927159,0 91.78664703179118,23.41970029862713,0 91.78667615274759,23.41970032779055,0 91.78669558989755,23.41970038304468,0 91.78671988878614,23.41970045204566,0 91.7867443944231,23.41970489218713,0 91.78676384334288,23.419704947612,0 91.78678832362006,23.41970932085129,0 91.78681257544916,23.41970929307637,0 91.7868322476003,23.41971370699532,0 91.78685684182544,23.41971819365171,0 91.78688170906179,23.4197270860754,0 91.78689659296235,23.419731545641,0 91.78690765958945,23.4197536467413,0 91.78691820546081,23.41976692706669,0 91.78693388374936,23.41978462207364,0 91.7869547565317,23.41980680134642,0 91.78697025170125,23.4198201506791,0 91.78698086351284,23.41983350289851,0 91.78699695278104,23.41985580258236,0 91.78700242237774,23.4198647427239,0 91.78701858972268,23.41988715117111,0 91.78703014517447,23.41991407930294,0 91.78704116806276,23.41993210083401,0 91.78705233611716,23.41995032044945,0 91.7870585814761,23.41996856670826,0 91.78706484243945,23.41998685798498,0 91.78707111882831,23.42000519421827,0 91.78707311834054,23.42003277429121,0 91.78708442185543,23.4200512693671,0 91.78709575406616,23.42006981115625,0 91.7871121096918,23.42008842431749,0 91.7871324444022,23.42009316322008,0 91.78715243349262,23.42009325930438,0 91.78716744421656,23.42009335376828,0 91.78718281143966,23.42009807504607,0 91.78720319486105,23.42010282750169,0 91.78728941433445,23.42011714470069,0 91.78749000893231,23.42024649631771,0 91.78759499274216,23.42029762368388,0 91.78761052140555,23.42030228359916,0 91.7876373762244,23.42032093121558,0 91.78764407125141,23.42033960718454,0 91.78765077949097,23.42035832055902,0 91.78766214734834,23.42037238285775,0 91.78767902032033,23.42039116629937,0 91.78769585271804,23.42040990724812,0 91.78771270405508,23.42042866964091,0 91.7877245323324,23.42044749456618,0 91.78773128641922,23.42046634266026,0 91.78773847910466,23.42048995823622,0 91.7877503307092,23.4205088588423,0 91.78776266416602,23.42053257770882,0 91.78776958142286,23.42055169752861,0 91.78779117040915,23.42056582037821,0 91.78780774149105,23.42058003655416,0 91.7878243352788,23.42059427220967,0 91.78784095174476,23.42060852735282,0 91.78786257291961,23.4206226456658,0 91.7878781122448,23.42062712094954,0 91.78789868877551,23.42063149928417,0 91.78792474681696,23.42064055149076,0 91.78795036393026,23.42064483317255,0 91.78818524390107,23.42077877402047,0 91.7882284009426,23.42092762330452,0 91.78823763105231,23.42152922764964,0 91.78795430517735,23.42175149331014,0 91.78799464706779,23.4219348921701,0 91.78813115294366,23.42213067434418,0 91.78832533643343,23.42216333080185,0 91.78848676057005,23.42231415421904,0 91.78854090811674,23.42267284737363,0 91.78824725971747,23.42297993301836,0 91.78772581471165,23.42314766953844,0 91.78723664592474,23.42333786124503,0 91.78660296218769,23.42341752540708,0 91.78635636246372,23.42299349878235,0 91.78621604716379,23.42296787314207,0 91.78594015389372,23.42268981728576,0 91.78583637325859,23.42250437685931,0 91.78547629877868,23.42195198704464,0 91.78501425103278,23.42167520336126,0 91.78480129754402,23.42146949578316,0 91.78477042604413,23.4213491318382,0 91.78515379443844,23.42082781104497,0 91.78513509570877,23.42059990533416,0 91.78515472151071,23.42035692576968,0 91.78536477216898,23.41983963676529,0 
					</coordinates>
				</LinearRing>
			</outerBoundaryIs>
		</Polygon>
		<atom:link rel="app" href="https://www.google.com/earth/about/versions/#earth-pro" title="Google Earth Pro 7.3.7.1155"></atom:link>
	</Placemark>
</Document>
</kml>
