<?xml version="1.0" encoding="UTF-8"?>
<kml xmlns="http://www.opengis.net/kml/2.2" xmlns:gx="http://www.google.com/kml/ext/2.2" xmlns:kml="http://www.opengis.net/kml/2.2" xmlns:atom="http://www.w3.org/2005/Atom">
<Document>
	<name>1778225281245.kml</name>
	<StyleMap id="msn_ylw-pushpin">
		<Pair>
			<key>normal</key>
			<styleUrl>#sn_ylw-pushpin</styleUrl>
		</Pair>
		<Pair>
			<key>highlight</key>
			<styleUrl>#sh_ylw-pushpin</styleUrl>
		</Pair>
	</StyleMap>
	<Style id="sh_ylw-pushpin">
		<IconStyle>
			<scale>1.3</scale>
			<Icon>
				<href>http://maps.google.com/mapfiles/kml/pushpin/ylw-pushpin.png</href>
			</Icon>
			<hotSpot x="20" y="2" xunits="pixels" yunits="pixels"/>
		</IconStyle>
		<BalloonStyle>
		</BalloonStyle>
		<PolyStyle>
			<fill>0</fill>
		</PolyStyle>
	</Style>
	<Style id="sn_ylw-pushpin">
		<IconStyle>
			<scale>1.1</scale>
			<Icon>
				<href>http://maps.google.com/mapfiles/kml/pushpin/ylw-pushpin.png</href>
			</Icon>
			<hotSpot x="20" y="2" xunits="pixels" yunits="pixels"/>
		</IconStyle>
		<BalloonStyle>
		</BalloonStyle>
		<PolyStyle>
			<fill>0</fill>
		</PolyStyle>
	</Style>
	<Placemark>
		<name>1778225281245</name>
		<styleUrl>#msn_ylw-pushpin</styleUrl>
		<Polygon>
			<tessellate>1</tessellate>
			<outerBoundaryIs>
				<LinearRing>
					<coordinates>
						91.63190925790855,23.41450238401281,0 91.63160859820044,23.41426991197368,0 91.6315709764616,23.41407441894245,0 91.63148540737315,23.41377745403437,0 91.63141276030527,23.41347755442581,0 91.63140291521349,23.4134539236275,0 91.63139309073186,23.41343034270612,0 91.631383215981,23.41340695403915,0 91.63137841113048,23.41338480685328,0 91.63136830801997,23.41335689860844,0 91.63135805031528,23.4133344669891,0 91.63135344221539,23.41330698456839,0 91.63133775230649,23.41328428144802,0 91.63132191350543,23.41326702667196,0 91.63130609725032,23.41324979694495,0 91.6312903520535,23.41322742146897,0 91.63127438321948,23.41321058814585,0 91.63125855094923,23.41318849579473,0 91.63124262079643,23.41317170646101,0 91.63123767296028,23.41315029944772,0 91.63122730958449,23.41312859683815,0 91.63121744051317,23.41308587765739,0 91.63120792264556,23.41304270776916,0 91.63120369881187,23.41301023122314,0 91.63119908880634,23.41298851002946,0 91.63118929332299,23.4129611712858,0 91.63118427902697,23.41295022573384,0 91.63117239196316,23.4125402007086,0 91.63108840575318,23.41222986872807,0 91.63125797082779,23.41193962825904,0 91.63147471112831,23.4117679951166,0 91.6317650301385,23.4115338442233,0 91.63205980811796,23.41115835772448,0 91.63235173186852,23.4109181268441,0 91.63271613015651,23.41065993594948,0 91.63307629177217,23.41059893189356,0 91.63332881295901,23.41047388379127,0 91.63364706465561,23.41042468038807,0 91.63397954403987,23.41020089663665,0 91.6343895042972,23.41015819395161,0 91.63439175336966,23.41034893860222,0 91.63446076569696,23.41061209076772,0 91.63452569988442,23.41072191022372,0 91.63470916712986,23.41099789330078,0 91.6346340139435,23.41133632630897,0 91.6344381592169,23.41175569661483,0 91.6342140363229,23.41204195856313,0 91.63398683251985,23.41251881430289,0 91.6339040694847,23.4130012927119,0 91.633548630918,23.41331928436888,0 91.63325385096424,23.41350696135899,0 91.63298987826686,23.41389884370469,0 91.63287158531087,23.41395802427523,0 91.6325480586474,23.41408540463582,0 91.6323509112347,23.41432228043751,0 91.63219519901149,23.41467034111892,0 91.63190925790855,23.41450238401281,0 
					</coordinates>
				</LinearRing>
			</outerBoundaryIs>
		</Polygon>
		<atom:link rel="app" href="https://www.google.com/earth/about/versions/#earth-pro" title="Google Earth Pro 7.3.7.1155"></atom:link>
	</Placemark>
</Document>
</kml>
