<?xml version="1.0" encoding="UTF-8"?>
<kml xmlns="http://www.opengis.net/kml/2.2" xmlns:gx="http://www.google.com/kml/ext/2.2" xmlns:kml="http://www.opengis.net/kml/2.2" xmlns:atom="http://www.w3.org/2005/Atom">
<Document>
	<name>1778168573349.kml</name>
	<StyleMap id="msn_ylw-pushpin">
		<Pair>
			<key>normal</key>
			<styleUrl>#sn_ylw-pushpin</styleUrl>
		</Pair>
		<Pair>
			<key>highlight</key>
			<styleUrl>#sh_ylw-pushpin</styleUrl>
		</Pair>
	</StyleMap>
	<Style id="sh_ylw-pushpin">
		<IconStyle>
			<scale>1.3</scale>
			<Icon>
				<href>http://maps.google.com/mapfiles/kml/pushpin/ylw-pushpin.png</href>
			</Icon>
			<hotSpot x="20" y="2" xunits="pixels" yunits="pixels"/>
		</IconStyle>
		<BalloonStyle>
		</BalloonStyle>
		<LineStyle>
			<width>3</width>
		</LineStyle>
		<PolyStyle>
			<fill>0</fill>
		</PolyStyle>
	</Style>
	<Style id="sn_ylw-pushpin">
		<IconStyle>
			<scale>1.1</scale>
			<Icon>
				<href>http://maps.google.com/mapfiles/kml/pushpin/ylw-pushpin.png</href>
			</Icon>
			<hotSpot x="20" y="2" xunits="pixels" yunits="pixels"/>
		</IconStyle>
		<BalloonStyle>
		</BalloonStyle>
		<LineStyle>
			<width>3</width>
		</LineStyle>
		<PolyStyle>
			<fill>0</fill>
		</PolyStyle>
	</Style>
	<Placemark>
		<name>1778168573349</name>
		<styleUrl>#msn_ylw-pushpin</styleUrl>
		<Polygon>
			<tessellate>1</tessellate>
			<outerBoundaryIs>
				<LinearRing>
					<coordinates>
						92.06238113783273,23.72238985243407,0 92.06238072592818,23.72248061654953,0 92.06249350412685,23.72264850921533,0 92.06256362092385,23.72270036995051,0 92.0625953604694,23.72276408795617,0 92.06263522785619,23.72282282069202,0 92.06266909093638,23.72292369130811,0 92.06265601554661,23.72299677235923,0 92.06270776390012,23.7231376067413,0 92.06281694451263,23.72317037716932,0 92.06293783169822,23.72324022792909,0 92.06302053195878,23.72337836925385,0 92.06302774954543,23.72347849905504,0 92.06310695080258,23.72361905124415,0 92.06315307735923,23.72377291902885,0 92.06314799977815,23.72382869906473,0 92.06321181428132,23.72389594799575,0 92.06324276803056,23.72395261029595,0 92.0632273437854,23.72402572767547,0 92.06322940304989,23.72412315933196,0 92.0632321343009,23.72423228275039,0 92.06318315558218,23.72426573207565,0 92.06304563200662,23.72443756743246,0 92.06296130126995,23.72451385852013,0 92.06276576989589,23.72491494679844,0 92.0627819317846,23.7249787369372,0 92.06277356207232,23.72504156917428,0 92.06278123858826,23.72510518219251,0 92.0626910565603,23.72525608136934,0 92.06273594588164,23.72537777788918,0 92.06274978216123,23.72555770195058,0 92.0627611947446,23.72567542819731,0 92.0627956527787,23.7257131699757,0 92.0628615232816,23.72588219329054,0 92.06292178086076,23.72601059694164,0 92.06292221008182,23.72607581403497,0 92.06294103528458,23.72608894274592,0 92.06294873235851,23.72609824005336,0 92.06295683160327,23.72611035384647,0 92.06296053033715,23.72612185963172,0 92.06296203145374,23.72613313037527,0 92.06296429817883,23.7261501497592,0 92.0629680535251,23.72616187910321,0 92.0629699746486,23.72617624750955,0 92.06297473348177,23.72619297500049,0 92.06297399823886,23.72620259030205,0 92.0626980518114,23.72650011591962,0 92.06232990242158,23.72697928053992,0 92.06203458465298,23.72692610181912,0 92.06207658423496,23.726769905134,0 92.06205290931669,23.72672657055585,0 92.06201353266923,23.72669831192378,0 92.06195167691951,23.72672460763841,0 92.06184433147189,23.72669526742753,0 92.06171266439925,23.72659730612261,0 92.06154885340727,23.72644382111819,0 92.06159324387018,23.72633965464892,0 92.06154302952042,23.72624491276228,0 92.06147930915024,23.72615902456424,0 92.06139340138562,23.72611428144555,0 92.06144498297982,23.7259823525599,0 92.06141546041407,23.72588788717674,0 92.06139158596861,23.72580505899127,0 92.0614318965454,23.72567873821744,0 92.06157319739705,23.72556886574651,0 92.06156224988072,23.72554718142128,0 92.06158056218808,23.72542352436192,0 92.06151687903764,23.72529543356573,0 92.06152597606894,23.72518652582924,0 92.0615275066199,23.72500530741196,0 92.06163862672737,23.72494611521564,0 92.06168140326301,23.72474166683805,0 92.06161374524238,23.72456256151202,0 92.06159150164382,23.72449992020033,0 92.06156579756367,23.72442680946669,0 92.06173162585822,23.72409747479856,0 92.06174777968241,23.72400960565696,0 92.06155507689972,23.72352497662142,0 92.06161061352969,23.72343811276987,0 92.06152549375426,23.72327807217848,0 92.06168217359776,23.72312499729188,0 92.0617838133208,23.72307992490164,0 92.06188628194822,23.7230424445305,0 92.0619631497087,23.72303385947314,0 92.06199018060191,23.72303720104918,0 92.06203335847877,23.72300728162756,0 92.0620523179431,23.72293726386548,0 92.06207430671878,23.72288201719326,0 92.06220023259614,23.72281941727034,0 92.06227859484531,23.72283956347774,0 92.0623728103089,23.72268807477516,0 92.06217585368341,23.72263967688295,0 92.06221358355739,23.72259145979259,0 92.06228157731222,23.72252785102689,0 92.06232359482789,23.72248058826181,0 92.06232466061276,23.72242492721188,0 92.06238113783273,23.72238985243407,0 
					</coordinates>
				</LinearRing>
			</outerBoundaryIs>
		</Polygon>
		<atom:link rel="app" href="https://www.google.com/earth/about/versions/#earth-pro" title="Google Earth Pro 7.3.7.1155"></atom:link>
	</Placemark>
</Document>
</kml>
