<?xml version="1.0" encoding="UTF-8"?>
<kml xmlns="http://www.opengis.net/kml/2.2" xmlns:gx="http://www.google.com/kml/ext/2.2" xmlns:kml="http://www.opengis.net/kml/2.2" xmlns:atom="http://www.w3.org/2005/Atom">
<Document>
	<name>1778047432715.kml</name>
	<StyleMap id="msn_ylw-pushpin">
		<Pair>
			<key>normal</key>
			<styleUrl>#sn_ylw-pushpin</styleUrl>
		</Pair>
		<Pair>
			<key>highlight</key>
			<styleUrl>#sh_ylw-pushpin</styleUrl>
		</Pair>
	</StyleMap>
	<Style id="sh_ylw-pushpin">
		<IconStyle>
			<scale>1.3</scale>
			<Icon>
				<href>http://maps.google.com/mapfiles/kml/pushpin/ylw-pushpin.png</href>
			</Icon>
			<hotSpot x="20" y="2" xunits="pixels" yunits="pixels"/>
		</IconStyle>
		<BalloonStyle>
		</BalloonStyle>
		<PolyStyle>
			<fill>0</fill>
		</PolyStyle>
	</Style>
	<Style id="sn_ylw-pushpin">
		<IconStyle>
			<scale>1.1</scale>
			<Icon>
				<href>http://maps.google.com/mapfiles/kml/pushpin/ylw-pushpin.png</href>
			</Icon>
			<hotSpot x="20" y="2" xunits="pixels" yunits="pixels"/>
		</IconStyle>
		<BalloonStyle>
		</BalloonStyle>
		<PolyStyle>
			<fill>0</fill>
		</PolyStyle>
	</Style>
	<Placemark>
		<name>1778047432715</name>
		<styleUrl>#msn_ylw-pushpin</styleUrl>
		<Polygon>
			<tessellate>1</tessellate>
			<outerBoundaryIs>
				<LinearRing>
					<coordinates>
						91.75617426087676,23.53329930356742,0 91.75599308868232,23.53283070187748,0 91.7557810601437,23.53219515207852,0 91.75522898748824,23.53196990997135,0 91.75427817905953,23.53206240505923,0 91.75398005056051,23.53200262767519,0 91.75376148974935,23.53198413149495,0 91.75346644617238,23.53168072469306,0 91.75318543469766,23.53141844850732,0 91.75325176991457,23.53117594799212,0 91.7533166153131,23.53094315107197,0 91.75352348180955,23.53077762607309,0 91.75389322674211,23.53071963862535,0 91.75411723179026,23.53085363935916,0 91.75490759227787,23.53078655331611,0 91.7550111958063,23.5306621471304,0 91.75505685711349,23.53047085923489,0 91.75526114413626,23.53015496057217,0 91.75562974896397,23.53010732898811,0 91.75591300751533,23.52988617556136,0 91.75622083462646,23.52967583758073,0 91.7562335855831,23.52949114412926,0 91.75642039112327,23.52943323041203,0 91.75672451876918,23.52954934680547,0 91.7569756099489,23.52964588663259,0 91.75729723288551,23.52970559192251,0 91.75742080035863,23.52983892551812,0 91.75745617023199,23.52996937754961,0 91.75776690092836,23.53028669857636,0 91.75806026509572,23.53043321158685,0 91.75813276730915,23.53060652199444,0 91.75832776163392,23.53074575993742,0 91.75847222752965,23.53093320639785,0 91.75835350236251,23.53119200076893,0 91.75831233032596,23.53147036060886,0 91.75834224819339,23.53154247022861,0 91.7587733650863,23.5315672478883,0 91.75886903197099,23.53165256761358,0 91.75895048768916,23.53181709495133,0 91.75888186934276,23.53198182706759,0 91.75858625768056,23.53210528184906,0 91.75850524405756,23.53266193635239,0 91.75824934357715,23.53347409828404,0 91.75815381611505,23.53362065569204,0 91.75806929059759,23.53364972333004,0 91.75774843963219,23.53375317945057,0 91.75760039366055,23.53386055559132,0 91.75738866617836,23.53400305748686,0 91.75727022887904,23.53406437557522,0 91.75694411768802,23.53377899776822,0 91.75652888142398,23.53378330221616,0 91.75617426087676,23.53329930356742,0 
					</coordinates>
				</LinearRing>
			</outerBoundaryIs>
		</Polygon>
		<atom:link rel="app" href="https://www.google.com/earth/about/versions/#earth-pro" title="Google Earth Pro 7.3.7.1155"></atom:link>
	</Placemark>
</Document>
</kml>
