<?xml version="1.0" encoding="UTF-8"?>
<kml xmlns="http://www.opengis.net/kml/2.2" xmlns:gx="http://www.google.com/kml/ext/2.2" xmlns:kml="http://www.opengis.net/kml/2.2" xmlns:atom="http://www.w3.org/2005/Atom">
<Document>
	<name>1778226163667.kml</name>
	<StyleMap id="msn_ylw-pushpin">
		<Pair>
			<key>normal</key>
			<styleUrl>#sn_ylw-pushpin</styleUrl>
		</Pair>
		<Pair>
			<key>highlight</key>
			<styleUrl>#sh_ylw-pushpin</styleUrl>
		</Pair>
	</StyleMap>
	<Style id="sh_ylw-pushpin">
		<IconStyle>
			<scale>1.3</scale>
			<Icon>
				<href>http://maps.google.com/mapfiles/kml/pushpin/ylw-pushpin.png</href>
			</Icon>
			<hotSpot x="20" y="2" xunits="pixels" yunits="pixels"/>
		</IconStyle>
		<BalloonStyle>
		</BalloonStyle>
		<PolyStyle>
			<fill>0</fill>
		</PolyStyle>
	</Style>
	<Style id="sn_ylw-pushpin">
		<IconStyle>
			<scale>1.1</scale>
			<Icon>
				<href>http://maps.google.com/mapfiles/kml/pushpin/ylw-pushpin.png</href>
			</Icon>
			<hotSpot x="20" y="2" xunits="pixels" yunits="pixels"/>
		</IconStyle>
		<BalloonStyle>
		</BalloonStyle>
		<PolyStyle>
			<fill>0</fill>
		</PolyStyle>
	</Style>
	<Placemark>
		<name>1778226163667</name>
		<styleUrl>#msn_ylw-pushpin</styleUrl>
		<Polygon>
			<tessellate>1</tessellate>
			<outerBoundaryIs>
				<LinearRing>
					<coordinates>
						91.69900169758641,23.37421334826148,0 91.69871971878554,23.37408745893176,0 91.69819747339301,23.37400247082783,0 91.69787141261016,23.37389827015233,0 91.6973831838521,23.37378787190854,0 91.69724135937673,23.37346540182179,0 91.69717871418977,23.37313028837563,0 91.69714707781537,23.37273823559991,0 91.69704054371599,23.37232459815383,0 91.69713607522809,23.37208255121872,0 91.69710564632129,23.37179839834474,0 91.69713432859845,23.37145491990013,0 91.69718193861578,23.37129996293532,0 91.69726834725638,23.37118306397249,0 91.69736012673448,23.37104578853372,0 91.69768679294461,23.37095367131677,0 91.69811633357699,23.37089521334005,0 91.69856626346025,23.37083891345443,0 91.6990189925537,23.370867657801,0 91.69945348470813,23.37092855460645,0 91.69979642632227,23.37094476753843,0 91.70006578212953,23.37088463094886,0 91.70078029815328,23.37089541643778,0 91.70090201702111,23.37085667988347,0 91.70139409421533,23.37085421371037,0 91.70179897205666,23.37087359855395,0 91.70199785561277,23.37096640508981,0 91.70238635673064,23.37117420625633,0 91.70247087623376,23.37134412481198,0 91.70248553408314,23.37162187209996,0 91.70242513700931,23.3718456842439,0 91.70244535096334,23.37206254482444,0 91.70238390919491,23.37227294735025,0 91.70226016022021,23.37248411976521,0 91.70210783446959,23.37259850698259,0 91.70186020557209,23.37281780878653,0 91.70162936048564,23.37328501694556,0 91.70135489251365,23.373213398357,0 91.70112542855777,23.37319308557757,0 91.70072123853332,23.37314768758007,0 91.70017351182958,23.37316123873472,0 91.69995642242196,23.37323728926857,0 91.69974866432355,23.37327309847123,0 91.6995724394119,23.37349141402354,0 91.69921495634418,23.37392425991774,0 91.69917110732777,23.37413707114742,0 91.69900169758641,23.37421334826148,0 
					</coordinates>
				</LinearRing>
			</outerBoundaryIs>
		</Polygon>
		<atom:link rel="app" href="https://www.google.com/earth/about/versions/#earth-pro" title="Google Earth Pro 7.3.7.1155"></atom:link>
	</Placemark>
</Document>
</kml>
