<?xml version="1.0" encoding="UTF-8"?>
<kml xmlns="http://www.opengis.net/kml/2.2" xmlns:gx="http://www.google.com/kml/ext/2.2" xmlns:kml="http://www.opengis.net/kml/2.2" xmlns:atom="http://www.w3.org/2005/Atom">
<Document>
	<name>1778485463781.kml</name>
	<StyleMap id="msn_ylw-pushpin">
		<Pair>
			<key>normal</key>
			<styleUrl>#sn_ylw-pushpin</styleUrl>
		</Pair>
		<Pair>
			<key>highlight</key>
			<styleUrl>#sh_ylw-pushpin</styleUrl>
		</Pair>
	</StyleMap>
	<Style id="sh_ylw-pushpin">
		<IconStyle>
			<scale>1.3</scale>
			<Icon>
				<href>http://maps.google.com/mapfiles/kml/pushpin/ylw-pushpin.png</href>
			</Icon>
			<hotSpot x="20" y="2" xunits="pixels" yunits="pixels"/>
		</IconStyle>
		<BalloonStyle>
		</BalloonStyle>
		<PolyStyle>
			<fill>0</fill>
		</PolyStyle>
	</Style>
	<Style id="sn_ylw-pushpin">
		<IconStyle>
			<scale>1.1</scale>
			<Icon>
				<href>http://maps.google.com/mapfiles/kml/pushpin/ylw-pushpin.png</href>
			</Icon>
			<hotSpot x="20" y="2" xunits="pixels" yunits="pixels"/>
		</IconStyle>
		<BalloonStyle>
		</BalloonStyle>
		<PolyStyle>
			<fill>0</fill>
		</PolyStyle>
	</Style>
	<Placemark>
		<name>1778485463781</name>
		<styleUrl>#msn_ylw-pushpin</styleUrl>
		<Polygon>
			<tessellate>1</tessellate>
			<outerBoundaryIs>
				<LinearRing>
					<coordinates>
						91.43377449928514,23.54869245887179,0 91.43385900523143,23.54894573869842,0 91.43401745787735,23.54924559970756,0 91.43421525135926,23.54947679938905,0 91.43440886679278,23.54970140647896,0 91.43460024583787,23.5498688057792,0 91.43476096963711,23.55006711321368,0 91.43487874102615,23.5502315700638,0 91.43483756199645,23.55037303984652,0 91.43463291974761,23.55045568582589,0 91.43449491303844,23.55068201166197,0 91.43398765077856,23.55091441771326,0 91.43390921764424,23.55085973242004,0 91.43390179436761,23.55079120582349,0 91.43399798383365,23.55072333447186,0 91.43401241660183,23.55059834597668,0 91.43419267813573,23.55053136954617,0 91.43409547665543,23.55037230159837,0 91.43406659317469,23.55025092032096,0 91.43409490271716,23.55017299661946,0 91.43408045918848,23.55010758402647,0 91.43405036828887,23.54999616575872,0 91.43403647077508,23.54992355578316,0 91.43406497937607,23.54986510946425,0 91.43394932767738,23.54990047462484,0 91.43381536325367,23.5498207084407,0 91.43381506428014,23.54979323371502,0 91.43373034675335,23.54974707655406,0 91.43369787752972,23.54970836667304,0 91.43346704600015,23.54969904129982,0 91.4333219397277,23.54972451320134,0 91.43311556632199,23.5496969033013,0 91.43304405184301,23.54965414036916,0 91.43297451520876,23.54966389845197,0 91.43283344179576,23.54964651696949,0 91.43267640228342,23.54965283999955,0 91.43254027444482,23.54967580419542,0 91.43241903475516,23.5496659805229,0 91.43240237939143,23.549562681186,0 91.43242015204765,23.54947414191256,0 91.43251124635827,23.54937474033387,0 91.43256045504776,23.54925488282721,0 91.43261469677527,23.54918333154752,0 91.43259151272791,23.54904894755707,0 91.43264063901978,23.54894252315014,0 91.43297467672176,23.54886195367892,0 91.43312681340534,23.54886833021773,0 91.43327951619807,23.54890857126842,0 91.4334467020352,23.54891000645901,0 91.43358649094229,23.54880266485367,0 91.43369936501074,23.54871384797337,0 91.43377449928514,23.54869245887179,0 
					</coordinates>
				</LinearRing>
			</outerBoundaryIs>
		</Polygon>
		<atom:link rel="app" href="https://www.google.com/earth/about/versions/#earth-pro" title="Google Earth Pro 7.3.7.1155"></atom:link>
	</Placemark>
</Document>
</kml>
