<?xml version="1.0" encoding="UTF-8"?>
<kml xmlns="http://www.opengis.net/kml/2.2" xmlns:gx="http://www.google.com/kml/ext/2.2" xmlns:kml="http://www.opengis.net/kml/2.2" xmlns:atom="http://www.w3.org/2005/Atom">
<Document>
	<name>2 ha AR BAMBOO CHANDALI ROAJA JFMC OF NORTH LONGTHARAI VC .kml</name>
	<StyleMap id="m_ylw-pushpin">
		<Pair>
			<key>normal</key>
			<styleUrl>#s_ylw-pushpin</styleUrl>
		</Pair>
		<Pair>
			<key>highlight</key>
			<styleUrl>#s_ylw-pushpin_hl</styleUrl>
		</Pair>
	</StyleMap>
	<Style id="s_ylw-pushpin">
		<IconStyle>
			<scale>1.1</scale>
			<Icon>
				<href>http://maps.google.com/mapfiles/kml/pushpin/ylw-pushpin.png</href>
			</Icon>
			<hotSpot x="20" y="2" xunits="pixels" yunits="pixels"/>
		</IconStyle>
		<LineStyle>
			<color>ffffaa00</color>
			<width>5</width>
		</LineStyle>
		<PolyStyle>
			<fill>0</fill>
		</PolyStyle>
	</Style>
	<Style id="s_ylw-pushpin_hl">
		<IconStyle>
			<scale>1.3</scale>
			<Icon>
				<href>http://maps.google.com/mapfiles/kml/pushpin/ylw-pushpin.png</href>
			</Icon>
			<hotSpot x="20" y="2" xunits="pixels" yunits="pixels"/>
		</IconStyle>
		<LineStyle>
			<color>ffffaa00</color>
			<width>5</width>
		</LineStyle>
		<PolyStyle>
			<fill>0</fill>
		</PolyStyle>
	</Style>
	<Placemark>
		<name>2 ha AR BAMBOO CHANDALI ROAJA JFMC OF NORTH LONGTHARAI VC </name>
		<styleUrl>#m_ylw-pushpin</styleUrl>
		<Polygon>
			<tessellate>1</tessellate>
			<outerBoundaryIs>
				<LinearRing>
					<coordinates>
						91.9654618714367,23.86359080326895,0 91.96538022808657,23.86366314575037,0 91.96529883771353,23.86370907977107,0 91.96527144515875,23.86373539640388,0 91.96523631199665,23.86375877817535,0 91.96518291970315,23.86373600046905,0 91.96509076264613,23.86373577835579,0 91.96500833054242,23.86376839914761,0 91.96498161234892,23.86374956430374,0 91.96489657362382,23.86378570223356,0 91.96480255050552,23.86381448940576,0 91.96475036290472,23.86380974945892,0 91.96470867112438,23.86382280500651,0 91.96465153325454,23.86378009348536,0 91.96459373387886,23.86375136769457,0 91.96455111268037,23.8636909611114,0 91.96453744184659,23.86366584923609,0 91.96451092332165,23.86360830524694,0 91.96447429910718,23.86353959014259,0 91.96442182616791,23.86348789390056,0 91.96441125006056,23.86344939661787,0 91.9644084075162,23.86340804669064,0 91.96439835360447,23.86335735795967,0 91.96440286248557,23.86331700488222,0 91.9644262602549,23.86327980327946,0 91.9644489886027,23.86323778124264,0 91.96445381447576,23.86319136539838,0 91.96445512649788,23.86314775732115,0 91.96444337603157,23.86309856160864,0 91.96444785924784,23.86305938857473,0 91.9644862612232,23.86299913776558,0 91.96451643198581,23.8629605235641,0 91.96455629625137,23.86293269263817,0 91.96456361986765,23.86290381703394,0 91.96458267299165,23.86286525312988,0 91.96459837210043,23.86282340205103,0 91.96468674637281,23.86276762760057,0 91.96472630531014,23.86273103321085,0 91.96475286026569,23.86267194067207,0 91.96481697089182,23.86257936264609,0 91.96484453399377,23.8625786073132,0 91.96486700506154,23.86256019438723,0 91.9648798789967,23.86253125121728,0 91.96489985258552,23.86249400258451,0 91.9649050542581,23.86247157999313,0 91.96491480966002,23.86244477983767,0 91.96497747563875,23.86243649519884,0 91.96507034313991,23.86243136696431,0 91.96514107474269,23.86240345229449,0 91.96520352231164,23.86238288567468,0 91.96524761400786,23.86236869116805,0 91.96529384765613,23.86236874992857,0 91.96535170622008,23.86235236165041,0 91.96544888722963,23.86233186893852,0 91.96551628790556,23.86233175009444,0 91.96555923840914,23.86231630318143,0 91.96559120036235,23.86231040394587,0 91.96567981951672,23.86229884924842,0 91.96573967121979,23.86230649752327,0 91.96579239035709,23.86232675545044,0 91.96585254958309,23.86233764687856,0 91.96588419274023,23.86237362281128,0 91.96587321279112,23.86240242408525,0 91.96588350311762,23.86244805210454,0 91.96590462890859,23.86250318091544,0 91.96593672115013,23.86257134063981,0 91.96596186108702,23.86263048104821,0 91.9660491613614,23.86267606703613,0 91.96609300942805,23.86271083753722,0 91.96611514016145,23.86275286787343,0 91.96615917401941,23.86277800790159,0 91.96619236468479,23.86280680078213,0 91.96626597347912,23.86284105067535,0 91.9663215408016,23.86287939485337,0 91.96635187239328,23.86292890287569,0 91.96637554040346,23.86300264561834,0 91.96637644155498,23.86304636783694,0 91.9663481025671,23.86310866115012,0 91.96633068611322,23.86316795008902,0 91.96630122625368,23.86318661919914,0 91.96626399032145,23.86318879178225,0 91.96620440852355,23.86320280768175,0 91.96618581722946,23.86321737767209,0 91.96613354393816,23.863257647608,0 91.96608838497379,23.86326976710106,0 91.96601287134487,23.86328608603151,0 91.96593336415437,23.86330664645365,0 91.96589161356211,23.86332683456929,0 91.96581939478531,23.86335974579145,0 91.96578111523378,23.86341160120497,0 91.96573884353091,23.86346137160536,0 91.96567750227217,23.86349208877691,0 91.96565451030827,23.86349907945207,0 91.96558952017212,23.86350026883751,0 91.96554734710892,23.86350760637251,0 91.9655278300842,23.86353422732768,0 91.9654618714367,23.86359080326895,0 
					</coordinates>
				</LinearRing>
			</outerBoundaryIs>
		</Polygon>
		<atom:link rel="app" href="https://www.google.com/earth/about/versions/#earth-pro" title="Google Earth Pro 7.3.7.1155"></atom:link>
	</Placemark>
</Document>
</kml>
