<?xml version="1.0" encoding="UTF-8"?>
<kml xmlns="http://www.opengis.net/kml/2.2" xmlns:gx="http://www.google.com/kml/ext/2.2" xmlns:kml="http://www.opengis.net/kml/2.2" xmlns:atom="http://www.w3.org/2005/Atom">
<Document>
	<name>Pre Survey Kml file over 10.60 Ha ANR Bamboo at Kalagang under Vanghmun Beat under Element.kml</name>
	<Style id="s_ylw-pushpin_hl">
		<IconStyle>
			<scale>1.3</scale>
			<Icon>
				<href>https://maps.google.com/mapfiles/kml/pushpin/ylw-pushpin.png</href>
			</Icon>
			<hotSpot x="20" y="2" xunits="pixels" yunits="pixels"/>
		</IconStyle>
	</Style>
	<Style id="s_ylw-pushpin">
		<IconStyle>
			<scale>1.1</scale>
			<Icon>
				<href>https://maps.google.com/mapfiles/kml/pushpin/ylw-pushpin.png</href>
			</Icon>
			<hotSpot x="20" y="2" xunits="pixels" yunits="pixels"/>
		</IconStyle>
	</Style>
	<StyleMap id="m_ylw-pushpin">
		<Pair>
			<key>normal</key>
			<styleUrl>#s_ylw-pushpin</styleUrl>
		</Pair>
		<Pair>
			<key>highlight</key>
			<styleUrl>#s_ylw-pushpin_hl</styleUrl>
		</Pair>
	</StyleMap>
	<Placemark id="0AC40B0F623F382ED36F">
		<name>Untitled Polygon</name>
		<styleUrl>#m_ylw-pushpin</styleUrl>
		<Polygon>
			<tessellate>1</tessellate>
			<outerBoundaryIs>
				<LinearRing>
					<coordinates>
						92.3232347058332,23.98235660443812,0 92.32320936392031,23.98235680361287,0 92.32314175670061,23.98235721965079,0 92.32309945103744,23.98235717463312,0 92.32297273772679,23.98235137258702,0 92.32289679919624,23.98235350187063,0 92.32286287808505,23.98234561830527,0 92.32282068453603,23.98234711528183,0 92.3226769486681,23.98234360002235,0 92.32258381081955,23.98233124809976,0 92.32251598653312,23.98231699072496,0 92.32241423213254,23.98230565316406,0 92.32232930839905,23.98228730304368,0 92.3222527955478,23.9822675614652,0 92.32216797682031,23.98222798903539,0 92.32205771704797,23.9821896175428,0 92.32199876150052,23.98214789778365,0 92.32190660485089,23.9820649472262,0 92.32183937868993,23.98202493498381,0 92.32175590144585,23.98195959391775,0 92.32165506391493,23.98192067969045,0 92.32157917869162,23.98190597456885,0 92.3214861654081,23.98189976779495,0 92.32141008722068,23.98189311500796,0 92.32133475492188,23.98188346765892,0 92.32126006603848,23.98187180424847,0 92.32118597072819,23.98185140566251,0 92.32113051682197,23.98179678460032,0 92.32106734388489,23.98173416438613,0 92.32100618427339,23.98163845439336,0 92.32093608390768,23.98155368801775,0 92.32084167284147,23.98146934853914,0 92.32076920762066,23.98144329463411,0 92.32070528752688,23.98140992309857,0 92.32062522349467,23.9813762706244,0 92.32053818482963,23.98131225085603,0 92.32048434845063,23.9812271473549,0 92.32043944023621,23.98112729441922,0 92.32043693045534,23.98100445896058,0 92.32046858612371,23.98085865243454,0 92.32047541470369,23.98074237399912,0 92.32046628671893,23.98064049808384,0 92.3203857675886,23.98051708367088,0 92.32059790330136,23.98024000920339,0 92.32060315454864,23.98015713883635,0 92.32061005729005,23.98005885036231,0 92.32063297667517,23.97997455649607,0 92.32067519102502,23.97994365974742,0 92.32071721591807,23.979912935159,0 92.32080993426027,23.97985687725548,0 92.32091930911292,23.97978526038095,0 92.32105181011549,23.9797195610242,0 92.32111577784534,23.97969629827786,0 92.32117806498182,23.97969550308978,0 92.32125549435085,23.9796951343116,0 92.32134050411308,23.97969496626586,0 92.32144864724845,23.97969482070006,0 92.32148921672535,23.97965059546912,0 92.32154502211914,23.97960647615411,0 92.32162412495869,23.97954140637583,0 92.32164780876401,23.9795198739079,0 92.32170896997098,23.97952011389254,0 92.32179309329777,23.97952044371024,0 92.32182368268727,23.97952059055341,0 92.32192312643099,23.97951446781812,0 92.32203065919153,23.97948671497058,0 92.32206173369873,23.97945135188652,0 92.32207751463858,23.97941576809554,0 92.32211657238464,23.97933820683864,0 92.32222359060253,23.97927516568592,0 92.32226147205699,23.97928268486138,0 92.32233736904816,23.97929784421984,0 92.3223982323767,23.97929834488026,0 92.32242866337238,23.97928430058191,0 92.32247422198866,23.97925613726165,0 92.3225349497982,23.97924238183873,0 92.32255014817352,23.97924248950733,0 92.32264126825839,23.97923579282665,0 92.32272523966506,23.97925760455455,0 92.32274057837824,23.97926478300914,0 92.32277888064044,23.97927905136182,0 92.32284825931433,23.97932168944098,0 92.32288731441045,23.97936441409655,0 92.32297337988575,23.97944321317483,0 92.32304372285337,23.97948667401889,0 92.32309077251162,23.97952237760959,0 92.32313004287346,23.97955100206844,0 92.3231616764736,23.97957966508187,0 92.32320842873182,23.97959411652558,0 92.32324793708361,23.97962289884001,0 92.32330289087241,23.97964482031173,0 92.32339688165557,23.97966722992628,0 92.32345136923318,23.97966777042706,0 92.32350533772114,23.97965394400834,0 92.32383042584044,23.97952337415361,0 92.32390768487238,23.97953698604586,0 92.32395396048983,23.97954371333239,0 92.32401437964543,23.97953568017827,0 92.32404456904193,23.97952835992393,0 92.32412860546967,23.97952107394647,0 92.32424186197369,23.97950569177937,0 92.32434734876618,23.97949712889884,0 92.32442363344049,23.97950997494273,0 92.32448563706404,23.97953704221826,0 92.32454124660789,23.97960504641895,0 92.32455945686,23.97966739289765,0 92.32457083204255,23.97973733220527,0 92.32457404241688,23.97978703497669,0 92.32456217249387,23.9798372499748,0 92.32455183300469,23.97990932170397,0 92.32451900884418,23.97997595762129,0 92.32450006016244,23.98002780839775,0 92.3244649260479,23.98006581618202,0 92.32443498292579,23.98014414575665,0 92.3243679550838,23.9803118704125,0 92.32439998049044,23.98078806985704,0 92.3243732599294,23.9808537160954,0 92.32438292159999,23.98096848006594,0 92.32435664770357,23.9810648572679,0 92.32426136628442,23.9811496268046,0 92.32418288036665,23.98129310856125,0 92.32417647499713,23.98135409333137,0 92.32416288864366,23.98145338031532,0 92.3241477960165,23.98150676245438,0 92.32409825314366,23.98153596043003,0 92.32397468057265,23.98164570599734,0 92.32395121329432,23.98169963983998,0 92.32391073148025,23.98175276356109,0 92.32379643537377,23.98185247840888,0 92.32371463152111,23.98191478557969,0 92.3236908436534,23.98195485780109,0 92.32366756990618,23.98199691559127,0 92.32356040419305,23.98204577302767,0 92.32344555065197,23.98212057207143,0 92.32326641559634,23.98230135986706,0 92.3232096883671,23.98236600110482,0 92.3232347058332,23.98235660443812,0 
					</coordinates>
				</LinearRing>
			</outerBoundaryIs>
		</Polygon>
		<atom:link rel="app" href="https://www.google.com/earth/about/versions/#earth-pro" title="Google Earth Pro 7.3.7.1155"></atom:link>
	</Placemark>
</Document>
</kml>
