<?xml version="1.0" encoding="UTF-8"?>
<kml xmlns="http://www.opengis.net/kml/2.2" xmlns:gx="http://www.google.com/kml/ext/2.2" xmlns:kml="http://www.opengis.net/kml/2.2" xmlns:atom="http://www.w3.org/2005/Atom">
<Document>
	<name>Untitled Polygon.kml</name>
	<Style id="s_ylw-pushpin_hl">
		<IconStyle>
			<scale>1.3</scale>
			<Icon>
				<href>https://maps.google.com/mapfiles/kml/pushpin/ylw-pushpin.png</href>
			</Icon>
			<hotSpot x="20" y="2" xunits="pixels" yunits="pixels"/>
		</IconStyle>
		<PolyStyle>
			<fill>0</fill>
		</PolyStyle>
	</Style>
	<Style id="s_ylw-pushpin">
		<IconStyle>
			<scale>1.1</scale>
			<Icon>
				<href>https://maps.google.com/mapfiles/kml/pushpin/ylw-pushpin.png</href>
			</Icon>
			<hotSpot x="20" y="2" xunits="pixels" yunits="pixels"/>
		</IconStyle>
		<PolyStyle>
			<fill>0</fill>
		</PolyStyle>
	</Style>
	<StyleMap id="m_ylw-pushpin">
		<Pair>
			<key>normal</key>
			<styleUrl>#s_ylw-pushpin</styleUrl>
		</Pair>
		<Pair>
			<key>highlight</key>
			<styleUrl>#s_ylw-pushpin_hl</styleUrl>
		</Pair>
	</StyleMap>
	<Placemark id="06E8B7805F3F3AE1BDD0">
		<name>Untitled Polygon</name>
		<styleUrl>#m_ylw-pushpin</styleUrl>
		<Polygon>
			<tessellate>1</tessellate>
			<outerBoundaryIs>
				<LinearRing>
					<coordinates>
						92.16309736537215,23.83721534010917,0 92.16303777858924,23.83725288866811,0 92.16297867082164,23.83727170444491,0 92.16290484123684,23.83729054794862,0 92.16283014027997,23.83732831735454,0 92.16277070635667,23.83734724390259,0 92.16271203661664,23.83734724450657,0 92.162638699422,23.83734724530077,0 92.16258002964965,23.83734724596748,0 92.16250669241241,23.83734724684008,0 92.16244906665248,23.83732832158122,0 92.16240509657594,23.8373283221444,0 92.16230594461905,23.83727171183669,0 92.16225100462621,23.83721534912533,0 92.16217927815002,23.8371966172053,0 92.16207851394556,23.83717791307901,0 92.1620348004043,23.83717791375584,0 92.16196194447512,23.83717791491748,0 92.1619022235669,23.83719662154088,0 92.16181323038016,23.83721535602347,0 92.16174026788133,23.83721535732129,0 92.16171423404651,23.83717791918099,0 92.16162044406013,23.83708480059494,0 92.16159801569377,23.83701079072471,0 92.16158068201128,23.83688230039715,0 92.16157620681763,23.83677319372337,0 92.16155914309468,23.83664708495488,0 92.16153560924128,23.83659342398332,0 92.16148884220057,23.83648678762111,0 92.16142489605755,23.83641620050231,0 92.16137364651865,23.83636352203735,0 92.1613648484993,23.83631106550966,0 92.16136138255101,23.83620681504395,0 92.16135442817259,23.83613780113345,0 92.16131784937771,23.83608629435708,0 92.16125175556708,23.83605207705876,0 92.16119975744367,23.83601795484354,0 92.16114600883027,23.83600092982698,0 92.16109040114026,23.83600093089324,0 92.16103676589961,23.83598392971028,0 92.16098320520102,23.83596695205136,0 92.160941557507,23.8359669528879,0 92.16090197289405,23.83594999867477,0 92.1608783836806,23.83591615955579,0 92.16082180353618,23.83581520274045,0 92.16081223219503,23.83578173601273,0 92.1608227442544,23.83569847101488,0 92.16082159030427,23.83559930564857,0 92.16083819818718,23.83546834524182,0 92.16084643445757,23.83540339844308,0 92.16084519798612,23.83530663745054,0 92.16082847013305,23.83522660128646,0 92.16078294776591,23.83516296030362,0 92.16072005618892,23.83513126859195,0 92.16067500688999,23.83506813848335,0 92.16068566789447,23.83498969850129,0 92.16068991241711,23.83495846871543,0 92.16072418723518,23.83480356024168,0 92.16076092123154,23.83472687223806,0 92.16081456707983,23.83462035469948,0 92.16085071668786,23.83454486862507,0 92.1608775045348,23.83444001462875,0 92.16091316801553,23.83436570220863,0 92.16092274049737,23.83429187142487,0 92.16093603832118,23.83418930746592,0 92.16093074485615,23.83413111405579,0 92.16090367114991,23.83404438297051,0 92.16094391316803,23.83402999198301,0 92.16099687652277,23.83401561903252,0 92.16106253675338,23.83400126450696,0 92.16113912534557,23.83400126351794,0 92.16123016620914,23.83398692706097,0 92.16129394903244,23.83398692628446,0 92.16137048855201,23.83398692537574,0 92.16139600171391,23.83398692507845,0 92.16147254116665,23.83398692420332,0 92.16155204216471,23.83395830737121,0 92.16158190231531,23.83391551985133,0 92.16163561186987,23.83388708530389,0 92.16168779888777,23.83387289467662,0 92.16177664081367,23.83387289379978,0 92.16182740760276,23.83387289331351,0 92.16187817437367,23.833872892838,0 92.16193017412266,23.83385872049886,0 92.16199478343212,23.83384456604954,0 92.16206045881029,23.83381631135576,0 92.16215016573842,23.83380221050085,0 92.16220182866715,23.83378812782468,0 92.16225240251794,23.83378812743818,0 92.16232923899712,23.8337740622186,0 92.16239428418068,23.83374598617166,0 92.1624573816122,23.83374598574508,0 92.16250785954327,23.83374598541534,0 92.16258357641745,23.83374598493998,0 92.16265929326592,23.83374598448773,0 92.16268453220997,23.83374598434211,0 92.16274762955868,23.8337459839893,0 92.16281072689172,23.83374598365252,0 92.16291168259423,23.83374598314705,0 92.16295128362469,23.83370400218338,0 92.16301480128175,23.83369004364696,0 92.1630908186477,23.83367610245828,0 92.16314113751135,23.8336761022612,0 92.16321661579468,23.83367610198432,0 92.16326502730564,23.83374598170129,0 92.16331303870966,23.83384455816197,0 92.16335007399869,23.83388707378456,0 92.16338601573571,23.83398691051513,0 92.16339816858284,23.83401559932661,0 92.16342170413411,23.83411659108266,0 92.16344627391665,23.834174709591,0 92.16345834041209,23.83421849525302,0 92.16345700562756,23.83429184917331,0 92.16346863400803,23.83436567941399,0 92.16346706103482,23.83445491127261,0 92.16346574078791,23.83452980623323,0 92.16349087723884,23.83459007562725,0 92.16351591259451,23.83466585844743,0 92.16356728471115,23.83475745873582,0 92.16361923247216,23.83483434886458,0 92.16365866639404,23.83486524757719,0 92.1637247522056,23.83489622860148,0 92.16380421656936,23.83495843826892,0 92.16384407220571,23.83502098049633,0 92.16387076118525,23.83506810703289,0 92.16391100977428,23.83514707316588,0 92.16392457055909,23.83521062927559,0 92.16395174796806,23.83529055723463,0 92.16397896290697,23.83533877388391,0 92.16402004396956,23.8354195717387,0 92.16406101596047,23.8354520447815,0 92.16411587474246,23.83550092046037,0 92.16413037716957,23.83558282567259,0 92.16413126826508,23.83566529310659,0 92.16413234568972,23.83576500428476,0 92.16413306894081,23.83583193798477,0 92.1641341613483,23.8359330352031,0 92.16413507866577,23.8360179283996,0 92.16417766799938,23.83608626984963,0 92.16423474028228,23.83617223562024,0 92.16426439404461,23.83627619325405,0 92.16429400016776,23.83636349769291,0 92.16430934730924,23.83643378644222,0 92.1643109062164,23.83652220952415,0 92.16431216134733,23.83659340186485,0 92.16429883819326,23.83664706306639,0 92.1642433585471,23.83675507852427,0 92.16423005912387,23.83682760706365,0 92.16420250896506,23.83691885696207,0 92.16416007338569,23.8369923326846,0 92.16410254688981,23.83702923041861,0 92.16404485325586,23.83706623538429,0 92.16398699175339,23.83710334805044,0 92.16391437999749,23.83712194492882,0 92.1638562228982,23.83712194498817,0 92.16382711258252,23.83714056898165,0 92.16376891311567,23.83714056908106,0 92.16368161391226,23.8371405692801,0 92.16360886457178,23.83714056949177,0 92.16352156535605,23.83714056980072,0 92.16346336587353,23.83714057004,0 92.16340516638599,23.83714057030591,0 92.16333241701834,23.83714057067576,0 92.16327421751691,23.83714057100161,0 92.16321554069931,23.83715922245419,0 92.16315729875436,23.83715922283474,0 92.16309736537215,23.83721534010917,0 
					</coordinates>
				</LinearRing>
			</outerBoundaryIs>
		</Polygon>
		<atom:link rel="app" href="https://www.google.com/earth/about/versions/#earth-pro" title="Google Earth Pro 7.3.7.1155"></atom:link>
	</Placemark>
</Document>
</kml>
