<?xml version="1.0" encoding="UTF-8"?>
<kml xmlns="http://www.opengis.net/kml/2.2" xmlns:gx="http://www.google.com/kml/ext/2.2" xmlns:kml="http://www.opengis.net/kml/2.2" xmlns:atom="http://www.w3.org/2005/Atom">
<Document>
	<name>1778580282746.kml</name>
	<StyleMap id="msn_ylw-pushpin">
		<Pair>
			<key>normal</key>
			<styleUrl>#sn_ylw-pushpin</styleUrl>
		</Pair>
		<Pair>
			<key>highlight</key>
			<styleUrl>#sh_ylw-pushpin</styleUrl>
		</Pair>
	</StyleMap>
	<Style id="sh_ylw-pushpin">
		<IconStyle>
			<scale>1.3</scale>
			<Icon>
				<href>http://maps.google.com/mapfiles/kml/pushpin/ylw-pushpin.png</href>
			</Icon>
			<hotSpot x="20" y="2" xunits="pixels" yunits="pixels"/>
		</IconStyle>
		<BalloonStyle>
		</BalloonStyle>
		<PolyStyle>
			<fill>0</fill>
		</PolyStyle>
	</Style>
	<Style id="sn_ylw-pushpin">
		<IconStyle>
			<scale>1.1</scale>
			<Icon>
				<href>http://maps.google.com/mapfiles/kml/pushpin/ylw-pushpin.png</href>
			</Icon>
			<hotSpot x="20" y="2" xunits="pixels" yunits="pixels"/>
		</IconStyle>
		<BalloonStyle>
		</BalloonStyle>
		<PolyStyle>
			<fill>0</fill>
		</PolyStyle>
	</Style>
	<Placemark>
		<name>1778580282746</name>
		<styleUrl>#msn_ylw-pushpin</styleUrl>
		<Polygon>
			<tessellate>1</tessellate>
			<outerBoundaryIs>
				<LinearRing>
					<coordinates>
						91.77579318545664,23.58462341934245,0 91.77593518741583,23.58452148881039,0 91.7761160141628,23.58446222800599,0 91.77628354310032,23.58446216590113,0 91.77644368210406,23.58454697942045,0 91.7766193248379,23.58473550212948,0 91.77654961274595,23.58509300368851,0 91.77655345457126,23.58516892438145,0 91.7767562259674,23.58550232021974,0 91.77675014746355,23.58597928466004,0 91.77676680050777,23.5860961489165,0 91.77682680720247,23.58621466609686,0 91.77687008905797,23.58654848116707,0 91.77683472812011,23.58678919980131,0 91.77636694456378,23.58719265537096,0 91.77599397805002,23.58723236768414,0 91.77576396960114,23.58721647988893,0 91.77543860340715,23.58753412691265,0 91.77538292557161,23.58756753768856,0 91.77524783409169,23.58771506242581,0 91.77508938015555,23.58778904844373,0 91.77466500042196,23.58802459094319,0 91.77431487667221,23.58797807764517,0 91.77400925608049,23.58798678050891,0 91.77393762914731,23.58796707107145,0 91.77349655045913,23.58794645758632,0 91.77339788392712,23.58774893744597,0 91.77321333341791,23.58759632740796,0 91.77314013771473,23.58744097716958,0 91.7732587747128,23.58721250762934,0 91.77355587826824,23.58686802586492,0 91.77348110946836,23.58650213579577,0 91.77347780722957,23.58622730999658,0 91.77360841440033,23.58599109049595,0 91.7739596199018,23.58587032177897,0 91.7742205283819,23.58587388194582,0 91.77431980531131,23.58566916771963,0 91.77409439163837,23.58543647809941,0 91.77383327534147,23.58520211520291,0 91.7739223915564,23.58503630056812,0 91.77417730228177,23.58497554596487,0 91.77445284482016,23.58495445675464,0 91.774484453927,23.58494490641365,0 91.77454754438907,23.58493026636388,0 91.7745740472301,23.58491628309143,0 91.77459012130137,23.58490250549619,0 91.77461158073912,23.58488415078737,0 91.77463235395344,23.58487936483959,0 91.77464852609981,23.58486117907454,0 91.77479057974898,23.58473517185792,0 91.77499374467394,23.58456448298855,0 91.77535828001525,23.58450874607004,0 91.7755683363704,23.58452996261404,0 91.77579318545664,23.58462341934245,0 
					</coordinates>
				</LinearRing>
			</outerBoundaryIs>
		</Polygon>
		<atom:link rel="app" href="https://www.google.com/earth/about/versions/#earth-pro" title="Google Earth Pro 7.3.7.1155"></atom:link>
	</Placemark>
</Document>
</kml>
