<?xml version="1.0" encoding="UTF-8"?>
<kml xmlns="http://www.opengis.net/kml/2.2" xmlns:gx="http://www.google.com/kml/ext/2.2" xmlns:kml="http://www.opengis.net/kml/2.2" xmlns:atom="http://www.w3.org/2005/Atom">
<Document>
	<name>Pre-Survey Map of ANR Bamboo plantation over 23.0  ha at Brigudas JFMC of  Raktiacherra  Beat under Mandwi Range during the fina.kml</name>
	<StyleMap id="msn_ylw-pushpin">
		<Pair>
			<key>normal</key>
			<styleUrl>#sn_ylw-pushpin</styleUrl>
		</Pair>
		<Pair>
			<key>highlight</key>
			<styleUrl>#sh_ylw-pushpin</styleUrl>
		</Pair>
	</StyleMap>
	<Style id="sh_ylw-pushpin">
		<IconStyle>
			<scale>1.3</scale>
			<Icon>
				<href>http://maps.google.com/mapfiles/kml/pushpin/ylw-pushpin.png</href>
			</Icon>
			<hotSpot x="20" y="2" xunits="pixels" yunits="pixels"/>
		</IconStyle>
		<BalloonStyle>
		</BalloonStyle>
		<LineStyle>
			<width>2.5</width>
		</LineStyle>
		<PolyStyle>
			<fill>0</fill>
		</PolyStyle>
	</Style>
	<Style id="sn_ylw-pushpin">
		<IconStyle>
			<scale>1.1</scale>
			<Icon>
				<href>http://maps.google.com/mapfiles/kml/pushpin/ylw-pushpin.png</href>
			</Icon>
			<hotSpot x="20" y="2" xunits="pixels" yunits="pixels"/>
		</IconStyle>
		<BalloonStyle>
		</BalloonStyle>
		<LineStyle>
			<width>2.5</width>
		</LineStyle>
		<PolyStyle>
			<fill>0</fill>
		</PolyStyle>
	</Style>
	<Placemark>
		<name>Pre-Survey Map of ANR Bamboo plantation over 23.0  ha at Brigudas JFMC of  Raktiacherra  Beat under Mandwi Range during the financial Year 2026-27.-15_20_53.kml</name>
		<styleUrl>#msn_ylw-pushpin</styleUrl>
		<Polygon>
			<tessellate>1</tessellate>
			<outerBoundaryIs>
				<LinearRing>
					<coordinates>
						91.539851321073,23.85017454711291,0 91.53994600017828,23.85003238697873,0 91.54004802371166,23.84996616131241,0 91.54011752984927,23.84987837736083,0 91.54012956805215,23.84973325490865,0 91.54011186797131,23.84959083689104,0 91.54006038574531,23.84940763269947,0 91.54001113442612,23.84923462669807,0 91.54002333282341,23.84903680873322,0 91.540084939021,23.84888539464679,0 91.5400879976898,23.84886795178612,0 91.54010164416742,23.84885389809384,0 91.54011836984427,23.8488433085406,0 91.54013993993846,23.8488258081392,0 91.54016872975163,23.84880838425028,0 91.54025828619365,23.84877705975553,0 91.54033657634554,23.84879345035325,0 91.54037000063566,23.8488170356886,0 91.54042463491656,23.84882019713042,0 91.54053997148475,23.84883397017498,0 91.5406232234599,23.84883822658306,0 91.54070243531625,23.84888698938143,0 91.54082830701583,23.8489163321118,0 91.54087882470711,23.84897078586166,0 91.54098282431643,23.84901961611624,0 91.54109472051337,23.84902191078816,0 91.54124070434767,23.84902795646187,0 91.54125212904255,23.84902443993687,0 91.54127120301439,23.84901735226105,0 91.54128665377777,23.84900647190252,0 91.54130982907773,23.84898833451809,0 91.54132916955189,23.84897022513547,0 91.5413366406479,23.84897032471725,0 91.54144477856345,23.84897774673453,0 91.54159881289505,23.84897265327456,0 91.54177238479974,23.84895076572682,0 91.54186545816572,23.848997308437,0 91.5419421080892,23.84899014274279,0 91.54207528693803,23.84888114506081,0 91.54220101240475,23.84885286783899,0 91.54246562562696,23.84886040107495,0 91.54267031953043,23.84890341474172,0 91.54288503498793,23.84901150220973,0 91.54300119333318,23.84913031221863,0 91.54314106631838,23.8491987159617,0 91.5431477227404,23.84931008401603,0 91.54321546939865,23.8493369215192,0 91.5432319014498,23.84940653415231,0 91.54332708042674,23.84949467074276,0 91.54343842695994,23.8495079525215,0 91.54357731748705,23.8495895292579,0 91.54355269581156,23.84963016013477,0 91.5435976838714,23.84968905044988,0 91.54364266286184,23.849774060182,0 91.5436613213179,23.84986402007498,0 91.54371025308306,23.84987996447504,0 91.54385924117396,23.84990166935848,0 91.54389092518558,23.8499467828829,0 91.54399188194921,23.85006452880408,0 91.54406837719554,23.85010624935124,0 91.54405534984987,23.85019412669127,0 91.54399002003679,23.85017333223245,0 91.5438786861916,23.85026330411835,0 91.54385780416023,23.85037187032177,0 91.54389371527111,23.85051991551553,0 91.54385848580336,23.85065939109558,0 91.54380986816533,23.85084076422621,0 91.54367702304926,23.85100001931444,0 91.54366725333038,23.85113032166083,0 91.54353572693661,23.85120843201688,0 91.5434385236059,23.8513986989902,0 91.54337368740146,23.85164090326344,0 91.543464845415,23.85177404956473,0 91.54345300180447,23.85189659109016,0 91.54328902412087,23.85201263405326,0 91.54337713785786,23.85205464377756,0 91.54338065837486,23.85216928201727,0 91.54339216619819,23.85229263244123,0 91.54334488413704,23.85235418230295,0 91.54316047412435,23.85246686314558,0 91.54308097640546,23.85264332213391,0 91.54293423398336,23.852747126483,0 91.54289011928958,23.8528936460867,0 91.54291762776867,23.85305756446765,0 91.54289029502974,23.85309024059571,0 91.54288068453366,23.85309786375156,0 91.54287328121261,23.85311311114213,0 91.54284823022913,23.85313614346567,0 91.54283675897885,23.85315155766338,0 91.54280636058949,23.85318299571964,0 91.54277918668124,23.8531989411342,0 91.54274075964469,23.8532188118375,0 91.54260114208694,23.85336063374435,0 91.54259909825456,23.85336875484755,0 91.54258460893173,23.8533768166776,0 91.54257894867827,23.85338866631203,0 91.54256103242143,23.85342041062106,0 91.54254789904664,23.8534363689688,0 91.54252480862451,23.85346774630625,0 91.54251627808408,23.85348766098985,0 91.54249820520968,23.85350331320584,0 91.54249155551672,23.85351143220588,0 91.54253116612287,23.85361881104423,0 91.54263439509133,23.85362392790593,0 91.5426386201725,23.85362393160135,0 91.54265640959331,23.85362808197507,0 91.54268447428684,23.85364053071372,0 91.54270654674754,23.85364469872032,0 91.54274468995182,23.85366521938631,0 91.54275396474259,23.85366927710577,0 91.54274698069784,23.85377068434719,0 91.54272694292716,23.85385638587647,0 91.54276579465832,23.85391343317936,0 91.54276072949271,23.85404027447576,0 91.54279929165401,23.85414726019139,0 91.54280718549599,23.85430243300498,0 91.54287595486883,23.85446719428994,0 91.54287421035062,23.85466942783237,0 91.54290599873403,23.85483288621183,0 91.54304104589411,23.85489322116503,0 91.54306843174335,23.85508567010044,0 91.5431741760017,23.85512782153144,0 91.54322071177953,23.85524547338972,0 91.54327152999149,23.85538789204235,0 91.54319541884777,23.85551759041631,0 91.54314884936751,23.85551543410999,0 91.54315137945014,23.85550396956014,0 91.54313195362934,23.8554857462395,0 91.54310744639781,23.85546734885994,0 91.54308944308578,23.85545504158232,0 91.54306108989594,23.85541917634344,0 91.54304056529764,23.85539924881673,0 91.54301598726227,23.85538448858064,0 91.54285625139866,23.85538650142765,0 91.54269916196891,23.85532365035962,0 91.54249616089872,23.85536555481871,0 91.54235832382392,23.8553519387283,0 91.54217716258755,23.85538359649188,0 91.54206393264873,23.85533748239846,0 91.5419778652257,23.85540564284981,0 91.54185802434671,23.85547695795992,0 91.5417753270963,23.8556552139586,0 91.54161553876199,23.85565601116658,0 91.54153711343136,23.85580284307301,0 91.54139776049985,23.85587848111562,0 91.54128289650653,23.85583542158933,0 91.54125282188241,23.85575029922534,0 91.54125589412831,23.85572589574857,0 91.54124940996135,23.85570172094573,0 91.54123777850224,23.85567170588922,0 91.54122229955043,23.85565398715148,0 91.54120652085028,23.855630619078,0 91.54119114989609,23.85561303245539,0 91.54113317638522,23.85548805981392,0 91.54098058480513,23.85544524162173,0 91.54078794524391,23.85542798383353,0 91.54064339021991,23.85543121623853,0 91.54042860126334,23.85540048240407,0 91.54019592453206,23.85534501247476,0 91.54013401989796,23.85522484397413,0 91.54022169081844,23.85503114273064,0 91.5403907228345,23.8549324262063,0 91.54044526359593,23.85480451448652,0 91.54041954089324,23.85465562197267,0 91.54044645029067,23.85454853325109,0 91.54047294609063,23.85441112477585,0 91.54048600977907,23.8542925835206,0 91.54044791379847,23.85423357760595,0 91.54043141369766,23.85413992304748,0 91.54036504425956,23.85402184808352,0 91.54028699261617,23.85390443659287,0 91.54026101474352,23.85375605374666,0 91.54028839189175,23.85362386562102,0 91.54030262219516,23.8535182406,0 91.54027446738068,23.85343246134832,0 91.54022434246174,23.85333756043482,0 91.54007274442282,23.85292399315975,0 91.54001393130325,23.8525584411453,0 91.54003975464711,23.85229220864897,0 91.5399824642414,23.85198984068851,0 91.53997787113336,23.85159995221431,0 91.54000777720742,23.85137062036199,0 91.5399831103517,23.85121048450886,0 91.54000235888583,23.85098169816121,0 91.54009726888472,23.85075435776328,0 91.54003533250462,23.85053988198001,0 91.53985649005465,23.85027979013548,0 91.539851321073,23.85017454711291,0 
					</coordinates>
				</LinearRing>
			</outerBoundaryIs>
		</Polygon>
		<atom:link rel="app" href="https://www.google.com/earth/about/versions/#earth-pro" title="Google Earth Pro 7.3.7.1155"></atom:link>
	</Placemark>
</Document>
</kml>
