<?xml version="1.0" encoding="UTF-8"?>
<kml xmlns="http://www.opengis.net/kml/2.2" xmlns:gx="http://www.google.com/kml/ext/2.2" xmlns:kml="http://www.opengis.net/kml/2.2" xmlns:atom="http://www.w3.org/2005/Atom">
<Document>
	<name>1778066871689.kml</name>
	<StyleMap id="msn_ylw-pushpin">
		<Pair>
			<key>normal</key>
			<styleUrl>#sn_ylw-pushpin</styleUrl>
		</Pair>
		<Pair>
			<key>highlight</key>
			<styleUrl>#sh_ylw-pushpin</styleUrl>
		</Pair>
	</StyleMap>
	<Style id="sh_ylw-pushpin">
		<IconStyle>
			<scale>1.3</scale>
			<Icon>
				<href>http://maps.google.com/mapfiles/kml/pushpin/ylw-pushpin.png</href>
			</Icon>
			<hotSpot x="20" y="2" xunits="pixels" yunits="pixels"/>
		</IconStyle>
		<BalloonStyle>
		</BalloonStyle>
		<PolyStyle>
			<fill>0</fill>
		</PolyStyle>
	</Style>
	<Style id="sn_ylw-pushpin">
		<IconStyle>
			<scale>1.1</scale>
			<Icon>
				<href>http://maps.google.com/mapfiles/kml/pushpin/ylw-pushpin.png</href>
			</Icon>
			<hotSpot x="20" y="2" xunits="pixels" yunits="pixels"/>
		</IconStyle>
		<BalloonStyle>
		</BalloonStyle>
		<PolyStyle>
			<fill>0</fill>
		</PolyStyle>
	</Style>
	<Placemark>
		<name>1778066871689</name>
		<styleUrl>#msn_ylw-pushpin</styleUrl>
		<Polygon>
			<tessellate>1</tessellate>
			<outerBoundaryIs>
				<LinearRing>
					<coordinates>
						91.6430165071184,22.99075480714318,0 91.64287035462442,22.99086441928051,0 91.64276421637203,22.99087760644829,0 91.64278205446128,22.99076117975593,0 91.64291586697867,22.99064868749099,0 91.64305178994343,22.99057990448034,0 91.64296311018765,22.9904694605333,0 91.64284342293438,22.99027175526063,0 91.64269997754926,22.99012347746573,0 91.64284869830448,22.98991358176432,0 91.64290716512306,22.9897555862949,0 91.6429375438189,22.98960910223574,0 91.64295676403168,22.9895520349034,0 91.64311352070513,22.98932513223208,0 91.64345884566863,22.98909091761001,0 91.64359506628054,22.98895935475063,0 91.643611093978,22.98888426792059,0 91.64374840525062,22.98872452133279,0 91.64387117068516,22.98867592443379,0 91.64399619184731,22.9886774889513,0 91.64422610653943,22.98874509420697,0 91.64446545631479,22.98886057434456,0 91.64461291170953,22.98885944768229,0 91.64478536485449,22.98888815977659,0 91.64496691030836,22.98891951429653,0 91.64510959549243,22.98903104253722,0 91.64514722130249,22.98917307903015,0 91.64510358489464,22.98921636019348,0 91.64505643181541,22.98934515940587,0 91.64501919973594,22.98943770460996,0 91.64497337271881,22.98948467819518,0 91.64487701874025,22.98963166356674,0 91.64487260095132,22.98963479202795,0 91.64484639631502,22.98964018104395,0 91.64482089391099,22.98965157032597,0 91.64465435972862,22.98987415285194,0 91.64462512572028,22.98999229384478,0 91.64445753162589,22.99019166561964,0 91.64438969305957,22.9902106321227,0 91.64432826822915,22.99015139501931,0 91.64424164052124,22.99017063772217,0 91.64415614684567,22.99027745395865,0 91.64414854313081,22.99040369410446,0 91.64414767472799,22.99062349473645,0 91.6440511567138,22.99076086749173,0 91.64389148905279,22.99066552432022,0 91.64375337675703,22.99059945020132,0 91.64372647372394,22.99060673639679,0 91.64357416319424,22.9905928465947,0 91.6434941305985,22.99052745148881,0 91.6433872770715,22.99046415582007,0 91.64330822402435,22.99053905424402,0 91.64320481473442,22.99071331966648,0 91.6430165071184,22.99075480714318,0 
					</coordinates>
				</LinearRing>
			</outerBoundaryIs>
		</Polygon>
		<atom:link rel="app" href="https://www.google.com/earth/about/versions/#earth-pro" title="Google Earth Pro 7.3.7.1155"></atom:link>
	</Placemark>
</Document>
</kml>
