<?xml version="1.0" encoding="UTF-8"?>
<kml xmlns="http://www.opengis.net/kml/2.2" xmlns:gx="http://www.google.com/kml/ext/2.2" xmlns:kml="http://www.opengis.net/kml/2.2" xmlns:atom="http://www.w3.org/2005/Atom">
<Document>
	<name>1778162165004.kml</name>
	<StyleMap id="msn_ylw-pushpin">
		<Pair>
			<key>normal</key>
			<styleUrl>#sn_ylw-pushpin</styleUrl>
		</Pair>
		<Pair>
			<key>highlight</key>
			<styleUrl>#sh_ylw-pushpin</styleUrl>
		</Pair>
	</StyleMap>
	<Style id="sh_ylw-pushpin">
		<IconStyle>
			<scale>1.3</scale>
			<Icon>
				<href>http://maps.google.com/mapfiles/kml/pushpin/ylw-pushpin.png</href>
			</Icon>
			<hotSpot x="20" y="2" xunits="pixels" yunits="pixels"/>
		</IconStyle>
		<BalloonStyle>
		</BalloonStyle>
		<LineStyle>
			<width>2.5</width>
		</LineStyle>
		<PolyStyle>
			<fill>0</fill>
		</PolyStyle>
	</Style>
	<Style id="sn_ylw-pushpin">
		<IconStyle>
			<scale>1.1</scale>
			<Icon>
				<href>http://maps.google.com/mapfiles/kml/pushpin/ylw-pushpin.png</href>
			</Icon>
			<hotSpot x="20" y="2" xunits="pixels" yunits="pixels"/>
		</IconStyle>
		<BalloonStyle>
		</BalloonStyle>
		<LineStyle>
			<width>2.5</width>
		</LineStyle>
		<PolyStyle>
			<fill>0</fill>
		</PolyStyle>
	</Style>
	<Placemark>
		<name>1778162165004</name>
		<styleUrl>#msn_ylw-pushpin</styleUrl>
		<Polygon>
			<tessellate>1</tessellate>
			<outerBoundaryIs>
				<LinearRing>
					<coordinates>
						92.21863344141862,24.31347504719382,0 92.21873175022783,24.31340085193505,0 92.21899528468765,24.31337880045855,0 92.21921103121853,24.31337473919675,0 92.21928080270827,24.31338608082908,0 92.2194194720239,24.31337628969013,0 92.21978608992939,24.31349168395334,0 92.21998338423339,24.31348632449589,0 92.22004431868864,24.31357344993305,0 92.22035550660483,24.31354490688511,0 92.22046539117535,24.31358816615899,0 92.22053527346938,24.3136010193441,0 92.22065899128361,24.31374383805456,0 92.22101378046445,24.31374712394049,0 92.22121379962496,24.31387040453479,0 92.22126299646716,24.31396929781585,0 92.22127840956728,24.31421468468193,0 92.22139628359594,24.31442691676239,0 92.22149050576937,24.31448287358496,0 92.2215247558559,24.31473185822053,0 92.22175959036589,24.31511165242604,0 92.22185115323381,24.31547129672891,0 92.22180274871837,24.31595745405828,0 92.22157983509842,24.31656538850614,0 92.22122180118335,24.31710456446369,0 92.22056593526025,24.31703331414605,0 92.22034708565818,24.3169579415844,0 92.22006178684788,24.3163979528689,0 92.21970111670124,24.31640081507949,0 92.21925692408095,24.31610042366847,0 92.21888152329483,24.31575857903974,0 92.2183966887408,24.31557775100162,0 92.21833157994377,24.31546906178913,0 92.21847883069867,24.31521720188185,0 92.21838044109305,24.31472322184583,0 92.21846519549827,24.31423818404704,0 92.21841407816677,24.31411602412301,0 92.21845148507835,24.31394223912128,0 92.21853425383971,24.31379611541603,0 92.21863344141862,24.31347504719382,0 
					</coordinates>
				</LinearRing>
			</outerBoundaryIs>
		</Polygon>
		<atom:link rel="app" href="https://www.google.com/earth/about/versions/#earth-pro" title="Google Earth Pro 7.3.7.1155"></atom:link>
	</Placemark>
</Document>
</kml>
