<?xml version="1.0" encoding="UTF-8"?>
<kml xmlns="http://www.opengis.net/kml/2.2" xmlns:gx="http://www.google.com/kml/ext/2.2" xmlns:kml="http://www.opengis.net/kml/2.2" xmlns:atom="http://www.w3.org/2005/Atom">
<Document>
	<name>1778558600896.kml</name>
	<StyleMap id="msn_ylw-pushpin">
		<Pair>
			<key>normal</key>
			<styleUrl>#sn_ylw-pushpin</styleUrl>
		</Pair>
		<Pair>
			<key>highlight</key>
			<styleUrl>#sh_ylw-pushpin</styleUrl>
		</Pair>
	</StyleMap>
	<Style id="sh_ylw-pushpin">
		<IconStyle>
			<scale>1.3</scale>
			<Icon>
				<href>http://maps.google.com/mapfiles/kml/pushpin/ylw-pushpin.png</href>
			</Icon>
			<hotSpot x="20" y="2" xunits="pixels" yunits="pixels"/>
		</IconStyle>
		<BalloonStyle>
		</BalloonStyle>
		<PolyStyle>
			<fill>0</fill>
		</PolyStyle>
	</Style>
	<Style id="sn_ylw-pushpin">
		<IconStyle>
			<scale>1.1</scale>
			<Icon>
				<href>http://maps.google.com/mapfiles/kml/pushpin/ylw-pushpin.png</href>
			</Icon>
			<hotSpot x="20" y="2" xunits="pixels" yunits="pixels"/>
		</IconStyle>
		<BalloonStyle>
		</BalloonStyle>
		<PolyStyle>
			<fill>0</fill>
		</PolyStyle>
	</Style>
	<Placemark>
		<name>1778558600896</name>
		<styleUrl>#msn_ylw-pushpin</styleUrl>
		<Polygon>
			<tessellate>1</tessellate>
			<outerBoundaryIs>
				<LinearRing>
					<coordinates>
						91.96251480649549,23.73824527488586,0 91.96264151992222,23.7382542225096,0 91.96276397839696,23.73846944167908,0 91.96306618760687,23.73846778909507,0 91.96308706778001,23.7387656692101,0 91.96358544563812,23.73902546439476,0 91.96375009220561,23.73908275584055,0 91.96409174611179,23.73919941629859,0 91.96442578432523,23.73924720697085,0 91.96459262096602,23.73895114930613,0 91.96506432305449,23.73904811754555,0 91.96540011946109,23.73911636531772,0 91.9656369974456,23.73917819757251,0 91.96568577956297,23.7391608631389,0 91.9657149772676,23.73914335333166,0 91.96578331634699,23.73912613515774,0 91.96587139474516,23.73908176390449,0 91.96578924477075,23.7388266953563,0 91.96597498530362,23.73872000060615,0 91.9661314780316,23.73883714904757,0 91.96621860093016,23.73882063440769,0 91.96631467590423,23.73879609951967,0 91.9664198618598,23.73877218561815,0 91.96646794083969,23.73874629057608,0 91.96647762247382,23.73873745716335,0 91.96693205268517,23.73856373232944,0 91.96725407370353,23.73873315491744,0 91.96747490343724,23.73887121790284,0 91.96748446778743,23.73916639840113,0 91.96777198698084,23.73943244672842,0 91.967918488986,23.73969212864175,0 91.96776378798192,23.73999573266528,0 91.96779439301291,23.74045215453844,0 91.96796008285384,23.74050606705161,0 91.96792052286963,23.74069420597525,0 91.96771229255479,23.74090940288468,0 91.96752362204634,23.74153553150238,0 91.96750940179716,23.74189418392565,0 91.96729608693815,23.74210072639007,0 91.96729696233298,23.74219957334329,0 91.96721726824988,23.742315633491,0 91.96722763451638,23.74236064574256,0 91.96724778868895,23.74239671034548,0 91.96718441666819,23.74246651409025,0 91.96730602988018,23.74253988323157,0 91.96733440634344,23.74266487602027,0 91.96702344978517,23.74284874002854,0 91.96689555007714,23.74326794110732,0 91.96685219735258,23.74378169478569,0 91.96695566805718,23.74418059173722,0 91.96702544923426,23.7443698416811,0 91.96699180888935,23.74485580690931,0 91.9671617435915,23.74527207030825,0 91.96669048272821,23.74527877569728,0 91.96629114004639,23.7449128028893,0 91.96611544818981,23.74487427358269,0 91.96602428346741,23.74466266442601,0 91.96601583661027,23.7444002105621,0 91.96573213532916,23.74414341833953,0 91.96556785512601,23.74402580704887,0 91.96529972427264,23.74381394618135,0 91.96517688410361,23.74379102056808,0 91.96500608042984,23.74356742871678,0 91.96428888509192,23.74351705746911,0 91.9642029987757,23.74311188968029,0 91.96343176150941,23.74285321553742,0 91.9630401210667,23.74276734984852,0 91.96304283288352,23.74249439703316,0 91.963082687152,23.7424491636986,0 91.96315120743368,23.7423950619495,0 91.9632095930945,23.74234157805819,0 91.96323779421687,23.74235045134303,0 91.96283974359336,23.74225527945592,0 91.96255775442954,23.74189919935373,0 91.96232840993542,23.74163305573711,0 91.96235618768165,23.7411711161192,0 91.96246866059384,23.74092739957536,0 91.96208928251065,23.74077749015324,0 91.96182569810146,23.74075888499918,0 91.96150910150837,23.74055716137166,0 91.96117448035454,23.74042068828158,0 91.96088869870931,23.74008556555053,0 91.9609105765734,23.73977136297874,0 91.96077968925201,23.73973386895593,0 91.96081916652298,23.7393774902361,0 91.96087910979641,23.73903080738149,0 91.96090982416278,23.73884474633694,0 91.96112133640274,23.7389389368873,0 91.96136874627126,23.73891590215132,0 91.96168789686985,23.73885290858702,0 91.96182646729957,23.73890873684103,0 91.96213634997657,23.7385058612422,0 91.96251480649549,23.73824527488586,0 
					</coordinates>
				</LinearRing>
			</outerBoundaryIs>
		</Polygon>
		<atom:link rel="app" href="https://www.google.com/earth/about/versions/#earth-pro" title="Google Earth Pro 7.3.7.1155"></atom:link>
	</Placemark>
</Document>
</kml>
