<?xml version="1.0" encoding="UTF-8"?>
<kml xmlns="http://www.opengis.net/kml/2.2" xmlns:gx="http://www.google.com/kml/ext/2.2" xmlns:kml="http://www.opengis.net/kml/2.2" xmlns:atom="http://www.w3.org/2005/Atom">
<Document>
	<name>1778236273432.kml</name>
	<StyleMap id="m_ylw-pushpin">
		<Pair>
			<key>normal</key>
			<styleUrl>#s_ylw-pushpin</styleUrl>
		</Pair>
		<Pair>
			<key>highlight</key>
			<styleUrl>#s_ylw-pushpin_hl</styleUrl>
		</Pair>
	</StyleMap>
	<Style id="s_ylw-pushpin">
		<IconStyle>
			<scale>1.1</scale>
			<Icon>
				<href>http://maps.google.com/mapfiles/kml/pushpin/ylw-pushpin.png</href>
			</Icon>
			<hotSpot x="20" y="2" xunits="pixels" yunits="pixels"/>
		</IconStyle>
		<PolyStyle>
			<fill>0</fill>
		</PolyStyle>
	</Style>
	<Style id="s_ylw-pushpin_hl">
		<IconStyle>
			<scale>1.3</scale>
			<Icon>
				<href>http://maps.google.com/mapfiles/kml/pushpin/ylw-pushpin.png</href>
			</Icon>
			<hotSpot x="20" y="2" xunits="pixels" yunits="pixels"/>
		</IconStyle>
		<PolyStyle>
			<fill>0</fill>
		</PolyStyle>
	</Style>
	<Placemark>
		<name>1778236273432.kml</name>
		<styleUrl>#m_ylw-pushpin</styleUrl>
		<Polygon>
			<tessellate>1</tessellate>
			<outerBoundaryIs>
				<LinearRing>
					<coordinates>
						92.19741378639355,24.13491557582078,0 92.19734603927719,24.13464700326774,0 92.19721337919435,24.13450004717901,0 92.19712425427971,24.13435818335851,0 92.19711287669807,24.13420944302534,0 92.19718697797535,24.13413840142391,0 92.19725079729997,24.13402055249201,0 92.19722004513939,24.13390634474098,0 92.19704138869919,24.13380465462711,0 92.19709092130589,24.13344772392516,0 92.19723347323715,24.13324785894194,0 92.19727963695532,24.13313273593875,0 92.19737701788304,24.13303473746381,0 92.19741378828955,24.13295970568097,0 92.19743968483526,24.13289425708671,0 92.19753583247127,24.13279725286078,0 92.19769435897321,24.13272461391226,0 92.19789241307393,24.13264741062702,0 92.19801699321953,24.13259355236411,0 92.19811789345476,24.13256878257539,0 92.19822995715445,24.13261295532968,0 92.19818325017724,24.13271065508759,0 92.19810540249451,24.13278759242062,0 92.19808082478863,24.13289270392498,0 92.19807649889731,24.13300240385081,0 92.19810919773438,24.1329880610588,0 92.19814091090431,24.13300323603324,0 92.19818664066729,24.13300041247405,0 92.19824925735637,24.13299584497924,0 92.19830500059075,24.13298559291767,0 92.19837745078264,24.13296953749215,0 92.19842014235348,24.13297800153152,0 92.19846301261298,24.13299145324154,0 92.19853036814389,24.13305709889922,0 92.1985821035357,24.13305937116021,0 92.19863224379796,24.13308652854237,0 92.19867242678986,24.13309101992911,0 92.1987542208939,24.13303321506834,0 92.19881217694059,24.13301230350116,0 92.19885960669879,24.13301210786853,0 92.19893027344341,24.1330144731412,0 92.19898752731721,24.13306349208009,0 92.19904200537499,24.1330982758933,0 92.19910340678115,24.13310128715771,0 92.1991475458836,24.13309355868055,0 92.19937102207592,24.13287388559121,0 92.19942131021114,24.13291527761722,0 92.19941345298267,24.13301133449421,0 92.19935648363104,24.13311157212623,0 92.19938312958136,24.13316747721127,0 92.19943114687437,24.13323057932803,0 92.19948764923069,24.13332514195683,0 92.19954245474067,24.13338874060247,0 92.19960902116048,24.13340024915269,0 92.199813687201,24.13328011785466,0 92.19990671637608,24.13330819677491,0 92.19997578542728,24.13333935052158,0 92.2000422369821,24.13334130156497,0 92.20003373707245,24.13336798429894,0 92.2000825948234,24.13342459906668,0 92.20014091599657,24.13355393912356,0 92.20014049560409,24.13364748066186,0 92.20012981434857,24.13368951989215,0 92.2001288909039,24.13376929272519,0 92.20011596054887,24.13378933612823,0 92.20008037030671,24.13388984409905,0 92.20013083926025,24.13408726069776,0 92.20018021040522,24.13423394673377,0 92.20021725387447,24.13433602838763,0 92.2002711615643,24.13446402549724,0 92.20032365015781,24.13458443737071,0 92.20034740302577,24.13474559430138,0 92.2004185839086,24.13496394274285,0 92.20043369296037,24.13502480674276,0 92.20052272278389,24.13531562555189,0 92.20053354594305,24.13550648656272,0 92.2004697771263,24.13557559071757,0 92.20030628146637,24.1356886895704,0 92.20016216975557,24.13576109922135,0 92.20008559212813,24.13587223067761,0 92.19999674773561,24.13587172412421,0 92.19991598171414,24.13602614317524,0 92.19989206322691,24.13604828999232,0 92.19982302062056,24.13597650126427,0 92.199687436882,24.13602603704508,0 92.19963428306201,24.13604338015289,0 92.19959946509965,24.13605977321766,0 92.19956742819029,24.13606324540561,0 92.19955659007381,24.13598421256733,0 92.19952775334305,24.13600906234205,0 92.19947781750454,24.13615442344626,0 92.1993944497482,24.13612475599031,0 92.19933036343919,24.13613236377927,0 92.19927713229772,24.1361540392191,0 92.19916507805077,24.13624402332125,0 92.19911133775143,24.13627022040874,0 92.1990670553843,24.13624128330125,0 92.19915459310994,24.13618066856401,0 92.19908352175098,24.13610234137692,0 92.19896457928969,24.13623177318103,0 92.19888003784413,24.13628609517248,0 92.19880584842892,24.13628064315924,0 92.19866801079853,24.13629410821233,0 92.19863587707009,24.13630505142133,0 92.198571629093,24.1363951339452,0 92.19844123726131,24.13635326742752,0 92.19834437101723,24.13616805844224,0 92.19817516009417,24.13611723479702,0 92.19810810199304,24.1361091042028,0 92.19804078432033,24.13594379488128,0 92.19798290021642,24.1358084969036,0 92.19792106201962,24.13573811890785,0 92.19788736429065,24.13569335727508,0 92.19780011908031,24.13553583913273,0 92.19770565461079,24.13546202923124,0 92.19760244385952,24.13547986229235,0 92.1975214582139,24.13537218361131,0 92.1974730413158,24.13528339883137,0 92.19740170924251,24.13517363333525,0 92.19741378639355,24.13491557582078,0 
					</coordinates>
				</LinearRing>
			</outerBoundaryIs>
		</Polygon>
		<atom:link rel="app" href="https://www.google.com/earth/about/versions/#earth-pro" title="Google Earth Pro 7.3.7.1155"></atom:link>
	</Placemark>
</Document>
</kml>
